<?xml version="1.0" encoding="UTF-8"?>
<gpx version="1.1" creator="Linienjagd Castrop-Rauxel" xmlns="http://www.topografix.com/GPX/1/1">
  <metadata><name>Linie 237 – Stadtgebiet Castrop-Rauxel</name><desc>Bus 237: Recklinghausen Hbf =&gt; Castrop-Rauxel, Münsterplatz | 11.15 km in Castrop-Rauxel | 14 Haltestellen</desc></metadata>
  <wpt lat="51.5750505" lon="7.2527659"><name>01 Wewelingstraße</name><sym>Flag</sym></wpt>
  <wpt lat="51.5787772" lon="7.2643171"><name>02 Tappenhof</name><sym>Flag</sym></wpt>
  <wpt lat="51.5800647" lon="7.2722119"><name>03 Pöppinghauser Straße/Westring</name><sym>Flag</sym></wpt>
  <wpt lat="51.5820285" lon="7.2859631"><name>04 Grenzweg</name><sym>Flag</sym></wpt>
  <wpt lat="51.5835565" lon="7.2939256"><name>05 Kanalstraße/Brücke</name><sym>Flag</sym></wpt>
  <wpt lat="51.5886829" lon="7.3024141"><name>06 Rheinstraße</name><sym>Flag</sym></wpt>
  <wpt lat="51.5892239" lon="7.3056044"><name>07 Germanenstraße</name><sym>Flag</sym></wpt>
  <wpt lat="51.5882577" lon="7.3095087"><name>08 Römerstraße</name><sym>Flag</sym></wpt>
  <wpt lat="51.5849195" lon="7.3097961"><name>09 Habinghorster Straße</name><sym>Flag</sym></wpt>
  <wpt lat="51.5803599" lon="7.3090231"><name>10 Hertzstraße</name><sym>Flag</sym></wpt>
  <wpt lat="51.5729972" lon="7.3053114"><name>11 Castrop-Rauxel Hbf</name><sym>Flag</sym></wpt>
  <wpt lat="51.5644247" lon="7.3089598"><name>12 Europaplatz</name><sym>Flag</sym></wpt>
  <wpt lat="51.5584745" lon="7.3101940"><name>13 Lunastraße</name><sym>Flag</sym></wpt>
  <wpt lat="51.5497556" lon="7.3093970"><name>14 Castrop Münsterplatz</name><sym>Flag</sym></wpt>
  <trk><name>Linie 237 – Stadtgebiet Castrop-Rauxel</name>
    <trkseg>
      <trkpt lat="51.5720232" lon="7.2432921"/>
      <trkpt lat="51.5720859" lon="7.2433403"/>
      <trkpt lat="51.5721280" lon="7.2433851"/>
      <trkpt lat="51.5721612" lon="7.2434223"/>
      <trkpt lat="51.5725024" lon="7.2440594"/>
      <trkpt lat="51.5725550" lon="7.2441577"/>
      <trkpt lat="51.5726746" lon="7.2443964"/>
      <trkpt lat="51.5727827" lon="7.2446534"/>
      <trkpt lat="51.5732127" lon="7.2460257"/>
      <trkpt lat="51.5739591" lon="7.2484424"/>
      <trkpt lat="51.5743015" lon="7.2495342"/>
      <trkpt lat="51.5744494" lon="7.2500222"/>
      <trkpt lat="51.5745425" lon="7.2503723"/>
      <trkpt lat="51.5747012" lon="7.2511945"/>
      <trkpt lat="51.5749060" lon="7.2522398"/>
      <trkpt lat="51.5750505" lon="7.2527659"/>
      <trkpt lat="51.5750917" lon="7.2529100"/>
      <trkpt lat="51.5752111" lon="7.2533344"/>
      <trkpt lat="51.5753140" lon="7.2536766"/>
      <trkpt lat="51.5753847" lon="7.2538523"/>
      <trkpt lat="51.5759278" lon="7.2547191"/>
      <trkpt lat="51.5767256" lon="7.2556843"/>
      <trkpt lat="51.5767988" lon="7.2557728"/>
      <trkpt lat="51.5770043" lon="7.2559983"/>
      <trkpt lat="51.5781831" lon="7.2573807"/>
      <trkpt lat="51.5782596" lon="7.2575237"/>
      <trkpt lat="51.5783138" lon="7.2576552"/>
      <trkpt lat="51.5783652" lon="7.2578499"/>
      <trkpt lat="51.5784171" lon="7.2581460"/>
      <trkpt lat="51.5784457" lon="7.2584034"/>
      <trkpt lat="51.5784895" lon="7.2588365"/>
      <trkpt lat="51.5786245" lon="7.2604056"/>
      <trkpt lat="51.5787088" lon="7.2608001"/>
      <trkpt lat="51.5787917" lon="7.2611092"/>
      <trkpt lat="51.5788514" lon="7.2613435"/>
      <trkpt lat="51.5789038" lon="7.2615490"/>
      <trkpt lat="51.5789246" lon="7.2616813"/>
      <trkpt lat="51.5789464" lon="7.2618674"/>
      <trkpt lat="51.5789530" lon="7.2620731"/>
      <trkpt lat="51.5789468" lon="7.2622880"/>
      <trkpt lat="51.5789241" lon="7.2625183"/>
      <trkpt lat="51.5788473" lon="7.2634086"/>
      <trkpt lat="51.5788084" lon="7.2635169"/>
      <trkpt lat="51.5787768" lon="7.2637026"/>
      <trkpt lat="51.5787727" lon="7.2637412"/>
      <trkpt lat="51.5787635" lon="7.2638465"/>
      <trkpt lat="51.5787633" lon="7.2640049"/>
      <trkpt lat="51.5787809" lon="7.2642629"/>
      <trkpt lat="51.5787772" lon="7.2643171"/>
      <trkpt lat="51.5787712" lon="7.2643813"/>
      <trkpt lat="51.5787592" lon="7.2644832"/>
      <trkpt lat="51.5787033" lon="7.2649340"/>
      <trkpt lat="51.5786930" lon="7.2650450"/>
      <trkpt lat="51.5786890" lon="7.2651984"/>
      <trkpt lat="51.5786980" lon="7.2654030"/>
      <trkpt lat="51.5787138" lon="7.2655661"/>
      <trkpt lat="51.5787364" lon="7.2656832"/>
      <trkpt lat="51.5788410" lon="7.2661022"/>
      <trkpt lat="51.5789252" lon="7.2664520"/>
      <trkpt lat="51.5789458" lon="7.2665615"/>
      <trkpt lat="51.5789561" lon="7.2666967"/>
      <trkpt lat="51.5788712" lon="7.2675436"/>
      <trkpt lat="51.5788749" lon="7.2677794"/>
      <trkpt lat="51.5788960" lon="7.2679102"/>
      <trkpt lat="51.5789290" lon="7.2680251"/>
      <trkpt lat="51.5790144" lon="7.2681946"/>
      <trkpt lat="51.5791497" lon="7.2683457"/>
      <trkpt lat="51.5792913" lon="7.2684462"/>
      <trkpt lat="51.5794221" lon="7.2685436"/>
      <trkpt lat="51.5795860" lon="7.2686763"/>
      <trkpt lat="51.5797620" lon="7.2689037"/>
      <trkpt lat="51.5798454" lon="7.2691412"/>
      <trkpt lat="51.5798843" lon="7.2694064"/>
      <trkpt lat="51.5799029" lon="7.2698830"/>
      <trkpt lat="51.5799057" lon="7.2699551"/>
      <trkpt lat="51.5799206" lon="7.2707798"/>
      <trkpt lat="51.5799399" lon="7.2710661"/>
      <trkpt lat="51.5799767" lon="7.2714289"/>
      <trkpt lat="51.5800647" lon="7.2722119"/>
      <trkpt lat="51.5801041" lon="7.2726652"/>
      <trkpt lat="51.5801691" lon="7.2736300"/>
      <trkpt lat="51.5802373" lon="7.2749050"/>
      <trkpt lat="51.5803596" lon="7.2771637"/>
      <trkpt lat="51.5804234" lon="7.2782481"/>
      <trkpt lat="51.5804682" lon="7.2791898"/>
      <trkpt lat="51.5805138" lon="7.2799587"/>
      <trkpt lat="51.5805641" lon="7.2808116"/>
      <trkpt lat="51.5806114" lon="7.2816919"/>
      <trkpt lat="51.5806205" lon="7.2818814"/>
      <trkpt lat="51.5806509" lon="7.2825114"/>
      <trkpt lat="51.5806772" lon="7.2829357"/>
      <trkpt lat="51.5807103" lon="7.2831495"/>
      <trkpt lat="51.5807450" lon="7.2833334"/>
      <trkpt lat="51.5807885" lon="7.2835336"/>
      <trkpt lat="51.5808463" lon="7.2837276"/>
      <trkpt lat="51.5809577" lon="7.2840016"/>
      <trkpt lat="51.5810886" lon="7.2842614"/>
      <trkpt lat="51.5814749" lon="7.2849594"/>
      <trkpt lat="51.5817886" lon="7.2855447"/>
      <trkpt lat="51.5820285" lon="7.2859631"/>
      <trkpt lat="51.5820372" lon="7.2859786"/>
      <trkpt lat="51.5820971" lon="7.2860952"/>
      <trkpt lat="51.5824386" lon="7.2867114"/>
      <trkpt lat="51.5825861" lon="7.2869740"/>
      <trkpt lat="51.5827299" lon="7.2872819"/>
      <trkpt lat="51.5827940" lon="7.2874515"/>
      <trkpt lat="51.5828400" lon="7.2876200"/>
      <trkpt lat="51.5828753" lon="7.2877630"/>
      <trkpt lat="51.5829122" lon="7.2879668"/>
      <trkpt lat="51.5829304" lon="7.2881204"/>
      <trkpt lat="51.5829383" lon="7.2882839"/>
      <trkpt lat="51.5829389" lon="7.2885729"/>
      <trkpt lat="51.5829329" lon="7.2887717"/>
      <trkpt lat="51.5829065" lon="7.2896042"/>
      <trkpt lat="51.5829014" lon="7.2897791"/>
      <trkpt lat="51.5828616" lon="7.2909703"/>
      <trkpt lat="51.5828384" lon="7.2917749"/>
      <trkpt lat="51.5828368" lon="7.2919895"/>
      <trkpt lat="51.5828507" lon="7.2922106"/>
      <trkpt lat="51.5828750" lon="7.2924290"/>
      <trkpt lat="51.5829133" lon="7.2926293"/>
      <trkpt lat="51.5829568" lon="7.2928070"/>
      <trkpt lat="51.5830038" lon="7.2929750"/>
      <trkpt lat="51.5830646" lon="7.2931401"/>
      <trkpt lat="51.5831270" lon="7.2932813"/>
      <trkpt lat="51.5832401" lon="7.2934829"/>
      <trkpt lat="51.5832980" lon="7.2935637"/>
      <trkpt lat="51.5835565" lon="7.2939256"/>
      <trkpt lat="51.5843350" lon="7.2950282"/>
      <trkpt lat="51.5846720" lon="7.2955447"/>
      <trkpt lat="51.5849886" lon="7.2961114"/>
      <trkpt lat="51.5853053" lon="7.2966947"/>
      <trkpt lat="51.5856164" lon="7.2972703"/>
      <trkpt lat="51.5860278" lon="7.2980278"/>
      <trkpt lat="51.5862348" lon="7.2983601"/>
      <trkpt lat="51.5866670" lon="7.2989721"/>
      <trkpt lat="51.5871020" lon="7.2995874"/>
      <trkpt lat="51.5874961" lon="7.3001454"/>
      <trkpt lat="51.5878970" lon="7.3007081"/>
      <trkpt lat="51.5881895" lon="7.3011273"/>
      <trkpt lat="51.5882838" lon="7.3012809"/>
      <trkpt lat="51.5883468" lon="7.3014004"/>
      <trkpt lat="51.5884625" lon="7.3016540"/>
      <trkpt lat="51.5885475" lon="7.3018903"/>
      <trkpt lat="51.5886267" lon="7.3021733"/>
      <trkpt lat="51.5886829" lon="7.3024141"/>
      <trkpt lat="51.5887030" lon="7.3025098"/>
      <trkpt lat="51.5887204" lon="7.3025984"/>
      <trkpt lat="51.5888133" lon="7.3031013"/>
      <trkpt lat="51.5888666" lon="7.3034339"/>
      <trkpt lat="51.5889055" lon="7.3036972"/>
      <trkpt lat="51.5889371" lon="7.3038777"/>
      <trkpt lat="51.5891037" lon="7.3048311"/>
      <trkpt lat="51.5891268" lon="7.3049741"/>
      <trkpt lat="51.5891328" lon="7.3050131"/>
      <trkpt lat="51.5892239" lon="7.3056044"/>
      <trkpt lat="51.5892420" lon="7.3057647"/>
      <trkpt lat="51.5892516" lon="7.3059311"/>
      <trkpt lat="51.5892542" lon="7.3060537"/>
      <trkpt lat="51.5892531" lon="7.3061048"/>
      <trkpt lat="51.5892485" lon="7.3061934"/>
      <trkpt lat="51.5892170" lon="7.3065571"/>
      <trkpt lat="51.5891672" lon="7.3070428"/>
      <trkpt lat="51.5890793" lon="7.3078988"/>
      <trkpt lat="51.5890398" lon="7.3082726"/>
      <trkpt lat="51.5890014" lon="7.3086578"/>
      <trkpt lat="51.5889452" lon="7.3092050"/>
      <trkpt lat="51.5889123" lon="7.3095253"/>
      <trkpt lat="51.5887200" lon="7.3094973"/>
      <trkpt lat="51.5885961" lon="7.3094906"/>
      <trkpt lat="51.5882577" lon="7.3095087"/>
      <trkpt lat="51.5882112" lon="7.3095131"/>
      <trkpt lat="51.5879799" lon="7.3095440"/>
      <trkpt lat="51.5874879" lon="7.3096025"/>
      <trkpt lat="51.5863927" lon="7.3096887"/>
      <trkpt lat="51.5860827" lon="7.3097099"/>
      <trkpt lat="51.5850877" lon="7.3097781"/>
      <trkpt lat="51.5849765" lon="7.3097894"/>
      <trkpt lat="51.5849195" lon="7.3097961"/>
      <trkpt lat="51.5846845" lon="7.3098262"/>
      <trkpt lat="51.5845496" lon="7.3098592"/>
      <trkpt lat="51.5842831" lon="7.3099308"/>
      <trkpt lat="51.5842461" lon="7.3099407"/>
      <trkpt lat="51.5840917" lon="7.3099807"/>
      <trkpt lat="51.5839120" lon="7.3100462"/>
      <trkpt lat="51.5838750" lon="7.3100599"/>
      <trkpt lat="51.5835928" lon="7.3101641"/>
      <trkpt lat="51.5832908" lon="7.3102756"/>
      <trkpt lat="51.5831741" lon="7.3103187"/>
      <trkpt lat="51.5829408" lon="7.3104048"/>
      <trkpt lat="51.5827266" lon="7.3104840"/>
      <trkpt lat="51.5826942" lon="7.3104959"/>
      <trkpt lat="51.5826570" lon="7.3105096"/>
      <trkpt lat="51.5825814" lon="7.3105376"/>
      <trkpt lat="51.5825167" lon="7.3105614"/>
      <trkpt lat="51.5823584" lon="7.3106202"/>
      <trkpt lat="51.5822803" lon="7.3106469"/>
      <trkpt lat="51.5819485" lon="7.3107834"/>
      <trkpt lat="51.5816995" lon="7.3106882"/>
      <trkpt lat="51.5816532" lon="7.3106357"/>
      <trkpt lat="51.5815988" lon="7.3105790"/>
      <trkpt lat="51.5815543" lon="7.3105230"/>
      <trkpt lat="51.5815123" lon="7.3104765"/>
      <trkpt lat="51.5814937" lon="7.3103795"/>
      <trkpt lat="51.5814729" lon="7.3102986"/>
      <trkpt lat="51.5814444" lon="7.3102173"/>
      <trkpt lat="51.5814157" lon="7.3101666"/>
      <trkpt lat="51.5813842" lon="7.3101111"/>
      <trkpt lat="51.5813047" lon="7.3099847"/>
      <trkpt lat="51.5811548" lon="7.3097940"/>
      <trkpt lat="51.5810192" lon="7.3096067"/>
      <trkpt lat="51.5809241" lon="7.3094847"/>
      <trkpt lat="51.5808276" lon="7.3093804"/>
      <trkpt lat="51.5807122" lon="7.3092810"/>
      <trkpt lat="51.5805946" lon="7.3091979"/>
      <trkpt lat="51.5804510" lon="7.3090964"/>
      <trkpt lat="51.5803599" lon="7.3090231"/>
      <trkpt lat="51.5802998" lon="7.3089742"/>
      <trkpt lat="51.5802286" lon="7.3089021"/>
      <trkpt lat="51.5800960" lon="7.3087276"/>
      <trkpt lat="51.5799687" lon="7.3084809"/>
      <trkpt lat="51.5798558" lon="7.3081596"/>
      <trkpt lat="51.5798054" lon="7.3079395"/>
      <trkpt lat="51.5797493" lon="7.3076392"/>
      <trkpt lat="51.5797226" lon="7.3074275"/>
      <trkpt lat="51.5796866" lon="7.3071049"/>
      <trkpt lat="51.5796570" lon="7.3067285"/>
      <trkpt lat="51.5796285" lon="7.3063363"/>
      <trkpt lat="51.5796169" lon="7.3060790"/>
      <trkpt lat="51.5796106" lon="7.3059438"/>
      <trkpt lat="51.5795889" lon="7.3052616"/>
      <trkpt lat="51.5795625" lon="7.3048841"/>
      <trkpt lat="51.5795430" lon="7.3047085"/>
      <trkpt lat="51.5795405" lon="7.3045969"/>
      <trkpt lat="51.5796414" lon="7.3043567"/>
      <trkpt lat="51.5796329" lon="7.3043009"/>
      <trkpt lat="51.5796159" lon="7.3042504"/>
      <trkpt lat="51.5795914" lon="7.3042085"/>
      <trkpt lat="51.5795611" lon="7.3041780"/>
      <trkpt lat="51.5795270" lon="7.3041610"/>
      <trkpt lat="51.5794913" lon="7.3041586"/>
      <trkpt lat="51.5794616" lon="7.3041681"/>
      <trkpt lat="51.5794339" lon="7.3041877"/>
      <trkpt lat="51.5794094" lon="7.3042165"/>
      <trkpt lat="51.5793895" lon="7.3042531"/>
      <trkpt lat="51.5793749" lon="7.3042958"/>
      <trkpt lat="51.5793664" lon="7.3043426"/>
      <trkpt lat="51.5793647" lon="7.3043987"/>
      <trkpt lat="51.5793718" lon="7.3044538"/>
      <trkpt lat="51.5793872" lon="7.3045043"/>
      <trkpt lat="51.5794099" lon="7.3045470"/>
      <trkpt lat="51.5794385" lon="7.3045792"/>
      <trkpt lat="51.5794712" lon="7.3045990"/>
      <trkpt lat="51.5795059" lon="7.3046050"/>
      <trkpt lat="51.5795405" lon="7.3045969"/>
      <trkpt lat="51.5795706" lon="7.3045770"/>
      <trkpt lat="51.5795971" lon="7.3045464"/>
      <trkpt lat="51.5796184" lon="7.3045067"/>
      <trkpt lat="51.5796334" lon="7.3044601"/>
      <trkpt lat="51.5796412" lon="7.3044092"/>
      <trkpt lat="51.5796414" lon="7.3043567"/>
      <trkpt lat="51.5793664" lon="7.3043426"/>
      <trkpt lat="51.5792954" lon="7.3043177"/>
      <trkpt lat="51.5791975" lon="7.3042995"/>
      <trkpt lat="51.5791132" lon="7.3042838"/>
      <trkpt lat="51.5789128" lon="7.3042721"/>
      <trkpt lat="51.5788166" lon="7.3042658"/>
      <trkpt lat="51.5786146" lon="7.3042616"/>
      <trkpt lat="51.5785786" lon="7.3042629"/>
      <trkpt lat="51.5785218" lon="7.3042654"/>
      <trkpt lat="51.5784641" lon="7.3042648"/>
      <trkpt lat="51.5783454" lon="7.3042559"/>
      <trkpt lat="51.5778798" lon="7.3042330"/>
      <trkpt lat="51.5774764" lon="7.3042427"/>
      <trkpt lat="51.5774093" lon="7.3042445"/>
      <trkpt lat="51.5771947" lon="7.3042479"/>
      <trkpt lat="51.5769763" lon="7.3042489"/>
      <trkpt lat="51.5768299" lon="7.3042464"/>
      <trkpt lat="51.5767178" lon="7.3042392"/>
      <trkpt lat="51.5766069" lon="7.3042233"/>
      <trkpt lat="51.5765074" lon="7.3042084"/>
      <trkpt lat="51.5764474" lon="7.3042046"/>
      <trkpt lat="51.5760920" lon="7.3042074"/>
      <trkpt lat="51.5760053" lon="7.3042068"/>
      <trkpt lat="51.5757616" lon="7.3042317"/>
      <trkpt lat="51.5757666" lon="7.3042785"/>
      <trkpt lat="51.5757785" lon="7.3043219"/>
      <trkpt lat="51.5757964" lon="7.3043595"/>
      <trkpt lat="51.5758194" lon="7.3043890"/>
      <trkpt lat="51.5758462" lon="7.3044089"/>
      <trkpt lat="51.5758751" lon="7.3044179"/>
      <trkpt lat="51.5759045" lon="7.3044154"/>
      <trkpt lat="51.5759292" lon="7.3044041"/>
      <trkpt lat="51.5759519" lon="7.3043847"/>
      <trkpt lat="51.5759716" lon="7.3043581"/>
      <trkpt lat="51.5759873" lon="7.3043255"/>
      <trkpt lat="51.5759985" lon="7.3042883"/>
      <trkpt lat="51.5760046" lon="7.3042482"/>
      <trkpt lat="51.5760053" lon="7.3042068"/>
      <trkpt lat="51.5759963" lon="7.3041462"/>
      <trkpt lat="51.5759758" lon="7.3040931"/>
      <trkpt lat="51.5759461" lon="7.3040530"/>
      <trkpt lat="51.5759100" lon="7.3040300"/>
      <trkpt lat="51.5758877" lon="7.3040255"/>
      <trkpt lat="51.5758654" lon="7.3040276"/>
      <trkpt lat="51.5758436" lon="7.3040362"/>
      <trkpt lat="51.5758232" lon="7.3040511"/>
      <trkpt lat="51.5758048" lon="7.3040718"/>
      <trkpt lat="51.5757890" lon="7.3040975"/>
      <trkpt lat="51.5757765" lon="7.3041274"/>
      <trkpt lat="51.5757676" lon="7.3041605"/>
      <trkpt lat="51.5757626" lon="7.3041957"/>
      <trkpt lat="51.5757616" lon="7.3042317"/>
      <trkpt lat="51.5756693" lon="7.3042392"/>
      <trkpt lat="51.5755671" lon="7.3042530"/>
      <trkpt lat="51.5755286" lon="7.3042644"/>
      <trkpt lat="51.5754871" lon="7.3042766"/>
      <trkpt lat="51.5753632" lon="7.3043100"/>
      <trkpt lat="51.5752130" lon="7.3043654"/>
      <trkpt lat="51.5750021" lon="7.3044486"/>
      <trkpt lat="51.5746749" lon="7.3045971"/>
      <trkpt lat="51.5745293" lon="7.3046667"/>
      <trkpt lat="51.5742710" lon="7.3047703"/>
      <trkpt lat="51.5738406" lon="7.3049592"/>
      <trkpt lat="51.5736126" lon="7.3050586"/>
      <trkpt lat="51.5735423" lon="7.3050928"/>
      <trkpt lat="51.5734124" lon="7.3051323"/>
      <trkpt lat="51.5733208" lon="7.3051722"/>
      <trkpt lat="51.5732939" lon="7.3051840"/>
      <trkpt lat="51.5732835" lon="7.3051883"/>
      <trkpt lat="51.5729972" lon="7.3053114"/>
      <trkpt lat="51.5727986" lon="7.3054100"/>
      <trkpt lat="51.5723227" lon="7.3055940"/>
      <trkpt lat="51.5721570" lon="7.3056570"/>
      <trkpt lat="51.5718536" lon="7.3057848"/>
      <trkpt lat="51.5717040" lon="7.3058438"/>
      <trkpt lat="51.5711689" lon="7.3060962"/>
      <trkpt lat="51.5711378" lon="7.3061087"/>
      <trkpt lat="51.5710234" lon="7.3061600"/>
      <trkpt lat="51.5709051" lon="7.3062107"/>
      <trkpt lat="51.5708025" lon="7.3062555"/>
      <trkpt lat="51.5702850" lon="7.3064871"/>
      <trkpt lat="51.5701979" lon="7.3065188"/>
      <trkpt lat="51.5699860" lon="7.3065922"/>
      <trkpt lat="51.5697241" lon="7.3066903"/>
      <trkpt lat="51.5695481" lon="7.3067690"/>
      <trkpt lat="51.5694124" lon="7.3068488"/>
      <trkpt lat="51.5690207" lon="7.3070186"/>
      <trkpt lat="51.5687465" lon="7.3071041"/>
      <trkpt lat="51.5685333" lon="7.3071993"/>
      <trkpt lat="51.5683960" lon="7.3072613"/>
      <trkpt lat="51.5683483" lon="7.3072828"/>
      <trkpt lat="51.5682005" lon="7.3073398"/>
      <trkpt lat="51.5681115" lon="7.3073758"/>
      <trkpt lat="51.5680526" lon="7.3073996"/>
      <trkpt lat="51.5677509" lon="7.3075225"/>
      <trkpt lat="51.5674637" lon="7.3076515"/>
      <trkpt lat="51.5674096" lon="7.3076758"/>
      <trkpt lat="51.5672115" lon="7.3077611"/>
      <trkpt lat="51.5671126" lon="7.3078032"/>
      <trkpt lat="51.5669581" lon="7.3078688"/>
      <trkpt lat="51.5668826" lon="7.3079009"/>
      <trkpt lat="51.5667992" lon="7.3079364"/>
      <trkpt lat="51.5666572" lon="7.3079967"/>
      <trkpt lat="51.5665969" lon="7.3080189"/>
      <trkpt lat="51.5665456" lon="7.3080392"/>
      <trkpt lat="51.5665268" lon="7.3080434"/>
      <trkpt lat="51.5664245" lon="7.3080729"/>
      <trkpt lat="51.5663393" lon="7.3081088"/>
      <trkpt lat="51.5662034" lon="7.3081660"/>
      <trkpt lat="51.5660662" lon="7.3082238"/>
      <trkpt lat="51.5659747" lon="7.3082624"/>
      <trkpt lat="51.5658225" lon="7.3083230"/>
      <trkpt lat="51.5656849" lon="7.3083321"/>
      <trkpt lat="51.5656268" lon="7.3083360"/>
      <trkpt lat="51.5655657" lon="7.3083095"/>
      <trkpt lat="51.5655270" lon="7.3082819"/>
      <trkpt lat="51.5655075" lon="7.3082763"/>
      <trkpt lat="51.5654876" lon="7.3082755"/>
      <trkpt lat="51.5654679" lon="7.3082796"/>
      <trkpt lat="51.5654488" lon="7.3082884"/>
      <trkpt lat="51.5654307" lon="7.3083019"/>
      <trkpt lat="51.5654141" lon="7.3083196"/>
      <trkpt lat="51.5654000" lon="7.3083403"/>
      <trkpt lat="51.5653879" lon="7.3083640"/>
      <trkpt lat="51.5653780" lon="7.3083904"/>
      <trkpt lat="51.5653707" lon="7.3084188"/>
      <trkpt lat="51.5653661" lon="7.3084486"/>
      <trkpt lat="51.5653642" lon="7.3084792"/>
      <trkpt lat="51.5652854" lon="7.3085172"/>
      <trkpt lat="51.5648350" lon="7.3087370"/>
      <trkpt lat="51.5647242" lon="7.3087997"/>
      <trkpt lat="51.5646520" lon="7.3088584"/>
      <trkpt lat="51.5644247" lon="7.3089598"/>
      <trkpt lat="51.5642856" lon="7.3090327"/>
      <trkpt lat="51.5642624" lon="7.3090394"/>
      <trkpt lat="51.5641811" lon="7.3090629"/>
      <trkpt lat="51.5639311" lon="7.3091874"/>
      <trkpt lat="51.5639342" lon="7.3092346"/>
      <trkpt lat="51.5639435" lon="7.3092797"/>
      <trkpt lat="51.5639653" lon="7.3093337"/>
      <trkpt lat="51.5639958" lon="7.3093754"/>
      <trkpt lat="51.5640325" lon="7.3094010"/>
      <trkpt lat="51.5640782" lon="7.3094081"/>
      <trkpt lat="51.5641228" lon="7.3093904"/>
      <trkpt lat="51.5641550" lon="7.3093589"/>
      <trkpt lat="51.5641806" lon="7.3093145"/>
      <trkpt lat="51.5641977" lon="7.3092607"/>
      <trkpt lat="51.5642051" lon="7.3092013"/>
      <trkpt lat="51.5642003" lon="7.3091289"/>
      <trkpt lat="51.5641811" lon="7.3090629"/>
      <trkpt lat="51.5641509" lon="7.3090122"/>
      <trkpt lat="51.5641123" lon="7.3089793"/>
      <trkpt lat="51.5641007" lon="7.3089761"/>
      <trkpt lat="51.5640693" lon="7.3089676"/>
      <trkpt lat="51.5640261" lon="7.3089782"/>
      <trkpt lat="51.5639873" lon="7.3090101"/>
      <trkpt lat="51.5639622" lon="7.3090482"/>
      <trkpt lat="51.5639439" lon="7.3090952"/>
      <trkpt lat="51.5639344" lon="7.3091402"/>
      <trkpt lat="51.5639311" lon="7.3091874"/>
      <trkpt lat="51.5639439" lon="7.3090952"/>
      <trkpt lat="51.5639134" lon="7.3091175"/>
      <trkpt lat="51.5638404" lon="7.3091405"/>
      <trkpt lat="51.5636350" lon="7.3092051"/>
      <trkpt lat="51.5632865" lon="7.3092742"/>
      <trkpt lat="51.5626236" lon="7.3094166"/>
      <trkpt lat="51.5624469" lon="7.3094439"/>
      <trkpt lat="51.5624119" lon="7.3094508"/>
      <trkpt lat="51.5623302" lon="7.3094669"/>
      <trkpt lat="51.5621916" lon="7.3094929"/>
      <trkpt lat="51.5620238" lon="7.3095325"/>
      <trkpt lat="51.5619025" lon="7.3095542"/>
      <trkpt lat="51.5616577" lon="7.3095941"/>
      <trkpt lat="51.5616218" lon="7.3096019"/>
      <trkpt lat="51.5615170" lon="7.3096218"/>
      <trkpt lat="51.5613670" lon="7.3096467"/>
      <trkpt lat="51.5612500" lon="7.3096662"/>
      <trkpt lat="51.5611662" lon="7.3096781"/>
      <trkpt lat="51.5611503" lon="7.3096806"/>
      <trkpt lat="51.5609859" lon="7.3097072"/>
      <trkpt lat="51.5604623" lon="7.3097914"/>
      <trkpt lat="51.5604392" lon="7.3097952"/>
      <trkpt lat="51.5604044" lon="7.3098006"/>
      <trkpt lat="51.5603541" lon="7.3098083"/>
      <trkpt lat="51.5602141" lon="7.3098423"/>
      <trkpt lat="51.5601405" lon="7.3098546"/>
      <trkpt lat="51.5597843" lon="7.3099432"/>
      <trkpt lat="51.5596382" lon="7.3099762"/>
      <trkpt lat="51.5594332" lon="7.3100194"/>
      <trkpt lat="51.5590879" lon="7.3100751"/>
      <trkpt lat="51.5589829" lon="7.3100981"/>
      <trkpt lat="51.5587868" lon="7.3101374"/>
      <trkpt lat="51.5587610" lon="7.3101419"/>
      <trkpt lat="51.5584745" lon="7.3101940"/>
      <trkpt lat="51.5584694" lon="7.3101947"/>
      <trkpt lat="51.5583849" lon="7.3101535"/>
      <trkpt lat="51.5582940" lon="7.3101489"/>
      <trkpt lat="51.5581818" lon="7.3101600"/>
      <trkpt lat="51.5580628" lon="7.3101828"/>
      <trkpt lat="51.5579862" lon="7.3101974"/>
      <trkpt lat="51.5577884" lon="7.3102352"/>
      <trkpt lat="51.5577661" lon="7.3102395"/>
      <trkpt lat="51.5576795" lon="7.3102561"/>
      <trkpt lat="51.5575950" lon="7.3103385"/>
      <trkpt lat="51.5572382" lon="7.3104326"/>
      <trkpt lat="51.5571427" lon="7.3104521"/>
      <trkpt lat="51.5570697" lon="7.3104669"/>
      <trkpt lat="51.5565228" lon="7.3105780"/>
      <trkpt lat="51.5563656" lon="7.3106100"/>
      <trkpt lat="51.5560681" lon="7.3106704"/>
      <trkpt lat="51.5559932" lon="7.3106857"/>
      <trkpt lat="51.5557517" lon="7.3107347"/>
      <trkpt lat="51.5555824" lon="7.3107691"/>
      <trkpt lat="51.5555167" lon="7.3107807"/>
      <trkpt lat="51.5552761" lon="7.3108314"/>
      <trkpt lat="51.5552056" lon="7.3108460"/>
      <trkpt lat="51.5550635" lon="7.3108746"/>
      <trkpt lat="51.5549884" lon="7.3108899"/>
      <trkpt lat="51.5549339" lon="7.3109009"/>
      <trkpt lat="51.5548687" lon="7.3108523"/>
      <trkpt lat="51.5547272" lon="7.3108790"/>
      <trkpt lat="51.5546982" lon="7.3108844"/>
      <trkpt lat="51.5546193" lon="7.3108972"/>
      <trkpt lat="51.5544330" lon="7.3109139"/>
      <trkpt lat="51.5543591" lon="7.3109126"/>
      <trkpt lat="51.5543200" lon="7.3109119"/>
      <trkpt lat="51.5542137" lon="7.3108991"/>
      <trkpt lat="51.5541019" lon="7.3108669"/>
      <trkpt lat="51.5539843" lon="7.3108160"/>
      <trkpt lat="51.5538378" lon="7.3107371"/>
      <trkpt lat="51.5537495" lon="7.3106743"/>
      <trkpt lat="51.5537164" lon="7.3106533"/>
      <trkpt lat="51.5534330" lon="7.3104364"/>
      <trkpt lat="51.5533138" lon="7.3103264"/>
      <trkpt lat="51.5531978" lon="7.3102026"/>
      <trkpt lat="51.5530222" lon="7.3099715"/>
      <trkpt lat="51.5529061" lon="7.3097665"/>
      <trkpt lat="51.5527495" lon="7.3094194"/>
      <trkpt lat="51.5526983" lon="7.3092802"/>
      <trkpt lat="51.5525522" lon="7.3087925"/>
      <trkpt lat="51.5524563" lon="7.3084773"/>
      <trkpt lat="51.5523716" lon="7.3082020"/>
      <trkpt lat="51.5523439" lon="7.3081184"/>
      <trkpt lat="51.5523288" lon="7.3080727"/>
      <trkpt lat="51.5522824" lon="7.3079326"/>
      <trkpt lat="51.5522555" lon="7.3078646"/>
      <trkpt lat="51.5522085" lon="7.3077543"/>
      <trkpt lat="51.5521495" lon="7.3076090"/>
      <trkpt lat="51.5521241" lon="7.3075409"/>
      <trkpt lat="51.5521017" lon="7.3074833"/>
      <trkpt lat="51.5519266" lon="7.3071234"/>
      <trkpt lat="51.5517708" lon="7.3068725"/>
      <trkpt lat="51.5516503" lon="7.3066932"/>
      <trkpt lat="51.5515537" lon="7.3065654"/>
      <trkpt lat="51.5513657" lon="7.3063446"/>
      <trkpt lat="51.5512634" lon="7.3062381"/>
      <trkpt lat="51.5511579" lon="7.3061362"/>
      <trkpt lat="51.5510706" lon="7.3060609"/>
      <trkpt lat="51.5509979" lon="7.3060020"/>
      <trkpt lat="51.5508139" lon="7.3058720"/>
      <trkpt lat="51.5506760" lon="7.3057870"/>
      <trkpt lat="51.5505224" lon="7.3057097"/>
      <trkpt lat="51.5504269" lon="7.3056675"/>
      <trkpt lat="51.5502535" lon="7.3056038"/>
      <trkpt lat="51.5500800" lon="7.3055615"/>
      <trkpt lat="51.5499437" lon="7.3055310"/>
      <trkpt lat="51.5497935" lon="7.3055220"/>
      <trkpt lat="51.5495219" lon="7.3055453"/>
      <trkpt lat="51.5494217" lon="7.3055291"/>
      <trkpt lat="51.5492966" lon="7.3055242"/>
      <trkpt lat="51.5492492" lon="7.3055009"/>
      <trkpt lat="51.5492112" lon="7.3054799"/>
      <trkpt lat="51.5491481" lon="7.3053808"/>
      <trkpt lat="51.5491076" lon="7.3052418"/>
      <trkpt lat="51.5491047" lon="7.3051451"/>
      <trkpt lat="51.5491166" lon="7.3050343"/>
      <trkpt lat="51.5491711" lon="7.3048217"/>
      <trkpt lat="51.5492356" lon="7.3047583"/>
      <trkpt lat="51.5492838" lon="7.3047216"/>
      <trkpt lat="51.5494052" lon="7.3046833"/>
      <trkpt lat="51.5495363" lon="7.3046552"/>
      <trkpt lat="51.5498658" lon="7.3046508"/>
      <trkpt lat="51.5501087" lon="7.3046653"/>
      <trkpt lat="51.5501131" lon="7.3049542"/>
      <trkpt lat="51.5501234" lon="7.3052619"/>
      <trkpt lat="51.5501419" lon="7.3055598"/>
      <trkpt lat="51.5501993" lon="7.3062938"/>
      <trkpt lat="51.5502437" lon="7.3066489"/>
      <trkpt lat="51.5502466" lon="7.3070324"/>
      <trkpt lat="51.5502152" lon="7.3071784"/>
      <trkpt lat="51.5501467" lon="7.3072658"/>
      <trkpt lat="51.5500901" lon="7.3072942"/>
      <trkpt lat="51.5500254" lon="7.3072845"/>
      <trkpt lat="51.5499163" lon="7.3072122"/>
      <trkpt lat="51.5498016" lon="7.3071831"/>
      <trkpt lat="51.5496826" lon="7.3071541"/>
      <trkpt lat="51.5495710" lon="7.3071774"/>
      <trkpt lat="51.5494223" lon="7.3072571"/>
      <trkpt lat="51.5493192" lon="7.3073629"/>
      <trkpt lat="51.5492617" lon="7.3074219"/>
      <trkpt lat="51.5489878" lon="7.3078004"/>
      <trkpt lat="51.5489809" lon="7.3078957"/>
      <trkpt lat="51.5489835" lon="7.3079770"/>
      <trkpt lat="51.5490498" lon="7.3082507"/>
      <trkpt lat="51.5491719" lon="7.3085843"/>
      <trkpt lat="51.5492175" lon="7.3086793"/>
      <trkpt lat="51.5493265" lon="7.3088877"/>
      <trkpt lat="51.5493442" lon="7.3089234"/>
      <trkpt lat="51.5493716" lon="7.3089642"/>
      <trkpt lat="51.5494510" lon="7.3090787"/>
      <trkpt lat="51.5495623" lon="7.3092147"/>
      <trkpt lat="51.5497556" lon="7.3093970"/>
    </trkseg>
  </trk>
</gpx>