<?xml version="1.0" encoding="UTF-8"?>
<gpx version="1.1" creator="Linienjagd Castrop-Rauxel" xmlns="http://www.topografix.com/GPX/1/1">
  <metadata><name>Linie 341 – Stadtgebiet Castrop-Rauxel</name><desc>Bus 341: Castrop-Rauxel Münsterplatz =&gt; Schwerin Seniorenheim | 6.76 km in Castrop-Rauxel | 17 Haltestellen</desc></metadata>
  <wpt lat="51.5494280" lon="7.3087826"><name>01 Castrop Münsterplatz</name><sym>Flag</sym></wpt>
  <wpt lat="51.5472252" lon="7.3116389"><name>02 Castrop Markt</name><sym>Flag</sym></wpt>
  <wpt lat="51.5448048" lon="7.3142836"><name>03 Beethovenstraße</name><sym>Flag</sym></wpt>
  <wpt lat="51.5501337" lon="7.3146592"><name>04 Kolpingstraße</name><sym>Flag</sym></wpt>
  <wpt lat="51.5514661" lon="7.3132261"><name>05 Ackerstraße</name><sym>Flag</sym></wpt>
  <wpt lat="51.5535291" lon="7.3160089"><name>06 Amt-/Bergstraße</name><sym>Flag</sym></wpt>
  <wpt lat="51.5560260" lon="7.3174542"><name>07 Hangweg</name><sym>Flag</sym></wpt>
  <wpt lat="51.5564382" lon="7.3222625"><name>08 Oberhofstraße</name><sym>Flag</sym></wpt>
  <wpt lat="51.5547708" lon="7.3233219"><name>09 Mittel-/Amtstraße</name><sym>Flag</sym></wpt>
  <wpt lat="51.5533964" lon="7.3193911"><name>10 Hochstraße</name><sym>Flag</sym></wpt>
  <wpt lat="51.5517616" lon="7.3241066"><name>11 Mittel-/Bergstraße</name><sym>Flag</sym></wpt>
  <wpt lat="51.5495305" lon="7.3281997"><name>12 Falkenstraße</name><sym>Flag</sym></wpt>
  <wpt lat="51.5470539" lon="7.3306217"><name>13 Elsterngrund</name><sym>Flag</sym></wpt>
  <wpt lat="51.5450296" lon="7.3312355"><name>14 Overbergstraße</name><sym>Flag</sym></wpt>
  <wpt lat="51.5426990" lon="7.3328456"><name>15 Neuroder Platz</name><sym>Flag</sym></wpt>
  <wpt lat="51.5393500" lon="7.3322021"><name>16 Am Weißdorn</name><sym>Flag</sym></wpt>
  <wpt lat="51.5378846" lon="7.3282437"><name>17 Schwerin Seniorenheim</name><sym>Flag</sym></wpt>
  <trk><name>Linie 341 – Stadtgebiet Castrop-Rauxel</name>
    <trkseg>
      <trkpt lat="51.5494280" lon="7.3087826"/>
      <trkpt lat="51.5496004" lon="7.3090207"/>
      <trkpt lat="51.5497851" lon="7.3092433"/>
      <trkpt lat="51.5498172" lon="7.3092706"/>
      <trkpt lat="51.5498572" lon="7.3092758"/>
      <trkpt lat="51.5499216" lon="7.3092632"/>
      <trkpt lat="51.5500183" lon="7.3088689"/>
      <trkpt lat="51.5500861" lon="7.3085592"/>
      <trkpt lat="51.5501275" lon="7.3082457"/>
      <trkpt lat="51.5501405" lon="7.3081076"/>
      <trkpt lat="51.5501484" lon="7.3079655"/>
      <trkpt lat="51.5501501" lon="7.3078313"/>
      <trkpt lat="51.5501359" lon="7.3076939"/>
      <trkpt lat="51.5501097" lon="7.3075741"/>
      <trkpt lat="51.5500742" lon="7.3074833"/>
      <trkpt lat="51.5500296" lon="7.3074009"/>
      <trkpt lat="51.5500004" lon="7.3073519"/>
      <trkpt lat="51.5499362" lon="7.3072715"/>
      <trkpt lat="51.5498016" lon="7.3071831"/>
      <trkpt lat="51.5496826" lon="7.3071541"/>
      <trkpt lat="51.5495710" lon="7.3071774"/>
      <trkpt lat="51.5494223" lon="7.3072571"/>
      <trkpt lat="51.5493192" lon="7.3073629"/>
      <trkpt lat="51.5492617" lon="7.3074219"/>
      <trkpt lat="51.5489878" lon="7.3078004"/>
      <trkpt lat="51.5488302" lon="7.3079988"/>
      <trkpt lat="51.5486032" lon="7.3083351"/>
      <trkpt lat="51.5484041" lon="7.3086302"/>
      <trkpt lat="51.5483191" lon="7.3087551"/>
      <trkpt lat="51.5481937" lon="7.3089462"/>
      <trkpt lat="51.5481153" lon="7.3090587"/>
      <trkpt lat="51.5478953" lon="7.3093684"/>
      <trkpt lat="51.5478191" lon="7.3094521"/>
      <trkpt lat="51.5477714" lon="7.3095112"/>
      <trkpt lat="51.5476991" lon="7.3096055"/>
      <trkpt lat="51.5476578" lon="7.3096780"/>
      <trkpt lat="51.5475212" lon="7.3100626"/>
      <trkpt lat="51.5474194" lon="7.3103523"/>
      <trkpt lat="51.5473913" lon="7.3104341"/>
      <trkpt lat="51.5473235" lon="7.3106318"/>
      <trkpt lat="51.5472785" lon="7.3107833"/>
      <trkpt lat="51.5472610" lon="7.3109405"/>
      <trkpt lat="51.5472526" lon="7.3111102"/>
      <trkpt lat="51.5472502" lon="7.3111589"/>
      <trkpt lat="51.5472443" lon="7.3113088"/>
      <trkpt lat="51.5472422" lon="7.3113609"/>
      <trkpt lat="51.5472310" lon="7.3115380"/>
      <trkpt lat="51.5472252" lon="7.3116389"/>
      <trkpt lat="51.5472111" lon="7.3117066"/>
      <trkpt lat="51.5471837" lon="7.3117722"/>
      <trkpt lat="51.5471523" lon="7.3118012"/>
      <trkpt lat="51.5470995" lon="7.3118252"/>
      <trkpt lat="51.5470138" lon="7.3118364"/>
      <trkpt lat="51.5467637" lon="7.3118677"/>
      <trkpt lat="51.5467250" lon="7.3118812"/>
      <trkpt lat="51.5466882" lon="7.3118940"/>
      <trkpt lat="51.5466457" lon="7.3119177"/>
      <trkpt lat="51.5466174" lon="7.3119335"/>
      <trkpt lat="51.5465526" lon="7.3120034"/>
      <trkpt lat="51.5465042" lon="7.3120762"/>
      <trkpt lat="51.5462885" lon="7.3124136"/>
      <trkpt lat="51.5462795" lon="7.3124256"/>
      <trkpt lat="51.5462425" lon="7.3124724"/>
      <trkpt lat="51.5462055" lon="7.3125160"/>
      <trkpt lat="51.5459321" lon="7.3127515"/>
      <trkpt lat="51.5458196" lon="7.3128498"/>
      <trkpt lat="51.5456847" lon="7.3129596"/>
      <trkpt lat="51.5454617" lon="7.3131616"/>
      <trkpt lat="51.5453271" lon="7.3132682"/>
      <trkpt lat="51.5453258" lon="7.3132693"/>
      <trkpt lat="51.5451610" lon="7.3134077"/>
      <trkpt lat="51.5449436" lon="7.3135592"/>
      <trkpt lat="51.5448944" lon="7.3136035"/>
      <trkpt lat="51.5448521" lon="7.3136563"/>
      <trkpt lat="51.5448228" lon="7.3137143"/>
      <trkpt lat="51.5447840" lon="7.3138203"/>
      <trkpt lat="51.5447708" lon="7.3139012"/>
      <trkpt lat="51.5447658" lon="7.3139964"/>
      <trkpt lat="51.5447681" lon="7.3140718"/>
      <trkpt lat="51.5448048" lon="7.3142836"/>
      <trkpt lat="51.5448362" lon="7.3144509"/>
      <trkpt lat="51.5448669" lon="7.3146220"/>
      <trkpt lat="51.5449800" lon="7.3152514"/>
      <trkpt lat="51.5449872" lon="7.3152917"/>
      <trkpt lat="51.5449893" lon="7.3152973"/>
      <trkpt lat="51.5449793" lon="7.3154099"/>
      <trkpt lat="51.5449693" lon="7.3154941"/>
      <trkpt lat="51.5449493" lon="7.3155927"/>
      <trkpt lat="51.5449329" lon="7.3156775"/>
      <trkpt lat="51.5449334" lon="7.3159949"/>
      <trkpt lat="51.5452732" lon="7.3162522"/>
      <trkpt lat="51.5454385" lon="7.3163939"/>
      <trkpt lat="51.5455417" lon="7.3164996"/>
      <trkpt lat="51.5456299" lon="7.3166035"/>
      <trkpt lat="51.5457335" lon="7.3167433"/>
      <trkpt lat="51.5457915" lon="7.3168325"/>
      <trkpt lat="51.5458135" lon="7.3168663"/>
      <trkpt lat="51.5459586" lon="7.3171244"/>
      <trkpt lat="51.5464492" lon="7.3180998"/>
      <trkpt lat="51.5465730" lon="7.3182742"/>
      <trkpt lat="51.5467578" lon="7.3184681"/>
      <trkpt lat="51.5469501" lon="7.3185983"/>
      <trkpt lat="51.5470568" lon="7.3186513"/>
      <trkpt lat="51.5472962" lon="7.3187117"/>
      <trkpt lat="51.5475027" lon="7.3187524"/>
      <trkpt lat="51.5475320" lon="7.3187582"/>
      <trkpt lat="51.5476650" lon="7.3187714"/>
      <trkpt lat="51.5477617" lon="7.3187671"/>
      <trkpt lat="51.5478507" lon="7.3187520"/>
      <trkpt lat="51.5478636" lon="7.3187501"/>
      <trkpt lat="51.5480036" lon="7.3186867"/>
      <trkpt lat="51.5481425" lon="7.3186021"/>
      <trkpt lat="51.5483059" lon="7.3184006"/>
      <trkpt lat="51.5484425" lon="7.3182296"/>
      <trkpt lat="51.5485526" lon="7.3180671"/>
      <trkpt lat="51.5486839" lon="7.3178302"/>
      <trkpt lat="51.5488513" lon="7.3174295"/>
      <trkpt lat="51.5489583" lon="7.3171149"/>
      <trkpt lat="51.5493707" lon="7.3159021"/>
      <trkpt lat="51.5494478" lon="7.3156873"/>
      <trkpt lat="51.5495570" lon="7.3154452"/>
      <trkpt lat="51.5496223" lon="7.3153229"/>
      <trkpt lat="51.5497009" lon="7.3151942"/>
      <trkpt lat="51.5501337" lon="7.3146592"/>
      <trkpt lat="51.5503619" lon="7.3143788"/>
      <trkpt lat="51.5504187" lon="7.3143094"/>
      <trkpt lat="51.5506489" lon="7.3140355"/>
      <trkpt lat="51.5512121" lon="7.3134273"/>
      <trkpt lat="51.5512671" lon="7.3133719"/>
      <trkpt lat="51.5512827" lon="7.3133551"/>
      <trkpt lat="51.5514661" lon="7.3132261"/>
      <trkpt lat="51.5515230" lon="7.3131664"/>
      <trkpt lat="51.5517382" lon="7.3129465"/>
      <trkpt lat="51.5517718" lon="7.3129128"/>
      <trkpt lat="51.5518974" lon="7.3127794"/>
      <trkpt lat="51.5519479" lon="7.3129053"/>
      <trkpt lat="51.5519772" lon="7.3129784"/>
      <trkpt lat="51.5522990" lon="7.3137806"/>
      <trkpt lat="51.5523184" lon="7.3138291"/>
      <trkpt lat="51.5526210" lon="7.3143740"/>
      <trkpt lat="51.5526871" lon="7.3144929"/>
      <trkpt lat="51.5532416" lon="7.3154912"/>
      <trkpt lat="51.5535291" lon="7.3160089"/>
      <trkpt lat="51.5537189" lon="7.3163505"/>
      <trkpt lat="51.5538629" lon="7.3161628"/>
      <trkpt lat="51.5539231" lon="7.3160893"/>
      <trkpt lat="51.5540759" lon="7.3159028"/>
      <trkpt lat="51.5542220" lon="7.3157504"/>
      <trkpt lat="51.5546035" lon="7.3153989"/>
      <trkpt lat="51.5550221" lon="7.3150133"/>
      <trkpt lat="51.5552461" lon="7.3148069"/>
      <trkpt lat="51.5553390" lon="7.3151221"/>
      <trkpt lat="51.5554588" lon="7.3155285"/>
      <trkpt lat="51.5554879" lon="7.3156271"/>
      <trkpt lat="51.5556193" lon="7.3160725"/>
      <trkpt lat="51.5556647" lon="7.3162300"/>
      <trkpt lat="51.5557450" lon="7.3164996"/>
      <trkpt lat="51.5558908" lon="7.3169950"/>
      <trkpt lat="51.5559378" lon="7.3171548"/>
      <trkpt lat="51.5560260" lon="7.3174542"/>
      <trkpt lat="51.5560467" lon="7.3175246"/>
      <trkpt lat="51.5561701" lon="7.3179442"/>
      <trkpt lat="51.5561955" lon="7.3180180"/>
      <trkpt lat="51.5562411" lon="7.3181506"/>
      <trkpt lat="51.5562781" lon="7.3182579"/>
      <trkpt lat="51.5567295" lon="7.3197119"/>
      <trkpt lat="51.5568295" lon="7.3200441"/>
      <trkpt lat="51.5569820" lon="7.3206825"/>
      <trkpt lat="51.5570141" lon="7.3209225"/>
      <trkpt lat="51.5570337" lon="7.3211170"/>
      <trkpt lat="51.5570525" lon="7.3214067"/>
      <trkpt lat="51.5569268" lon="7.3215359"/>
      <trkpt lat="51.5566469" lon="7.3218622"/>
      <trkpt lat="51.5564536" lon="7.3222275"/>
      <trkpt lat="51.5564382" lon="7.3222625"/>
      <trkpt lat="51.5562923" lon="7.3225949"/>
      <trkpt lat="51.5559676" lon="7.3233095"/>
      <trkpt lat="51.5557793" lon="7.3236984"/>
      <trkpt lat="51.5556269" lon="7.3240188"/>
      <trkpt lat="51.5555462" lon="7.3241191"/>
      <trkpt lat="51.5554481" lon="7.3241817"/>
      <trkpt lat="51.5553256" lon="7.3241593"/>
      <trkpt lat="51.5552435" lon="7.3240688"/>
      <trkpt lat="51.5549174" lon="7.3235597"/>
      <trkpt lat="51.5548665" lon="7.3234772"/>
      <trkpt lat="51.5547708" lon="7.3233219"/>
      <trkpt lat="51.5547376" lon="7.3232560"/>
      <trkpt lat="51.5547140" lon="7.3232092"/>
      <trkpt lat="51.5546889" lon="7.3231596"/>
      <trkpt lat="51.5546413" lon="7.3230199"/>
      <trkpt lat="51.5545604" lon="7.3227828"/>
      <trkpt lat="51.5545001" lon="7.3225894"/>
      <trkpt lat="51.5544601" lon="7.3224686"/>
      <trkpt lat="51.5544216" lon="7.3223817"/>
      <trkpt lat="51.5543073" lon="7.3222116"/>
      <trkpt lat="51.5542335" lon="7.3221179"/>
      <trkpt lat="51.5541543" lon="7.3220516"/>
      <trkpt lat="51.5540556" lon="7.3219785"/>
      <trkpt lat="51.5540292" lon="7.3219591"/>
      <trkpt lat="51.5540001" lon="7.3219501"/>
      <trkpt lat="51.5539994" lon="7.3218763"/>
      <trkpt lat="51.5540159" lon="7.3217977"/>
      <trkpt lat="51.5540487" lon="7.3217099"/>
      <trkpt lat="51.5541155" lon="7.3215944"/>
      <trkpt lat="51.5542063" lon="7.3214943"/>
      <trkpt lat="51.5544428" lon="7.3213296"/>
      <trkpt lat="51.5544990" lon="7.3212830"/>
      <trkpt lat="51.5545680" lon="7.3211981"/>
      <trkpt lat="51.5545995" lon="7.3211307"/>
      <trkpt lat="51.5546154" lon="7.3210664"/>
      <trkpt lat="51.5546208" lon="7.3210090"/>
      <trkpt lat="51.5546135" lon="7.3209393"/>
      <trkpt lat="51.5542706" lon="7.3199024"/>
      <trkpt lat="51.5542389" lon="7.3198418"/>
      <trkpt lat="51.5541965" lon="7.3197969"/>
      <trkpt lat="51.5540755" lon="7.3197391"/>
      <trkpt lat="51.5538461" lon="7.3196296"/>
      <trkpt lat="51.5536032" lon="7.3195137"/>
      <trkpt lat="51.5533964" lon="7.3193911"/>
      <trkpt lat="51.5532812" lon="7.3193229"/>
      <trkpt lat="51.5532155" lon="7.3192763"/>
      <trkpt lat="51.5531434" lon="7.3192180"/>
      <trkpt lat="51.5529120" lon="7.3189813"/>
      <trkpt lat="51.5525428" lon="7.3185575"/>
      <trkpt lat="51.5523754" lon="7.3183653"/>
      <trkpt lat="51.5522797" lon="7.3182338"/>
      <trkpt lat="51.5521924" lon="7.3183876"/>
      <trkpt lat="51.5521210" lon="7.3186078"/>
      <trkpt lat="51.5520148" lon="7.3194239"/>
      <trkpt lat="51.5519705" lon="7.3198546"/>
      <trkpt lat="51.5518794" lon="7.3205058"/>
      <trkpt lat="51.5518629" lon="7.3206744"/>
      <trkpt lat="51.5518596" lon="7.3207918"/>
      <trkpt lat="51.5519805" lon="7.3214985"/>
      <trkpt lat="51.5519997" lon="7.3216394"/>
      <trkpt lat="51.5520051" lon="7.3217601"/>
      <trkpt lat="51.5520055" lon="7.3218935"/>
      <trkpt lat="51.5519997" lon="7.3220142"/>
      <trkpt lat="51.5519850" lon="7.3221226"/>
      <trkpt lat="51.5519613" lon="7.3222288"/>
      <trkpt lat="51.5519242" lon="7.3223454"/>
      <trkpt lat="51.5516753" lon="7.3228842"/>
      <trkpt lat="51.5516269" lon="7.3229888"/>
      <trkpt lat="51.5516113" lon="7.3230365"/>
      <trkpt lat="51.5516040" lon="7.3231022"/>
      <trkpt lat="51.5516044" lon="7.3231709"/>
      <trkpt lat="51.5516163" lon="7.3232336"/>
      <trkpt lat="51.5518473" lon="7.3237899"/>
      <trkpt lat="51.5518542" lon="7.3238254"/>
      <trkpt lat="51.5518570" lon="7.3238649"/>
      <trkpt lat="51.5518525" lon="7.3238968"/>
      <trkpt lat="51.5518454" lon="7.3239243"/>
      <trkpt lat="51.5518134" lon="7.3239954"/>
      <trkpt lat="51.5517616" lon="7.3241066"/>
      <trkpt lat="51.5514579" lon="7.3247542"/>
      <trkpt lat="51.5513813" lon="7.3249531"/>
      <trkpt lat="51.5513094" lon="7.3252263"/>
      <trkpt lat="51.5511706" lon="7.3261924"/>
      <trkpt lat="51.5511461" lon="7.3263769"/>
      <trkpt lat="51.5511320" lon="7.3264422"/>
      <trkpt lat="51.5510319" lon="7.3266944"/>
      <trkpt lat="51.5504072" lon="7.3273325"/>
      <trkpt lat="51.5501145" lon="7.3276324"/>
      <trkpt lat="51.5497784" lon="7.3279489"/>
      <trkpt lat="51.5496336" lon="7.3280961"/>
      <trkpt lat="51.5495305" lon="7.3281997"/>
      <trkpt lat="51.5493434" lon="7.3283929"/>
      <trkpt lat="51.5491898" lon="7.3285368"/>
      <trkpt lat="51.5488417" lon="7.3288795"/>
      <trkpt lat="51.5485199" lon="7.3291963"/>
      <trkpt lat="51.5483375" lon="7.3293864"/>
      <trkpt lat="51.5482338" lon="7.3294325"/>
      <trkpt lat="51.5477015" lon="7.3299705"/>
      <trkpt lat="51.5472433" lon="7.3304306"/>
      <trkpt lat="51.5471701" lon="7.3305078"/>
      <trkpt lat="51.5471548" lon="7.3305223"/>
      <trkpt lat="51.5470539" lon="7.3306217"/>
      <trkpt lat="51.5466445" lon="7.3310170"/>
      <trkpt lat="51.5458022" lon="7.3318599"/>
      <trkpt lat="51.5455397" lon="7.3307694"/>
      <trkpt lat="51.5453321" lon="7.3310035"/>
      <trkpt lat="51.5452191" lon="7.3311035"/>
      <trkpt lat="51.5451223" lon="7.3311677"/>
      <trkpt lat="51.5450296" lon="7.3312355"/>
      <trkpt lat="51.5449264" lon="7.3313329"/>
      <trkpt lat="51.5447885" lon="7.3314548"/>
      <trkpt lat="51.5447781" lon="7.3314621"/>
      <trkpt lat="51.5445283" lon="7.3316375"/>
      <trkpt lat="51.5427815" lon="7.3327920"/>
      <trkpt lat="51.5426990" lon="7.3328456"/>
      <trkpt lat="51.5425276" lon="7.3329455"/>
      <trkpt lat="51.5423661" lon="7.3330559"/>
      <trkpt lat="51.5422973" lon="7.3330997"/>
      <trkpt lat="51.5422845" lon="7.3330504"/>
      <trkpt lat="51.5422638" lon="7.3330083"/>
      <trkpt lat="51.5422374" lon="7.3329770"/>
      <trkpt lat="51.5422068" lon="7.3329580"/>
      <trkpt lat="51.5421879" lon="7.3329532"/>
      <trkpt lat="51.5421380" lon="7.3329633"/>
      <trkpt lat="51.5421134" lon="7.3329819"/>
      <trkpt lat="51.5420919" lon="7.3330087"/>
      <trkpt lat="51.5420751" lon="7.3330412"/>
      <trkpt lat="51.5420629" lon="7.3330788"/>
      <trkpt lat="51.5420556" lon="7.3331238"/>
      <trkpt lat="51.5420545" lon="7.3331602"/>
      <trkpt lat="51.5420576" lon="7.3331963"/>
      <trkpt lat="51.5420725" lon="7.3332547"/>
      <trkpt lat="51.5420980" lon="7.3333027"/>
      <trkpt lat="51.5420485" lon="7.3334046"/>
      <trkpt lat="51.5419908" lon="7.3335362"/>
      <trkpt lat="51.5418654" lon="7.3338377"/>
      <trkpt lat="51.5418299" lon="7.3339102"/>
      <trkpt lat="51.5417473" lon="7.3340791"/>
      <trkpt lat="51.5416430" lon="7.3342679"/>
      <trkpt lat="51.5416183" lon="7.3343125"/>
      <trkpt lat="51.5414752" lon="7.3345172"/>
      <trkpt lat="51.5411396" lon="7.3349769"/>
      <trkpt lat="51.5409720" lon="7.3346390"/>
      <trkpt lat="51.5407616" lon="7.3342149"/>
      <trkpt lat="51.5403285" lon="7.3334121"/>
      <trkpt lat="51.5403021" lon="7.3333632"/>
      <trkpt lat="51.5401312" lon="7.3330651"/>
      <trkpt lat="51.5398240" lon="7.3326975"/>
      <trkpt lat="51.5396295" lon="7.3324830"/>
      <trkpt lat="51.5395994" lon="7.3324498"/>
      <trkpt lat="51.5394802" lon="7.3323280"/>
      <trkpt lat="51.5393500" lon="7.3322021"/>
      <trkpt lat="51.5392164" lon="7.3320846"/>
      <trkpt lat="51.5391129" lon="7.3319901"/>
      <trkpt lat="51.5390327" lon="7.3319075"/>
      <trkpt lat="51.5389649" lon="7.3318330"/>
      <trkpt lat="51.5389213" lon="7.3317675"/>
      <trkpt lat="51.5388835" lon="7.3317085"/>
      <trkpt lat="51.5388260" lon="7.3316095"/>
      <trkpt lat="51.5387589" lon="7.3314707"/>
      <trkpt lat="51.5386230" lon="7.3307154"/>
      <trkpt lat="51.5385688" lon="7.3304503"/>
      <trkpt lat="51.5384973" lon="7.3302112"/>
      <trkpt lat="51.5382713" lon="7.3296246"/>
      <trkpt lat="51.5381166" lon="7.3292486"/>
      <trkpt lat="51.5379046" lon="7.3287052"/>
      <trkpt lat="51.5378596" lon="7.3285920"/>
      <trkpt lat="51.5378803" lon="7.3284680"/>
      <trkpt lat="51.5378819" lon="7.3283854"/>
      <trkpt lat="51.5378846" lon="7.3282437"/>
    </trkseg>
  </trk>
</gpx>