<?xml version="1.0" encoding="UTF-8"?>
<gpx version="1.1" creator="Linienjagd Castrop-Rauxel" xmlns="http://www.topografix.com/GPX/1/1">
  <metadata><name>Linie 347 – Stadtgebiet Castrop-Rauxel</name><desc>Bus 347: Evangelisches Krankenhaus =&gt; Castrop-Rauxel Münsterplatz | 4.05 km in Castrop-Rauxel | 10 Haltestellen</desc></metadata>
  <wpt lat="51.5676066" lon="7.3186192"><name>01 Evangelisches Krankenhaus</name><sym>Flag</sym></wpt>
  <wpt lat="51.5660578" lon="7.3171501"><name>02 Grutholzallee</name><sym>Flag</sym></wpt>
  <wpt lat="51.5655878" lon="7.3091845"><name>03 Rathaus/Europaplatz</name><sym>Flag</sym></wpt>
  <wpt lat="51.5644247" lon="7.3089598"><name>04 Europaplatz</name><sym>Flag</sym></wpt>
  <wpt lat="51.5622157" lon="7.3035333"><name>05 Haselweg</name><sym>Flag</sym></wpt>
  <wpt lat="51.5596008" lon="7.3026876"><name>06 Seniorenheim Holzstraße</name><sym>Flag</sym></wpt>
  <wpt lat="51.5587134" lon="7.3052433"><name>07 Stellbrinkstraße</name><sym>Flag</sym></wpt>
  <wpt lat="51.5557452" lon="7.3062079"><name>08 Holzstraße</name><sym>Flag</sym></wpt>
  <wpt lat="51.5530557" lon="7.3072827"><name>09 Händelweg</name><sym>Flag</sym></wpt>
  <wpt lat="51.5492523" lon="7.3084673"><name>10 Castrop Münsterplatz</name><sym>Flag</sym></wpt>
  <trk><name>Linie 347 – Stadtgebiet Castrop-Rauxel</name>
    <trkseg>
      <trkpt lat="51.5676066" lon="7.3186192"/>
      <trkpt lat="51.5676178" lon="7.3189281"/>
      <trkpt lat="51.5679031" lon="7.3189136"/>
      <trkpt lat="51.5679692" lon="7.3189110"/>
      <trkpt lat="51.5679667" lon="7.3188390"/>
      <trkpt lat="51.5679574" lon="7.3186700"/>
      <trkpt lat="51.5679489" lon="7.3184418"/>
      <trkpt lat="51.5679405" lon="7.3182043"/>
      <trkpt lat="51.5679387" lon="7.3181527"/>
      <trkpt lat="51.5679359" lon="7.3180669"/>
      <trkpt lat="51.5679245" lon="7.3176567"/>
      <trkpt lat="51.5679211" lon="7.3175719"/>
      <trkpt lat="51.5678057" lon="7.3175933"/>
      <trkpt lat="51.5675766" lon="7.3176358"/>
      <trkpt lat="51.5675492" lon="7.3176408"/>
      <trkpt lat="51.5670216" lon="7.3177391"/>
      <trkpt lat="51.5669203" lon="7.3177580"/>
      <trkpt lat="51.5665445" lon="7.3178068"/>
      <trkpt lat="51.5662307" lon="7.3178476"/>
      <trkpt lat="51.5660835" lon="7.3178672"/>
      <trkpt lat="51.5660705" lon="7.3175528"/>
      <trkpt lat="51.5660578" lon="7.3171501"/>
      <trkpt lat="51.5660527" lon="7.3169892"/>
      <trkpt lat="51.5660455" lon="7.3167591"/>
      <trkpt lat="51.5660309" lon="7.3164669"/>
      <trkpt lat="51.5660194" lon="7.3162596"/>
      <trkpt lat="51.5659756" lon="7.3151999"/>
      <trkpt lat="51.5659736" lon="7.3151440"/>
      <trkpt lat="51.5659640" lon="7.3149105"/>
      <trkpt lat="51.5659596" lon="7.3147413"/>
      <trkpt lat="51.5659373" lon="7.3144951"/>
      <trkpt lat="51.5658887" lon="7.3138257"/>
      <trkpt lat="51.5658231" lon="7.3128862"/>
      <trkpt lat="51.5657477" lon="7.3117166"/>
      <trkpt lat="51.5657474" lon="7.3117107"/>
      <trkpt lat="51.5657325" lon="7.3114791"/>
      <trkpt lat="51.5657131" lon="7.3111785"/>
      <trkpt lat="51.5656720" lon="7.3105188"/>
      <trkpt lat="51.5656677" lon="7.3104498"/>
      <trkpt lat="51.5656203" lon="7.3096889"/>
      <trkpt lat="51.5655878" lon="7.3091845"/>
      <trkpt lat="51.5655794" lon="7.3090312"/>
      <trkpt lat="51.5655766" lon="7.3089743"/>
      <trkpt lat="51.5655660" lon="7.3088143"/>
      <trkpt lat="51.5655676" lon="7.3086575"/>
      <trkpt lat="51.5655891" lon="7.3086279"/>
      <trkpt lat="51.5656062" lon="7.3085915"/>
      <trkpt lat="51.5656179" lon="7.3085499"/>
      <trkpt lat="51.5656238" lon="7.3085054"/>
      <trkpt lat="51.5656235" lon="7.3084598"/>
      <trkpt lat="51.5656171" lon="7.3084155"/>
      <trkpt lat="51.5656049" lon="7.3083744"/>
      <trkpt lat="51.5655875" lon="7.3083385"/>
      <trkpt lat="51.5655657" lon="7.3083095"/>
      <trkpt lat="51.5655270" lon="7.3082819"/>
      <trkpt lat="51.5655075" lon="7.3082763"/>
      <trkpt lat="51.5654876" lon="7.3082755"/>
      <trkpt lat="51.5654679" lon="7.3082796"/>
      <trkpt lat="51.5654488" lon="7.3082884"/>
      <trkpt lat="51.5654307" lon="7.3083019"/>
      <trkpt lat="51.5654141" lon="7.3083196"/>
      <trkpt lat="51.5654000" lon="7.3083403"/>
      <trkpt lat="51.5653879" lon="7.3083640"/>
      <trkpt lat="51.5653780" lon="7.3083904"/>
      <trkpt lat="51.5653707" lon="7.3084188"/>
      <trkpt lat="51.5653661" lon="7.3084486"/>
      <trkpt lat="51.5653642" lon="7.3084792"/>
      <trkpt lat="51.5652854" lon="7.3085172"/>
      <trkpt lat="51.5648350" lon="7.3087370"/>
      <trkpt lat="51.5647242" lon="7.3087997"/>
      <trkpt lat="51.5646520" lon="7.3088584"/>
      <trkpt lat="51.5644247" lon="7.3089598"/>
      <trkpt lat="51.5642856" lon="7.3090327"/>
      <trkpt lat="51.5642624" lon="7.3090394"/>
      <trkpt lat="51.5641811" lon="7.3090629"/>
      <trkpt lat="51.5639311" lon="7.3091874"/>
      <trkpt lat="51.5639342" lon="7.3092346"/>
      <trkpt lat="51.5639435" lon="7.3092797"/>
      <trkpt lat="51.5639653" lon="7.3093337"/>
      <trkpt lat="51.5639958" lon="7.3093754"/>
      <trkpt lat="51.5640325" lon="7.3094010"/>
      <trkpt lat="51.5640782" lon="7.3094081"/>
      <trkpt lat="51.5641228" lon="7.3093904"/>
      <trkpt lat="51.5641550" lon="7.3093589"/>
      <trkpt lat="51.5641806" lon="7.3093145"/>
      <trkpt lat="51.5641977" lon="7.3092607"/>
      <trkpt lat="51.5642051" lon="7.3092013"/>
      <trkpt lat="51.5642003" lon="7.3091289"/>
      <trkpt lat="51.5641811" lon="7.3090629"/>
      <trkpt lat="51.5641509" lon="7.3090122"/>
      <trkpt lat="51.5641123" lon="7.3089793"/>
      <trkpt lat="51.5641007" lon="7.3089761"/>
      <trkpt lat="51.5640693" lon="7.3089676"/>
      <trkpt lat="51.5640261" lon="7.3089782"/>
      <trkpt lat="51.5639873" lon="7.3090101"/>
      <trkpt lat="51.5639622" lon="7.3090482"/>
      <trkpt lat="51.5639439" lon="7.3090952"/>
      <trkpt lat="51.5639344" lon="7.3091402"/>
      <trkpt lat="51.5639311" lon="7.3091874"/>
      <trkpt lat="51.5641007" lon="7.3089761"/>
      <trkpt lat="51.5640890" lon="7.3089378"/>
      <trkpt lat="51.5640650" lon="7.3088527"/>
      <trkpt lat="51.5639944" lon="7.3085910"/>
      <trkpt lat="51.5638790" lon="7.3072130"/>
      <trkpt lat="51.5637581" lon="7.3058750"/>
      <trkpt lat="51.5637161" lon="7.3052392"/>
      <trkpt lat="51.5636877" lon="7.3048393"/>
      <trkpt lat="51.5636701" lon="7.3047272"/>
      <trkpt lat="51.5636471" lon="7.3046474"/>
      <trkpt lat="51.5636203" lon="7.3045899"/>
      <trkpt lat="51.5635688" lon="7.3045226"/>
      <trkpt lat="51.5629163" lon="7.3040556"/>
      <trkpt lat="51.5628706" lon="7.3040103"/>
      <trkpt lat="51.5626365" lon="7.3038293"/>
      <trkpt lat="51.5623906" lon="7.3036613"/>
      <trkpt lat="51.5622157" lon="7.3035333"/>
      <trkpt lat="51.5612067" lon="7.3027949"/>
      <trkpt lat="51.5608018" lon="7.3024967"/>
      <trkpt lat="51.5606940" lon="7.3024583"/>
      <trkpt lat="51.5602125" lon="7.3025362"/>
      <trkpt lat="51.5597380" lon="7.3026414"/>
      <trkpt lat="51.5596769" lon="7.3026554"/>
      <trkpt lat="51.5596008" lon="7.3026876"/>
      <trkpt lat="51.5595819" lon="7.3026967"/>
      <trkpt lat="51.5594984" lon="7.3027794"/>
      <trkpt lat="51.5589056" lon="7.3037151"/>
      <trkpt lat="51.5588806" lon="7.3037998"/>
      <trkpt lat="51.5588763" lon="7.3039013"/>
      <trkpt lat="51.5590318" lon="7.3050304"/>
      <trkpt lat="51.5588320" lon="7.3051655"/>
      <trkpt lat="51.5587134" lon="7.3052433"/>
      <trkpt lat="51.5586526" lon="7.3052822"/>
      <trkpt lat="51.5580019" lon="7.3057238"/>
      <trkpt lat="51.5579273" lon="7.3057533"/>
      <trkpt lat="51.5561018" lon="7.3061350"/>
      <trkpt lat="51.5560464" lon="7.3061469"/>
      <trkpt lat="51.5558123" lon="7.3061952"/>
      <trkpt lat="51.5557452" lon="7.3062079"/>
      <trkpt lat="51.5552329" lon="7.3063226"/>
      <trkpt lat="51.5545257" lon="7.3066990"/>
      <trkpt lat="51.5540083" lon="7.3068950"/>
      <trkpt lat="51.5538830" lon="7.3069395"/>
      <trkpt lat="51.5536068" lon="7.3070378"/>
      <trkpt lat="51.5533469" lon="7.3071384"/>
      <trkpt lat="51.5531173" lon="7.3072543"/>
      <trkpt lat="51.5530557" lon="7.3072827"/>
      <trkpt lat="51.5528549" lon="7.3073777"/>
      <trkpt lat="51.5526294" lon="7.3075007"/>
      <trkpt lat="51.5525533" lon="7.3075138"/>
      <trkpt lat="51.5525071" lon="7.3075390"/>
      <trkpt lat="51.5523826" lon="7.3076207"/>
      <trkpt lat="51.5523538" lon="7.3076393"/>
      <trkpt lat="51.5523159" lon="7.3076629"/>
      <trkpt lat="51.5523013" lon="7.3076731"/>
      <trkpt lat="51.5522085" lon="7.3077543"/>
      <trkpt lat="51.5521495" lon="7.3076090"/>
      <trkpt lat="51.5521241" lon="7.3075409"/>
      <trkpt lat="51.5521017" lon="7.3074833"/>
      <trkpt lat="51.5519266" lon="7.3071234"/>
      <trkpt lat="51.5517708" lon="7.3068725"/>
      <trkpt lat="51.5516503" lon="7.3066932"/>
      <trkpt lat="51.5515537" lon="7.3065654"/>
      <trkpt lat="51.5513657" lon="7.3063446"/>
      <trkpt lat="51.5512634" lon="7.3062381"/>
      <trkpt lat="51.5511579" lon="7.3061362"/>
      <trkpt lat="51.5510706" lon="7.3060609"/>
      <trkpt lat="51.5509979" lon="7.3060020"/>
      <trkpt lat="51.5508139" lon="7.3058720"/>
      <trkpt lat="51.5506760" lon="7.3057870"/>
      <trkpt lat="51.5505224" lon="7.3057097"/>
      <trkpt lat="51.5504269" lon="7.3056675"/>
      <trkpt lat="51.5502535" lon="7.3056038"/>
      <trkpt lat="51.5500800" lon="7.3055615"/>
      <trkpt lat="51.5499437" lon="7.3055310"/>
      <trkpt lat="51.5497935" lon="7.3055220"/>
      <trkpt lat="51.5495219" lon="7.3055453"/>
      <trkpt lat="51.5494217" lon="7.3055291"/>
      <trkpt lat="51.5492966" lon="7.3055242"/>
      <trkpt lat="51.5492492" lon="7.3055009"/>
      <trkpt lat="51.5492112" lon="7.3054799"/>
      <trkpt lat="51.5491481" lon="7.3053808"/>
      <trkpt lat="51.5491076" lon="7.3052418"/>
      <trkpt lat="51.5491047" lon="7.3051451"/>
      <trkpt lat="51.5491166" lon="7.3050343"/>
      <trkpt lat="51.5491711" lon="7.3048217"/>
      <trkpt lat="51.5492356" lon="7.3047583"/>
      <trkpt lat="51.5492838" lon="7.3047216"/>
      <trkpt lat="51.5494052" lon="7.3046833"/>
      <trkpt lat="51.5495363" lon="7.3046552"/>
      <trkpt lat="51.5498658" lon="7.3046508"/>
      <trkpt lat="51.5501087" lon="7.3046653"/>
      <trkpt lat="51.5501131" lon="7.3049542"/>
      <trkpt lat="51.5501234" lon="7.3052619"/>
      <trkpt lat="51.5501419" lon="7.3055598"/>
      <trkpt lat="51.5501993" lon="7.3062938"/>
      <trkpt lat="51.5502437" lon="7.3066489"/>
      <trkpt lat="51.5502466" lon="7.3070324"/>
      <trkpt lat="51.5502152" lon="7.3071784"/>
      <trkpt lat="51.5501467" lon="7.3072658"/>
      <trkpt lat="51.5500901" lon="7.3072942"/>
      <trkpt lat="51.5500254" lon="7.3072845"/>
      <trkpt lat="51.5499163" lon="7.3072122"/>
      <trkpt lat="51.5498016" lon="7.3071831"/>
      <trkpt lat="51.5496826" lon="7.3071541"/>
      <trkpt lat="51.5495710" lon="7.3071774"/>
      <trkpt lat="51.5494223" lon="7.3072571"/>
      <trkpt lat="51.5493192" lon="7.3073629"/>
      <trkpt lat="51.5492617" lon="7.3074219"/>
      <trkpt lat="51.5489878" lon="7.3078004"/>
      <trkpt lat="51.5489946" lon="7.3079011"/>
      <trkpt lat="51.5490083" lon="7.3079799"/>
      <trkpt lat="51.5490292" lon="7.3080385"/>
      <trkpt lat="51.5490521" lon="7.3080833"/>
      <trkpt lat="51.5492523" lon="7.3084673"/>
    </trkseg>
  </trk>
</gpx>