<?xml version="1.0" encoding="UTF-8"?>
<gpx version="1.1" creator="Linienjagd Castrop-Rauxel" xmlns="http://www.topografix.com/GPX/1/1">
  <metadata><name>Linie 351 – Stadtgebiet Castrop-Rauxel</name><desc>Bus 351: Herne Mitte =&gt; Castrop-Rauxel Münsterplatz | 3.21 km in Castrop-Rauxel | 7 Haltestellen</desc></metadata>
  <wpt lat="51.5511191" lon="7.2940701"><name>01 Westring/Herner Straße</name><sym>Flag</sym></wpt>
  <wpt lat="51.5551594" lon="7.2937355"><name>02 Gewerbegebiet Westring</name><sym>Flag</sym></wpt>
  <wpt lat="51.5571003" lon="7.2945214"><name>03 Emschertalstraße</name><sym>Flag</sym></wpt>
  <wpt lat="51.5552861" lon="7.2967434"><name>04 Engellaustraße</name><sym>Flag</sym></wpt>
  <wpt lat="51.5538057" lon="7.2985491"><name>05 Sägewerk</name><sym>Flag</sym></wpt>
  <wpt lat="51.5518068" lon="7.3009944"><name>06 Bauhof</name><sym>Flag</sym></wpt>
  <wpt lat="51.5495623" lon="7.3092147"><name>07 Castrop Münsterplatz</name><sym>Flag</sym></wpt>
  <trk><name>Linie 351 – Stadtgebiet Castrop-Rauxel</name>
    <trkseg>
      <trkpt lat="51.5495157" lon="7.2858538"/>
      <trkpt lat="51.5495493" lon="7.2861191"/>
      <trkpt lat="51.5500740" lon="7.2902805"/>
      <trkpt lat="51.5501088" lon="7.2905636"/>
      <trkpt lat="51.5501399" lon="7.2908643"/>
      <trkpt lat="51.5501669" lon="7.2911607"/>
      <trkpt lat="51.5501835" lon="7.2914113"/>
      <trkpt lat="51.5502029" lon="7.2917713"/>
      <trkpt lat="51.5502077" lon="7.2919169"/>
      <trkpt lat="51.5502089" lon="7.2919540"/>
      <trkpt lat="51.5502065" lon="7.2921376"/>
      <trkpt lat="51.5502090" lon="7.2923825"/>
      <trkpt lat="51.5502081" lon="7.2925673"/>
      <trkpt lat="51.5502074" lon="7.2926516"/>
      <trkpt lat="51.5501997" lon="7.2930517"/>
      <trkpt lat="51.5501849" lon="7.2934858"/>
      <trkpt lat="51.5501648" lon="7.2938695"/>
      <trkpt lat="51.5501591" lon="7.2939907"/>
      <trkpt lat="51.5501367" lon="7.2939913"/>
      <trkpt lat="51.5501146" lon="7.2939979"/>
      <trkpt lat="51.5500967" lon="7.2940082"/>
      <trkpt lat="51.5500799" lon="7.2940225"/>
      <trkpt lat="51.5500606" lon="7.2940460"/>
      <trkpt lat="51.5500443" lon="7.2940748"/>
      <trkpt lat="51.5500336" lon="7.2941016"/>
      <trkpt lat="51.5500255" lon="7.2941307"/>
      <trkpt lat="51.5500194" lon="7.2941693"/>
      <trkpt lat="51.5500178" lon="7.2942091"/>
      <trkpt lat="51.5500190" lon="7.2942237"/>
      <trkpt lat="51.5500215" lon="7.2942536"/>
      <trkpt lat="51.5500310" lon="7.2942958"/>
      <trkpt lat="51.5500401" lon="7.2943211"/>
      <trkpt lat="51.5500513" lon="7.2943443"/>
      <trkpt lat="51.5500688" lon="7.2943706"/>
      <trkpt lat="51.5500889" lon="7.2943913"/>
      <trkpt lat="51.5501217" lon="7.2944104"/>
      <trkpt lat="51.5501401" lon="7.2944147"/>
      <trkpt lat="51.5501587" lon="7.2944148"/>
      <trkpt lat="51.5501832" lon="7.2944084"/>
      <trkpt lat="51.5502065" lon="7.2943947"/>
      <trkpt lat="51.5502319" lon="7.2943693"/>
      <trkpt lat="51.5502531" lon="7.2943354"/>
      <trkpt lat="51.5502648" lon="7.2943076"/>
      <trkpt lat="51.5502736" lon="7.2942772"/>
      <trkpt lat="51.5502799" lon="7.2942402"/>
      <trkpt lat="51.5502820" lon="7.2942021"/>
      <trkpt lat="51.5503196" lon="7.2941950"/>
      <trkpt lat="51.5503610" lon="7.2941867"/>
      <trkpt lat="51.5506111" lon="7.2941426"/>
      <trkpt lat="51.5507464" lon="7.2941245"/>
      <trkpt lat="51.5509940" lon="7.2940842"/>
      <trkpt lat="51.5511191" lon="7.2940701"/>
      <trkpt lat="51.5512893" lon="7.2940518"/>
      <trkpt lat="51.5513244" lon="7.2940504"/>
      <trkpt lat="51.5517039" lon="7.2940327"/>
      <trkpt lat="51.5518470" lon="7.2940246"/>
      <trkpt lat="51.5519819" lon="7.2940238"/>
      <trkpt lat="51.5521204" lon="7.2940210"/>
      <trkpt lat="51.5521896" lon="7.2940214"/>
      <trkpt lat="51.5524416" lon="7.2940163"/>
      <trkpt lat="51.5531787" lon="7.2940066"/>
      <trkpt lat="51.5532599" lon="7.2940055"/>
      <trkpt lat="51.5537064" lon="7.2939717"/>
      <trkpt lat="51.5538332" lon="7.2939547"/>
      <trkpt lat="51.5538748" lon="7.2939491"/>
      <trkpt lat="51.5542978" lon="7.2938842"/>
      <trkpt lat="51.5543750" lon="7.2938684"/>
      <trkpt lat="51.5543842" lon="7.2939221"/>
      <trkpt lat="51.5543973" lon="7.2939608"/>
      <trkpt lat="51.5544146" lon="7.2939935"/>
      <trkpt lat="51.5544356" lon="7.2940200"/>
      <trkpt lat="51.5544594" lon="7.2940392"/>
      <trkpt lat="51.5544942" lon="7.2940523"/>
      <trkpt lat="51.5545299" lon="7.2940500"/>
      <trkpt lat="51.5545573" lon="7.2940373"/>
      <trkpt lat="51.5545770" lon="7.2940211"/>
      <trkpt lat="51.5545948" lon="7.2939999"/>
      <trkpt lat="51.5546080" lon="7.2939783"/>
      <trkpt lat="51.5546192" lon="7.2939539"/>
      <trkpt lat="51.5546281" lon="7.2939275"/>
      <trkpt lat="51.5546346" lon="7.2938993"/>
      <trkpt lat="51.5546389" lon="7.2938649"/>
      <trkpt lat="51.5546398" lon="7.2938297"/>
      <trkpt lat="51.5547221" lon="7.2938148"/>
      <trkpt lat="51.5551594" lon="7.2937355"/>
      <trkpt lat="51.5552719" lon="7.2937151"/>
      <trkpt lat="51.5556778" lon="7.2936271"/>
      <trkpt lat="51.5559826" lon="7.2935578"/>
      <trkpt lat="51.5561681" lon="7.2935201"/>
      <trkpt lat="51.5562320" lon="7.2935092"/>
      <trkpt lat="51.5564164" lon="7.2934606"/>
      <trkpt lat="51.5567327" lon="7.2933729"/>
      <trkpt lat="51.5569727" lon="7.2933063"/>
      <trkpt lat="51.5570480" lon="7.2932821"/>
      <trkpt lat="51.5573221" lon="7.2931770"/>
      <trkpt lat="51.5576916" lon="7.2929977"/>
      <trkpt lat="51.5578131" lon="7.2929330"/>
      <trkpt lat="51.5578579" lon="7.2931483"/>
      <trkpt lat="51.5579004" lon="7.2932971"/>
      <trkpt lat="51.5579272" lon="7.2933680"/>
      <trkpt lat="51.5579605" lon="7.2933944"/>
      <trkpt lat="51.5579593" lon="7.2934376"/>
      <trkpt lat="51.5579492" lon="7.2934795"/>
      <trkpt lat="51.5579229" lon="7.2935302"/>
      <trkpt lat="51.5571920" lon="7.2944086"/>
      <trkpt lat="51.5571003" lon="7.2945214"/>
      <trkpt lat="51.5569178" lon="7.2947481"/>
      <trkpt lat="51.5562988" lon="7.2955146"/>
      <trkpt lat="51.5560615" lon="7.2958055"/>
      <trkpt lat="51.5554881" lon="7.2964945"/>
      <trkpt lat="51.5553593" lon="7.2966533"/>
      <trkpt lat="51.5552861" lon="7.2967434"/>
      <trkpt lat="51.5551673" lon="7.2968898"/>
      <trkpt lat="51.5543362" lon="7.2979015"/>
      <trkpt lat="51.5539012" lon="7.2984367"/>
      <trkpt lat="51.5538057" lon="7.2985491"/>
      <trkpt lat="51.5534727" lon="7.2989490"/>
      <trkpt lat="51.5533191" lon="7.2991407"/>
      <trkpt lat="51.5530747" lon="7.2994318"/>
      <trkpt lat="51.5530292" lon="7.2994924"/>
      <trkpt lat="51.5526443" lon="7.2999633"/>
      <trkpt lat="51.5522613" lon="7.3004315"/>
      <trkpt lat="51.5522084" lon="7.3004965"/>
      <trkpt lat="51.5521580" lon="7.3005582"/>
      <trkpt lat="51.5519263" lon="7.3008434"/>
      <trkpt lat="51.5518068" lon="7.3009944"/>
      <trkpt lat="51.5515168" lon="7.3013436"/>
      <trkpt lat="51.5503868" lon="7.3027032"/>
      <trkpt lat="51.5503191" lon="7.3027414"/>
      <trkpt lat="51.5501629" lon="7.3027468"/>
      <trkpt lat="51.5501535" lon="7.3029778"/>
      <trkpt lat="51.5501449" lon="7.3031478"/>
      <trkpt lat="51.5501339" lon="7.3033578"/>
      <trkpt lat="51.5501269" lon="7.3035107"/>
      <trkpt lat="51.5501104" lon="7.3040843"/>
      <trkpt lat="51.5501087" lon="7.3046653"/>
      <trkpt lat="51.5501131" lon="7.3049542"/>
      <trkpt lat="51.5501234" lon="7.3052619"/>
      <trkpt lat="51.5501419" lon="7.3055598"/>
      <trkpt lat="51.5501993" lon="7.3062938"/>
      <trkpt lat="51.5502437" lon="7.3066489"/>
      <trkpt lat="51.5502466" lon="7.3070324"/>
      <trkpt lat="51.5502152" lon="7.3071784"/>
      <trkpt lat="51.5501467" lon="7.3072658"/>
      <trkpt lat="51.5500901" lon="7.3072942"/>
      <trkpt lat="51.5500254" lon="7.3072845"/>
      <trkpt lat="51.5499163" lon="7.3072122"/>
      <trkpt lat="51.5498016" lon="7.3071831"/>
      <trkpt lat="51.5496826" lon="7.3071541"/>
      <trkpt lat="51.5495710" lon="7.3071774"/>
      <trkpt lat="51.5494223" lon="7.3072571"/>
      <trkpt lat="51.5493192" lon="7.3073629"/>
      <trkpt lat="51.5492617" lon="7.3074219"/>
      <trkpt lat="51.5489878" lon="7.3078004"/>
      <trkpt lat="51.5489809" lon="7.3078957"/>
      <trkpt lat="51.5489835" lon="7.3079770"/>
      <trkpt lat="51.5490498" lon="7.3082507"/>
      <trkpt lat="51.5491719" lon="7.3085843"/>
      <trkpt lat="51.5492175" lon="7.3086793"/>
      <trkpt lat="51.5493265" lon="7.3088877"/>
      <trkpt lat="51.5493442" lon="7.3089234"/>
      <trkpt lat="51.5493716" lon="7.3089642"/>
      <trkpt lat="51.5494510" lon="7.3090787"/>
      <trkpt lat="51.5495623" lon="7.3092147"/>
    </trkseg>
  </trk>
</gpx>