<?xml version="1.0" encoding="UTF-8"?>
<gpx version="1.1" creator="Linienjagd Castrop-Rauxel" xmlns="http://www.topografix.com/GPX/1/1">
  <metadata><name>Linie 353 – Stadtgebiet Castrop-Rauxel</name><desc>Bus 353: Blankensteiner Straße =&gt; Castrop Münsterplatz | 3.84 km in Castrop-Rauxel | 10 Haltestellen</desc></metadata>
  <wpt lat="51.5325159" lon="7.2972740"><name>01 Langeloh</name><sym>Flag</sym></wpt>
  <wpt lat="51.5348731" lon="7.2991041"><name>02 Kreuzstraße</name><sym>Flag</sym></wpt>
  <wpt lat="51.5378575" lon="7.3070535"><name>03 Breckenstraße</name><sym>Flag</sym></wpt>
  <wpt lat="51.5402138" lon="7.3088567"><name>04 Cottenburgstraße</name><sym>Flag</sym></wpt>
  <wpt lat="51.5421425" lon="7.3081156"><name>05 Stadtgarten</name><sym>Flag</sym></wpt>
  <wpt lat="51.5446632" lon="7.3079747"><name>06 Klothkamp</name><sym>Flag</sym></wpt>
  <wpt lat="51.5448048" lon="7.3142836"><name>07 Beethovenstraße</name><sym>Flag</sym></wpt>
  <wpt lat="51.5466058" lon="7.3144201"><name>08 Katholisches Krankenhaus</name><sym>Flag</sym></wpt>
  <wpt lat="51.5480418" lon="7.3130469"><name>09 Castrop Markt</name><sym>Flag</sym></wpt>
  <wpt lat="51.5497851" lon="7.3092433"><name>10 Castrop Münsterplatz</name><sym>Flag</sym></wpt>
  <trk><name>Linie 353 – Stadtgebiet Castrop-Rauxel</name>
    <trkseg>
      <trkpt lat="51.5311502" lon="7.2953695"/>
      <trkpt lat="51.5313310" lon="7.2956922"/>
      <trkpt lat="51.5318706" lon="7.2964867"/>
      <trkpt lat="51.5320000" lon="7.2966662"/>
      <trkpt lat="51.5321694" lon="7.2968945"/>
      <trkpt lat="51.5323045" lon="7.2970639"/>
      <trkpt lat="51.5324716" lon="7.2972312"/>
      <trkpt lat="51.5325159" lon="7.2972740"/>
      <trkpt lat="51.5327487" lon="7.2974947"/>
      <trkpt lat="51.5328108" lon="7.2975514"/>
      <trkpt lat="51.5329338" lon="7.2976545"/>
      <trkpt lat="51.5331214" lon="7.2977976"/>
      <trkpt lat="51.5333073" lon="7.2979157"/>
      <trkpt lat="51.5335636" lon="7.2980630"/>
      <trkpt lat="51.5336890" lon="7.2981350"/>
      <trkpt lat="51.5338016" lon="7.2982011"/>
      <trkpt lat="51.5340296" lon="7.2983646"/>
      <trkpt lat="51.5342019" lon="7.2985146"/>
      <trkpt lat="51.5342821" lon="7.2985843"/>
      <trkpt lat="51.5343940" lon="7.2986814"/>
      <trkpt lat="51.5345795" lon="7.2988422"/>
      <trkpt lat="51.5348497" lon="7.2990832"/>
      <trkpt lat="51.5348731" lon="7.2991041"/>
      <trkpt lat="51.5351382" lon="7.2993367"/>
      <trkpt lat="51.5352161" lon="7.2994064"/>
      <trkpt lat="51.5354193" lon="7.2995882"/>
      <trkpt lat="51.5355628" lon="7.2997234"/>
      <trkpt lat="51.5356873" lon="7.2998602"/>
      <trkpt lat="51.5358009" lon="7.3000037"/>
      <trkpt lat="51.5358739" lon="7.3001056"/>
      <trkpt lat="51.5359621" lon="7.3002457"/>
      <trkpt lat="51.5360397" lon="7.3003983"/>
      <trkpt lat="51.5361156" lon="7.3005820"/>
      <trkpt lat="51.5361421" lon="7.3006561"/>
      <trkpt lat="51.5361732" lon="7.3007486"/>
      <trkpt lat="51.5361982" lon="7.3008335"/>
      <trkpt lat="51.5362241" lon="7.3009304"/>
      <trkpt lat="51.5362485" lon="7.3010390"/>
      <trkpt lat="51.5362773" lon="7.3011899"/>
      <trkpt lat="51.5363027" lon="7.3013364"/>
      <trkpt lat="51.5363206" lon="7.3014655"/>
      <trkpt lat="51.5363534" lon="7.3017280"/>
      <trkpt lat="51.5364068" lon="7.3022557"/>
      <trkpt lat="51.5364545" lon="7.3026465"/>
      <trkpt lat="51.5364877" lon="7.3028567"/>
      <trkpt lat="51.5365239" lon="7.3030520"/>
      <trkpt lat="51.5365987" lon="7.3033632"/>
      <trkpt lat="51.5366854" lon="7.3036746"/>
      <trkpt lat="51.5370112" lon="7.3047421"/>
      <trkpt lat="51.5373400" lon="7.3058293"/>
      <trkpt lat="51.5374476" lon="7.3061771"/>
      <trkpt lat="51.5374985" lon="7.3063397"/>
      <trkpt lat="51.5375537" lon="7.3064929"/>
      <trkpt lat="51.5376277" lon="7.3066669"/>
      <trkpt lat="51.5377688" lon="7.3069231"/>
      <trkpt lat="51.5378575" lon="7.3070535"/>
      <trkpt lat="51.5379659" lon="7.3071826"/>
      <trkpt lat="51.5380840" lon="7.3073090"/>
      <trkpt lat="51.5381425" lon="7.3073743"/>
      <trkpt lat="51.5381936" lon="7.3074314"/>
      <trkpt lat="51.5382819" lon="7.3075438"/>
      <trkpt lat="51.5383909" lon="7.3077170"/>
      <trkpt lat="51.5385272" lon="7.3079606"/>
      <trkpt lat="51.5386451" lon="7.3081637"/>
      <trkpt lat="51.5386860" lon="7.3082173"/>
      <trkpt lat="51.5387975" lon="7.3083432"/>
      <trkpt lat="51.5388575" lon="7.3084011"/>
      <trkpt lat="51.5389247" lon="7.3084558"/>
      <trkpt lat="51.5390668" lon="7.3085419"/>
      <trkpt lat="51.5391404" lon="7.3085777"/>
      <trkpt lat="51.5392033" lon="7.3086045"/>
      <trkpt lat="51.5392550" lon="7.3086209"/>
      <trkpt lat="51.5396751" lon="7.3087128"/>
      <trkpt lat="51.5398517" lon="7.3087557"/>
      <trkpt lat="51.5399077" lon="7.3087693"/>
      <trkpt lat="51.5399637" lon="7.3087829"/>
      <trkpt lat="51.5399969" lon="7.3087910"/>
      <trkpt lat="51.5401328" lon="7.3088326"/>
      <trkpt lat="51.5402138" lon="7.3088567"/>
      <trkpt lat="51.5406191" lon="7.3089827"/>
      <trkpt lat="51.5407175" lon="7.3089925"/>
      <trkpt lat="51.5407806" lon="7.3089866"/>
      <trkpt lat="51.5408461" lon="7.3089667"/>
      <trkpt lat="51.5409336" lon="7.3089156"/>
      <trkpt lat="51.5410782" lon="7.3088033"/>
      <trkpt lat="51.5413297" lon="7.3086000"/>
      <trkpt lat="51.5414860" lon="7.3084845"/>
      <trkpt lat="51.5416322" lon="7.3083849"/>
      <trkpt lat="51.5417635" lon="7.3083055"/>
      <trkpt lat="51.5418928" lon="7.3082407"/>
      <trkpt lat="51.5421425" lon="7.3081156"/>
      <trkpt lat="51.5422942" lon="7.3080396"/>
      <trkpt lat="51.5426183" lon="7.3078773"/>
      <trkpt lat="51.5428992" lon="7.3077502"/>
      <trkpt lat="51.5434474" lon="7.3075021"/>
      <trkpt lat="51.5435225" lon="7.3074681"/>
      <trkpt lat="51.5436798" lon="7.3073971"/>
      <trkpt lat="51.5437837" lon="7.3073495"/>
      <trkpt lat="51.5438420" lon="7.3073228"/>
      <trkpt lat="51.5439025" lon="7.3072951"/>
      <trkpt lat="51.5439687" lon="7.3072649"/>
      <trkpt lat="51.5440031" lon="7.3072492"/>
      <trkpt lat="51.5441591" lon="7.3071779"/>
      <trkpt lat="51.5443634" lon="7.3070861"/>
      <trkpt lat="51.5443854" lon="7.3072035"/>
      <trkpt lat="51.5446632" lon="7.3079747"/>
      <trkpt lat="51.5446764" lon="7.3080115"/>
      <trkpt lat="51.5447351" lon="7.3081744"/>
      <trkpt lat="51.5447972" lon="7.3083469"/>
      <trkpt lat="51.5450052" lon="7.3089243"/>
      <trkpt lat="51.5452642" lon="7.3096834"/>
      <trkpt lat="51.5453830" lon="7.3099952"/>
      <trkpt lat="51.5455926" lon="7.3103584"/>
      <trkpt lat="51.5458954" lon="7.3108830"/>
      <trkpt lat="51.5462756" lon="7.3115279"/>
      <trkpt lat="51.5463211" lon="7.3116034"/>
      <trkpt lat="51.5464678" lon="7.3118579"/>
      <trkpt lat="51.5465526" lon="7.3120034"/>
      <trkpt lat="51.5465042" lon="7.3120762"/>
      <trkpt lat="51.5462885" lon="7.3124136"/>
      <trkpt lat="51.5462795" lon="7.3124256"/>
      <trkpt lat="51.5462425" lon="7.3124724"/>
      <trkpt lat="51.5462055" lon="7.3125160"/>
      <trkpt lat="51.5459321" lon="7.3127515"/>
      <trkpt lat="51.5458196" lon="7.3128498"/>
      <trkpt lat="51.5456847" lon="7.3129596"/>
      <trkpt lat="51.5454617" lon="7.3131616"/>
      <trkpt lat="51.5453271" lon="7.3132682"/>
      <trkpt lat="51.5453258" lon="7.3132693"/>
      <trkpt lat="51.5451610" lon="7.3134077"/>
      <trkpt lat="51.5449436" lon="7.3135592"/>
      <trkpt lat="51.5448944" lon="7.3136035"/>
      <trkpt lat="51.5448521" lon="7.3136563"/>
      <trkpt lat="51.5448228" lon="7.3137143"/>
      <trkpt lat="51.5447840" lon="7.3138203"/>
      <trkpt lat="51.5447708" lon="7.3139012"/>
      <trkpt lat="51.5447658" lon="7.3139964"/>
      <trkpt lat="51.5447681" lon="7.3140718"/>
      <trkpt lat="51.5448048" lon="7.3142836"/>
      <trkpt lat="51.5448362" lon="7.3144509"/>
      <trkpt lat="51.5448669" lon="7.3146220"/>
      <trkpt lat="51.5449800" lon="7.3152514"/>
      <trkpt lat="51.5449872" lon="7.3152917"/>
      <trkpt lat="51.5449893" lon="7.3152973"/>
      <trkpt lat="51.5450292" lon="7.3153264"/>
      <trkpt lat="51.5450753" lon="7.3153472"/>
      <trkpt lat="51.5451178" lon="7.3153496"/>
      <trkpt lat="51.5451849" lon="7.3153462"/>
      <trkpt lat="51.5453187" lon="7.3152444"/>
      <trkpt lat="51.5459631" lon="7.3148339"/>
      <trkpt lat="51.5461769" lon="7.3146962"/>
      <trkpt lat="51.5463465" lon="7.3145859"/>
      <trkpt lat="51.5466058" lon="7.3144201"/>
      <trkpt lat="51.5467025" lon="7.3143600"/>
      <trkpt lat="51.5467637" lon="7.3143181"/>
      <trkpt lat="51.5469350" lon="7.3141914"/>
      <trkpt lat="51.5471163" lon="7.3140343"/>
      <trkpt lat="51.5474247" lon="7.3137410"/>
      <trkpt lat="51.5475589" lon="7.3135967"/>
      <trkpt lat="51.5478132" lon="7.3133451"/>
      <trkpt lat="51.5480418" lon="7.3130469"/>
      <trkpt lat="51.5480657" lon="7.3130139"/>
      <trkpt lat="51.5481098" lon="7.3129529"/>
      <trkpt lat="51.5481409" lon="7.3129031"/>
      <trkpt lat="51.5482244" lon="7.3127682"/>
      <trkpt lat="51.5483323" lon="7.3126052"/>
      <trkpt lat="51.5484555" lon="7.3124193"/>
      <trkpt lat="51.5485726" lon="7.3122751"/>
      <trkpt lat="51.5486786" lon="7.3121611"/>
      <trkpt lat="51.5487853" lon="7.3120531"/>
      <trkpt lat="51.5488511" lon="7.3119698"/>
      <trkpt lat="51.5490259" lon="7.3117038"/>
      <trkpt lat="51.5491572" lon="7.3114168"/>
      <trkpt lat="51.5493762" lon="7.3108368"/>
      <trkpt lat="51.5494785" lon="7.3105620"/>
      <trkpt lat="51.5495020" lon="7.3105015"/>
      <trkpt lat="51.5495253" lon="7.3104416"/>
      <trkpt lat="51.5496333" lon="7.3101431"/>
      <trkpt lat="51.5496495" lon="7.3101001"/>
      <trkpt lat="51.5497424" lon="7.3098606"/>
      <trkpt lat="51.5498092" lon="7.3096620"/>
      <trkpt lat="51.5498778" lon="7.3094213"/>
      <trkpt lat="51.5499216" lon="7.3092632"/>
      <trkpt lat="51.5500183" lon="7.3088689"/>
      <trkpt lat="51.5500861" lon="7.3085592"/>
      <trkpt lat="51.5501275" lon="7.3082457"/>
      <trkpt lat="51.5501405" lon="7.3081076"/>
      <trkpt lat="51.5501484" lon="7.3079655"/>
      <trkpt lat="51.5501501" lon="7.3078313"/>
      <trkpt lat="51.5501359" lon="7.3076939"/>
      <trkpt lat="51.5501097" lon="7.3075741"/>
      <trkpt lat="51.5500742" lon="7.3074833"/>
      <trkpt lat="51.5500296" lon="7.3074009"/>
      <trkpt lat="51.5500004" lon="7.3073519"/>
      <trkpt lat="51.5499362" lon="7.3072715"/>
      <trkpt lat="51.5498016" lon="7.3071831"/>
      <trkpt lat="51.5496826" lon="7.3071541"/>
      <trkpt lat="51.5495710" lon="7.3071774"/>
      <trkpt lat="51.5494223" lon="7.3072571"/>
      <trkpt lat="51.5493192" lon="7.3073629"/>
      <trkpt lat="51.5492617" lon="7.3074219"/>
      <trkpt lat="51.5489878" lon="7.3078004"/>
      <trkpt lat="51.5489946" lon="7.3079011"/>
      <trkpt lat="51.5490083" lon="7.3079799"/>
      <trkpt lat="51.5490292" lon="7.3080385"/>
      <trkpt lat="51.5490521" lon="7.3080833"/>
      <trkpt lat="51.5492523" lon="7.3084673"/>
      <trkpt lat="51.5494280" lon="7.3087826"/>
      <trkpt lat="51.5496004" lon="7.3090207"/>
      <trkpt lat="51.5497851" lon="7.3092433"/>
    </trkseg>
  </trk>
</gpx>