<?xml version="1.0" encoding="UTF-8"?>
<gpx version="1.1" creator="Linienjagd Castrop-Rauxel" xmlns="http://www.topografix.com/GPX/1/1">
  <metadata><name>Linie 361 – Stadtgebiet Castrop-Rauxel</name><desc>Bus 361: Dortmund Mengede Markt =&gt; Castrop-Rauxel Münsterplatz | 8.14 km in Castrop-Rauxel | 16 Haltestellen</desc></metadata>
  <wpt lat="51.5567615" lon="7.3540985"><name>01 Dingen Talstraße</name><sym>Flag</sym></wpt>
  <wpt lat="51.5579152" lon="7.3499579"><name>02 Bogenweg</name><sym>Flag</sym></wpt>
  <wpt lat="51.5615221" lon="7.3511558"><name>03 Westheide Schule</name><sym>Flag</sym></wpt>
  <wpt lat="51.5656574" lon="7.3524958"><name>04 Am Kreuzloh</name><sym>Flag</sym></wpt>
  <wpt lat="51.5681659" lon="7.3461221"><name>05 Oestricher Straße / Landhaus Köster</name><sym>Flag</sym></wpt>
  <wpt lat="51.5688060" lon="7.3426410"><name>06 Oststr./Dingebauer</name><sym>Flag</sym></wpt>
  <wpt lat="51.5660991" lon="7.3343886"><name>07 Deininghausen</name><sym>Flag</sym></wpt>
  <wpt lat="51.5690317" lon="7.3359819"><name>08 Weimarer Straße</name><sym>Flag</sym></wpt>
  <wpt lat="51.5662769" lon="7.3331460"><name>09 Deininghausen</name><sym>Flag</sym></wpt>
  <wpt lat="51.5599413" lon="7.3254565"><name>10 Ost- / Rieperbergstraße</name><sym>Flag</sym></wpt>
  <wpt lat="51.5584441" lon="7.3201278"><name>11 Luisenstraße</name><sym>Flag</sym></wpt>
  <wpt lat="51.5580179" lon="7.3157222"><name>12 Schophof</name><sym>Flag</sym></wpt>
  <wpt lat="51.5582519" lon="7.3125334"><name>13 Orionstraße</name><sym>Flag</sym></wpt>
  <wpt lat="51.5552056" lon="7.3108460"><name>14 Castrop Betriebshof</name><sym>Flag</sym></wpt>
  <wpt lat="51.5533138" lon="7.3103264"><name>15 Engelsburgplatz</name><sym>Flag</sym></wpt>
  <wpt lat="51.5494510" lon="7.3090787"><name>16 Castrop Münsterplatz</name><sym>Flag</sym></wpt>
  <trk><name>Linie 361 – Stadtgebiet Castrop-Rauxel</name>
    <trkseg>
      <trkpt lat="51.5564865" lon="7.3559351"/>
      <trkpt lat="51.5559478" lon="7.3553591"/>
      <trkpt lat="51.5557000" lon="7.3550925"/>
      <trkpt lat="51.5552242" lon="7.3546145"/>
      <trkpt lat="51.5550581" lon="7.3544477"/>
      <trkpt lat="51.5551520" lon="7.3542945"/>
      <trkpt lat="51.5553176" lon="7.3540241"/>
      <trkpt lat="51.5554803" lon="7.3536819"/>
      <trkpt lat="51.5556906" lon="7.3531922"/>
      <trkpt lat="51.5557799" lon="7.3529870"/>
      <trkpt lat="51.5558521" lon="7.3529782"/>
      <trkpt lat="51.5559400" lon="7.3530485"/>
      <trkpt lat="51.5560143" lon="7.3531448"/>
      <trkpt lat="51.5561588" lon="7.3533636"/>
      <trkpt lat="51.5565386" lon="7.3542357"/>
      <trkpt lat="51.5565877" lon="7.3542821"/>
      <trkpt lat="51.5567615" lon="7.3540985"/>
      <trkpt lat="51.5568095" lon="7.3540485"/>
      <trkpt lat="51.5570488" lon="7.3537833"/>
      <trkpt lat="51.5572703" lon="7.3535241"/>
      <trkpt lat="51.5573539" lon="7.3534316"/>
      <trkpt lat="51.5573873" lon="7.3533697"/>
      <trkpt lat="51.5573913" lon="7.3533151"/>
      <trkpt lat="51.5573672" lon="7.3531657"/>
      <trkpt lat="51.5572537" lon="7.3524955"/>
      <trkpt lat="51.5572425" lon="7.3523979"/>
      <trkpt lat="51.5572417" lon="7.3519951"/>
      <trkpt lat="51.5572554" lon="7.3511188"/>
      <trkpt lat="51.5572724" lon="7.3506947"/>
      <trkpt lat="51.5573040" lon="7.3500873"/>
      <trkpt lat="51.5573174" lon="7.3496464"/>
      <trkpt lat="51.5574775" lon="7.3497273"/>
      <trkpt lat="51.5576238" lon="7.3498054"/>
      <trkpt lat="51.5579152" lon="7.3499579"/>
      <trkpt lat="51.5581502" lon="7.3500851"/>
      <trkpt lat="51.5587354" lon="7.3504052"/>
      <trkpt lat="51.5592174" lon="7.3506432"/>
      <trkpt lat="51.5593630" lon="7.3507305"/>
      <trkpt lat="51.5595009" lon="7.3508150"/>
      <trkpt lat="51.5595938" lon="7.3508700"/>
      <trkpt lat="51.5596875" lon="7.3509194"/>
      <trkpt lat="51.5597573" lon="7.3509276"/>
      <trkpt lat="51.5602727" lon="7.3509879"/>
      <trkpt lat="51.5604441" lon="7.3510080"/>
      <trkpt lat="51.5609261" lon="7.3510735"/>
      <trkpt lat="51.5612761" lon="7.3511212"/>
      <trkpt lat="51.5613702" lon="7.3511341"/>
      <trkpt lat="51.5615221" lon="7.3511558"/>
      <trkpt lat="51.5615460" lon="7.3511604"/>
      <trkpt lat="51.5620276" lon="7.3512341"/>
      <trkpt lat="51.5620543" lon="7.3512370"/>
      <trkpt lat="51.5626286" lon="7.3513113"/>
      <trkpt lat="51.5629418" lon="7.3513580"/>
      <trkpt lat="51.5631252" lon="7.3513928"/>
      <trkpt lat="51.5631465" lon="7.3513965"/>
      <trkpt lat="51.5631643" lon="7.3514005"/>
      <trkpt lat="51.5631919" lon="7.3514088"/>
    </trkseg>
    <trkseg>
      <trkpt lat="51.5655842" lon="7.3526904"/>
      <trkpt lat="51.5656574" lon="7.3524958"/>
      <trkpt lat="51.5664776" lon="7.3504021"/>
      <trkpt lat="51.5665311" lon="7.3502618"/>
      <trkpt lat="51.5666145" lon="7.3500547"/>
      <trkpt lat="51.5666904" lon="7.3498615"/>
      <trkpt lat="51.5681659" lon="7.3461221"/>
      <trkpt lat="51.5682252" lon="7.3459699"/>
      <trkpt lat="51.5682559" lon="7.3458912"/>
      <trkpt lat="51.5682818" lon="7.3458332"/>
      <trkpt lat="51.5690566" lon="7.3438696"/>
      <trkpt lat="51.5691179" lon="7.3437143"/>
      <trkpt lat="51.5691918" lon="7.3435269"/>
      <trkpt lat="51.5688904" lon="7.3428379"/>
      <trkpt lat="51.5688060" lon="7.3426410"/>
      <trkpt lat="51.5687755" lon="7.3425722"/>
      <trkpt lat="51.5686840" lon="7.3423681"/>
      <trkpt lat="51.5685948" lon="7.3421714"/>
      <trkpt lat="51.5684784" lon="7.3418996"/>
      <trkpt lat="51.5682972" lon="7.3414842"/>
      <trkpt lat="51.5681965" lon="7.3412577"/>
      <trkpt lat="51.5681498" lon="7.3411527"/>
      <trkpt lat="51.5680942" lon="7.3410205"/>
      <trkpt lat="51.5679985" lon="7.3408069"/>
      <trkpt lat="51.5678847" lon="7.3405406"/>
      <trkpt lat="51.5676125" lon="7.3399009"/>
      <trkpt lat="51.5675398" lon="7.3397193"/>
      <trkpt lat="51.5674685" lon="7.3395581"/>
      <trkpt lat="51.5673279" lon="7.3392441"/>
      <trkpt lat="51.5671793" lon="7.3388892"/>
      <trkpt lat="51.5666901" lon="7.3377165"/>
      <trkpt lat="51.5660349" lon="7.3361636"/>
      <trkpt lat="51.5657084" lon="7.3354276"/>
      <trkpt lat="51.5655380" lon="7.3350691"/>
      <trkpt lat="51.5654641" lon="7.3349157"/>
      <trkpt lat="51.5651564" lon="7.3343202"/>
      <trkpt lat="51.5652158" lon="7.3342560"/>
      <trkpt lat="51.5653991" lon="7.3340606"/>
      <trkpt lat="51.5656229" lon="7.3338364"/>
      <trkpt lat="51.5657902" lon="7.3336638"/>
      <trkpt lat="51.5660605" lon="7.3342978"/>
      <trkpt lat="51.5660991" lon="7.3343886"/>
      <trkpt lat="51.5662899" lon="7.3348183"/>
      <trkpt lat="51.5665285" lon="7.3353811"/>
      <trkpt lat="51.5667587" lon="7.3359242"/>
      <trkpt lat="51.5669850" lon="7.3364484"/>
      <trkpt lat="51.5670035" lon="7.3364929"/>
      <trkpt lat="51.5672074" lon="7.3369820"/>
      <trkpt lat="51.5674181" lon="7.3374524"/>
      <trkpt lat="51.5674557" lon="7.3374733"/>
      <trkpt lat="51.5675438" lon="7.3375028"/>
      <trkpt lat="51.5676599" lon="7.3374605"/>
      <trkpt lat="51.5677234" lon="7.3373946"/>
      <trkpt lat="51.5680888" lon="7.3370050"/>
      <trkpt lat="51.5682994" lon="7.3367711"/>
      <trkpt lat="51.5685931" lon="7.3364662"/>
      <trkpt lat="51.5687759" lon="7.3362642"/>
      <trkpt lat="51.5688589" lon="7.3361692"/>
      <trkpt lat="51.5690317" lon="7.3359819"/>
      <trkpt lat="51.5691172" lon="7.3358851"/>
      <trkpt lat="51.5692111" lon="7.3357779"/>
      <trkpt lat="51.5694097" lon="7.3355770"/>
      <trkpt lat="51.5695682" lon="7.3353951"/>
      <trkpt lat="51.5696235" lon="7.3352777"/>
      <trkpt lat="51.5696360" lon="7.3351091"/>
      <trkpt lat="51.5696130" lon="7.3349817"/>
      <trkpt lat="51.5695511" lon="7.3348416"/>
      <trkpt lat="51.5694282" lon="7.3345633"/>
      <trkpt lat="51.5692492" lon="7.3341475"/>
      <trkpt lat="51.5689446" lon="7.3334102"/>
      <trkpt lat="51.5687402" lon="7.3329418"/>
      <trkpt lat="51.5686054" lon="7.3326329"/>
      <trkpt lat="51.5685666" lon="7.3325356"/>
      <trkpt lat="51.5683903" lon="7.3321127"/>
      <trkpt lat="51.5682189" lon="7.3317019"/>
      <trkpt lat="51.5681786" lon="7.3316052"/>
      <trkpt lat="51.5680405" lon="7.3313144"/>
      <trkpt lat="51.5677502" lon="7.3317371"/>
      <trkpt lat="51.5676124" lon="7.3319123"/>
      <trkpt lat="51.5671790" lon="7.3323107"/>
      <trkpt lat="51.5668655" lon="7.3325905"/>
      <trkpt lat="51.5664984" lon="7.3329180"/>
      <trkpt lat="51.5664250" lon="7.3330011"/>
      <trkpt lat="51.5662769" lon="7.3331460"/>
      <trkpt lat="51.5661911" lon="7.3332290"/>
      <trkpt lat="51.5661017" lon="7.3333319"/>
      <trkpt lat="51.5657902" lon="7.3336638"/>
      <trkpt lat="51.5656229" lon="7.3338364"/>
      <trkpt lat="51.5653991" lon="7.3340606"/>
      <trkpt lat="51.5652158" lon="7.3342560"/>
      <trkpt lat="51.5651564" lon="7.3343202"/>
      <trkpt lat="51.5646788" lon="7.3335178"/>
      <trkpt lat="51.5645393" lon="7.3333061"/>
      <trkpt lat="51.5632480" lon="7.3315251"/>
      <trkpt lat="51.5628262" lon="7.3309532"/>
      <trkpt lat="51.5625921" lon="7.3306435"/>
      <trkpt lat="51.5624358" lon="7.3304197"/>
      <trkpt lat="51.5619136" lon="7.3297111"/>
      <trkpt lat="51.5615813" lon="7.3292523"/>
      <trkpt lat="51.5614847" lon="7.3291255"/>
      <trkpt lat="51.5609961" lon="7.3284783"/>
      <trkpt lat="51.5607593" lon="7.3280714"/>
      <trkpt lat="51.5607151" lon="7.3279884"/>
      <trkpt lat="51.5605256" lon="7.3276170"/>
      <trkpt lat="51.5603763" lon="7.3272110"/>
      <trkpt lat="51.5602090" lon="7.3266995"/>
      <trkpt lat="51.5601095" lon="7.3262777"/>
      <trkpt lat="51.5599413" lon="7.3254565"/>
      <trkpt lat="51.5598926" lon="7.3252109"/>
      <trkpt lat="51.5598383" lon="7.3249692"/>
      <trkpt lat="51.5598211" lon="7.3248873"/>
      <trkpt lat="51.5596970" lon="7.3242518"/>
      <trkpt lat="51.5595665" lon="7.3237312"/>
      <trkpt lat="51.5595029" lon="7.3234931"/>
      <trkpt lat="51.5594276" lon="7.3232568"/>
      <trkpt lat="51.5592715" lon="7.3227672"/>
      <trkpt lat="51.5589455" lon="7.3217527"/>
      <trkpt lat="51.5588277" lon="7.3213860"/>
      <trkpt lat="51.5584441" lon="7.3201278"/>
      <trkpt lat="51.5584286" lon="7.3200642"/>
      <trkpt lat="51.5583815" lon="7.3199207"/>
      <trkpt lat="51.5582884" lon="7.3196342"/>
      <trkpt lat="51.5579191" lon="7.3184435"/>
      <trkpt lat="51.5578493" lon="7.3181774"/>
      <trkpt lat="51.5578072" lon="7.3179028"/>
      <trkpt lat="51.5577871" lon="7.3175897"/>
      <trkpt lat="51.5577875" lon="7.3172880"/>
      <trkpt lat="51.5578003" lon="7.3170988"/>
      <trkpt lat="51.5578048" lon="7.3170306"/>
      <trkpt lat="51.5579146" lon="7.3163514"/>
      <trkpt lat="51.5580179" lon="7.3157222"/>
      <trkpt lat="51.5581143" lon="7.3151846"/>
      <trkpt lat="51.5582394" lon="7.3144713"/>
      <trkpt lat="51.5582484" lon="7.3144206"/>
      <trkpt lat="51.5582827" lon="7.3142564"/>
      <trkpt lat="51.5582994" lon="7.3140907"/>
      <trkpt lat="51.5583089" lon="7.3139309"/>
      <trkpt lat="51.5583184" lon="7.3136741"/>
      <trkpt lat="51.5583156" lon="7.3134308"/>
      <trkpt lat="51.5583122" lon="7.3133393"/>
      <trkpt lat="51.5582961" lon="7.3130773"/>
      <trkpt lat="51.5582519" lon="7.3125334"/>
      <trkpt lat="51.5581965" lon="7.3118654"/>
      <trkpt lat="51.5581823" lon="7.3117330"/>
      <trkpt lat="51.5581594" lon="7.3114552"/>
      <trkpt lat="51.5581421" lon="7.3112276"/>
      <trkpt lat="51.5581246" lon="7.3109968"/>
      <trkpt lat="51.5580868" lon="7.3104990"/>
      <trkpt lat="51.5580795" lon="7.3104024"/>
      <trkpt lat="51.5580733" lon="7.3103208"/>
      <trkpt lat="51.5580628" lon="7.3101828"/>
      <trkpt lat="51.5579862" lon="7.3101974"/>
      <trkpt lat="51.5577884" lon="7.3102352"/>
      <trkpt lat="51.5577661" lon="7.3102395"/>
      <trkpt lat="51.5576795" lon="7.3102561"/>
      <trkpt lat="51.5575950" lon="7.3103385"/>
      <trkpt lat="51.5572382" lon="7.3104326"/>
      <trkpt lat="51.5571427" lon="7.3104521"/>
      <trkpt lat="51.5570697" lon="7.3104669"/>
      <trkpt lat="51.5565228" lon="7.3105780"/>
      <trkpt lat="51.5563656" lon="7.3106100"/>
      <trkpt lat="51.5560681" lon="7.3106704"/>
      <trkpt lat="51.5559932" lon="7.3106857"/>
      <trkpt lat="51.5557517" lon="7.3107347"/>
      <trkpt lat="51.5555824" lon="7.3107691"/>
      <trkpt lat="51.5555167" lon="7.3107807"/>
      <trkpt lat="51.5552761" lon="7.3108314"/>
      <trkpt lat="51.5552056" lon="7.3108460"/>
      <trkpt lat="51.5550635" lon="7.3108746"/>
      <trkpt lat="51.5549884" lon="7.3108899"/>
      <trkpt lat="51.5549339" lon="7.3109009"/>
      <trkpt lat="51.5548687" lon="7.3108523"/>
      <trkpt lat="51.5547272" lon="7.3108790"/>
      <trkpt lat="51.5546982" lon="7.3108844"/>
      <trkpt lat="51.5546193" lon="7.3108972"/>
      <trkpt lat="51.5544330" lon="7.3109139"/>
      <trkpt lat="51.5543591" lon="7.3109126"/>
      <trkpt lat="51.5543200" lon="7.3109119"/>
      <trkpt lat="51.5542137" lon="7.3108991"/>
      <trkpt lat="51.5541019" lon="7.3108669"/>
      <trkpt lat="51.5539843" lon="7.3108160"/>
      <trkpt lat="51.5538378" lon="7.3107371"/>
      <trkpt lat="51.5537495" lon="7.3106743"/>
      <trkpt lat="51.5537164" lon="7.3106533"/>
      <trkpt lat="51.5534330" lon="7.3104364"/>
      <trkpt lat="51.5533138" lon="7.3103264"/>
      <trkpt lat="51.5531978" lon="7.3102026"/>
      <trkpt lat="51.5530222" lon="7.3099715"/>
      <trkpt lat="51.5529061" lon="7.3097665"/>
      <trkpt lat="51.5527495" lon="7.3094194"/>
      <trkpt lat="51.5526983" lon="7.3092802"/>
      <trkpt lat="51.5525522" lon="7.3087925"/>
      <trkpt lat="51.5524563" lon="7.3084773"/>
      <trkpt lat="51.5523716" lon="7.3082020"/>
      <trkpt lat="51.5523439" lon="7.3081184"/>
      <trkpt lat="51.5523288" lon="7.3080727"/>
      <trkpt lat="51.5522824" lon="7.3079326"/>
      <trkpt lat="51.5522555" lon="7.3078646"/>
      <trkpt lat="51.5522085" lon="7.3077543"/>
      <trkpt lat="51.5521495" lon="7.3076090"/>
      <trkpt lat="51.5521241" lon="7.3075409"/>
      <trkpt lat="51.5521017" lon="7.3074833"/>
      <trkpt lat="51.5519266" lon="7.3071234"/>
      <trkpt lat="51.5517708" lon="7.3068725"/>
      <trkpt lat="51.5516503" lon="7.3066932"/>
      <trkpt lat="51.5515537" lon="7.3065654"/>
      <trkpt lat="51.5513657" lon="7.3063446"/>
      <trkpt lat="51.5512634" lon="7.3062381"/>
      <trkpt lat="51.5511579" lon="7.3061362"/>
      <trkpt lat="51.5510706" lon="7.3060609"/>
      <trkpt lat="51.5509979" lon="7.3060020"/>
      <trkpt lat="51.5508139" lon="7.3058720"/>
      <trkpt lat="51.5506760" lon="7.3057870"/>
      <trkpt lat="51.5505224" lon="7.3057097"/>
      <trkpt lat="51.5504269" lon="7.3056675"/>
      <trkpt lat="51.5502535" lon="7.3056038"/>
      <trkpt lat="51.5500800" lon="7.3055615"/>
      <trkpt lat="51.5499437" lon="7.3055310"/>
      <trkpt lat="51.5497935" lon="7.3055220"/>
      <trkpt lat="51.5495219" lon="7.3055453"/>
      <trkpt lat="51.5494217" lon="7.3055291"/>
      <trkpt lat="51.5492966" lon="7.3055242"/>
      <trkpt lat="51.5492492" lon="7.3055009"/>
      <trkpt lat="51.5492112" lon="7.3054799"/>
      <trkpt lat="51.5491481" lon="7.3053808"/>
      <trkpt lat="51.5491076" lon="7.3052418"/>
      <trkpt lat="51.5491047" lon="7.3051451"/>
      <trkpt lat="51.5491166" lon="7.3050343"/>
      <trkpt lat="51.5491711" lon="7.3048217"/>
      <trkpt lat="51.5492356" lon="7.3047583"/>
      <trkpt lat="51.5492838" lon="7.3047216"/>
      <trkpt lat="51.5494052" lon="7.3046833"/>
      <trkpt lat="51.5495363" lon="7.3046552"/>
      <trkpt lat="51.5498658" lon="7.3046508"/>
      <trkpt lat="51.5501087" lon="7.3046653"/>
      <trkpt lat="51.5501131" lon="7.3049542"/>
      <trkpt lat="51.5501234" lon="7.3052619"/>
      <trkpt lat="51.5501419" lon="7.3055598"/>
      <trkpt lat="51.5501993" lon="7.3062938"/>
      <trkpt lat="51.5502437" lon="7.3066489"/>
      <trkpt lat="51.5502466" lon="7.3070324"/>
      <trkpt lat="51.5502152" lon="7.3071784"/>
      <trkpt lat="51.5501467" lon="7.3072658"/>
      <trkpt lat="51.5500901" lon="7.3072942"/>
      <trkpt lat="51.5500254" lon="7.3072845"/>
      <trkpt lat="51.5499163" lon="7.3072122"/>
      <trkpt lat="51.5498016" lon="7.3071831"/>
      <trkpt lat="51.5496826" lon="7.3071541"/>
      <trkpt lat="51.5495710" lon="7.3071774"/>
      <trkpt lat="51.5494223" lon="7.3072571"/>
      <trkpt lat="51.5493192" lon="7.3073629"/>
      <trkpt lat="51.5492617" lon="7.3074219"/>
      <trkpt lat="51.5489878" lon="7.3078004"/>
      <trkpt lat="51.5489809" lon="7.3078957"/>
      <trkpt lat="51.5489835" lon="7.3079770"/>
      <trkpt lat="51.5490498" lon="7.3082507"/>
      <trkpt lat="51.5491719" lon="7.3085843"/>
      <trkpt lat="51.5492175" lon="7.3086793"/>
      <trkpt lat="51.5493265" lon="7.3088877"/>
      <trkpt lat="51.5493442" lon="7.3089234"/>
      <trkpt lat="51.5493716" lon="7.3089642"/>
      <trkpt lat="51.5494510" lon="7.3090787"/>
    </trkseg>
  </trk>
</gpx>