<?xml version="1.0" encoding="UTF-8"?>
<gpx version="1.1" creator="Linienjagd Castrop-Rauxel" xmlns="http://www.topografix.com/GPX/1/1">
  <metadata><name>Linie 364 – Stadtgebiet Castrop-Rauxel</name><desc>Bus 364: Sportplatz Papenholz =&gt; Castrop Münsterplatz | 5.48 km in Castrop-Rauxel | 14 Haltestellen</desc></metadata>
  <wpt lat="51.5254532" lon="7.3158696"><name>01 Lindenstraße</name><sym>Flag</sym></wpt>
  <wpt lat="51.5272145" lon="7.3219132"><name>02 Merklinde Harkortstraße</name><sym>Flag</sym></wpt>
  <wpt lat="51.5285085" lon="7.3223503"><name>03 Gerther Straße</name><sym>Flag</sym></wpt>
  <wpt lat="51.5310565" lon="7.3210620"><name>04 Strunk</name><sym>Flag</sym></wpt>
  <wpt lat="51.5365169" lon="7.3186462"><name>05 Marienstraße</name><sym>Flag</sym></wpt>
  <wpt lat="51.5374644" lon="7.3154464"><name>06 Im Scheiten</name><sym>Flag</sym></wpt>
  <wpt lat="51.5400987" lon="7.3128847"><name>07 Hedwigstraße</name><sym>Flag</sym></wpt>
  <wpt lat="51.5402138" lon="7.3088567"><name>08 Cottenburgstraße</name><sym>Flag</sym></wpt>
  <wpt lat="51.5421425" lon="7.3081156"><name>09 Stadtgarten</name><sym>Flag</sym></wpt>
  <wpt lat="51.5446632" lon="7.3079747"><name>10 Klothkamp</name><sym>Flag</sym></wpt>
  <wpt lat="51.5448048" lon="7.3142836"><name>11 Beethovenstraße</name><sym>Flag</sym></wpt>
  <wpt lat="51.5466058" lon="7.3144201"><name>12 Katholisches Krankenhaus</name><sym>Flag</sym></wpt>
  <wpt lat="51.5480418" lon="7.3130469"><name>13 Castrop Markt</name><sym>Flag</sym></wpt>
  <wpt lat="51.5497851" lon="7.3092433"><name>14 Castrop Münsterplatz</name><sym>Flag</sym></wpt>
  <trk><name>Linie 364 – Stadtgebiet Castrop-Rauxel</name>
    <trkseg>
      <trkpt lat="51.5242026" lon="7.3109548"/>
      <trkpt lat="51.5242259" lon="7.3111037"/>
      <trkpt lat="51.5242510" lon="7.3112525"/>
      <trkpt lat="51.5243011" lon="7.3115052"/>
      <trkpt lat="51.5243444" lon="7.3116937"/>
      <trkpt lat="51.5243749" lon="7.3118037"/>
      <trkpt lat="51.5244060" lon="7.3119054"/>
      <trkpt lat="51.5244955" lon="7.3121270"/>
      <trkpt lat="51.5245831" lon="7.3123367"/>
      <trkpt lat="51.5246777" lon="7.3125548"/>
      <trkpt lat="51.5247299" lon="7.3126687"/>
      <trkpt lat="51.5248417" lon="7.3129302"/>
      <trkpt lat="51.5249111" lon="7.3131079"/>
      <trkpt lat="51.5249818" lon="7.3132929"/>
      <trkpt lat="51.5250012" lon="7.3133438"/>
      <trkpt lat="51.5250975" lon="7.3135986"/>
      <trkpt lat="51.5251322" lon="7.3136869"/>
      <trkpt lat="51.5251825" lon="7.3138387"/>
      <trkpt lat="51.5252268" lon="7.3140028"/>
      <trkpt lat="51.5252605" lon="7.3141556"/>
      <trkpt lat="51.5252710" lon="7.3142036"/>
      <trkpt lat="51.5253111" lon="7.3144499"/>
      <trkpt lat="51.5253438" lon="7.3145739"/>
      <trkpt lat="51.5253616" lon="7.3147009"/>
      <trkpt lat="51.5253677" lon="7.3147869"/>
      <trkpt lat="51.5253744" lon="7.3148817"/>
      <trkpt lat="51.5253877" lon="7.3152524"/>
      <trkpt lat="51.5254060" lon="7.3155188"/>
      <trkpt lat="51.5254532" lon="7.3158696"/>
      <trkpt lat="51.5256537" lon="7.3171496"/>
      <trkpt lat="51.5257142" lon="7.3174266"/>
      <trkpt lat="51.5259259" lon="7.3180736"/>
      <trkpt lat="51.5259994" lon="7.3182450"/>
      <trkpt lat="51.5261113" lon="7.3185783"/>
      <trkpt lat="51.5261414" lon="7.3187269"/>
      <trkpt lat="51.5263295" lon="7.3192838"/>
      <trkpt lat="51.5264014" lon="7.3194906"/>
      <trkpt lat="51.5265902" lon="7.3200362"/>
      <trkpt lat="51.5267405" lon="7.3204346"/>
      <trkpt lat="51.5268464" lon="7.3207428"/>
      <trkpt lat="51.5268673" lon="7.3208067"/>
      <trkpt lat="51.5269232" lon="7.3209832"/>
      <trkpt lat="51.5269774" lon="7.3211831"/>
      <trkpt lat="51.5270617" lon="7.3214576"/>
      <trkpt lat="51.5271386" lon="7.3216889"/>
      <trkpt lat="51.5271577" lon="7.3217464"/>
      <trkpt lat="51.5271888" lon="7.3218343"/>
      <trkpt lat="51.5272145" lon="7.3219132"/>
      <trkpt lat="51.5272866" lon="7.3221346"/>
      <trkpt lat="51.5273583" lon="7.3223542"/>
      <trkpt lat="51.5274442" lon="7.3225995"/>
      <trkpt lat="51.5274654" lon="7.3226631"/>
      <trkpt lat="51.5275219" lon="7.3228355"/>
      <trkpt lat="51.5276478" lon="7.3227736"/>
      <trkpt lat="51.5277038" lon="7.3227460"/>
      <trkpt lat="51.5280204" lon="7.3225903"/>
      <trkpt lat="51.5280817" lon="7.3225602"/>
      <trkpt lat="51.5284446" lon="7.3223817"/>
      <trkpt lat="51.5285085" lon="7.3223503"/>
      <trkpt lat="51.5285475" lon="7.3223311"/>
      <trkpt lat="51.5286685" lon="7.3222716"/>
      <trkpt lat="51.5287420" lon="7.3222355"/>
      <trkpt lat="51.5287641" lon="7.3222246"/>
      <trkpt lat="51.5288058" lon="7.3222041"/>
      <trkpt lat="51.5288299" lon="7.3221896"/>
      <trkpt lat="51.5290691" lon="7.3220669"/>
      <trkpt lat="51.5291213" lon="7.3220399"/>
      <trkpt lat="51.5293628" lon="7.3219148"/>
      <trkpt lat="51.5297312" lon="7.3217316"/>
      <trkpt lat="51.5297864" lon="7.3217041"/>
      <trkpt lat="51.5301163" lon="7.3215401"/>
      <trkpt lat="51.5304215" lon="7.3213884"/>
      <trkpt lat="51.5306046" lon="7.3212957"/>
      <trkpt lat="51.5308713" lon="7.3211621"/>
      <trkpt lat="51.5310074" lon="7.3210917"/>
      <trkpt lat="51.5310565" lon="7.3210620"/>
      <trkpt lat="51.5313028" lon="7.3209395"/>
      <trkpt lat="51.5317166" lon="7.3207336"/>
      <trkpt lat="51.5317425" lon="7.3207207"/>
      <trkpt lat="51.5318888" lon="7.3206479"/>
      <trkpt lat="51.5321031" lon="7.3205413"/>
      <trkpt lat="51.5325672" lon="7.3203103"/>
      <trkpt lat="51.5327661" lon="7.3202113"/>
      <trkpt lat="51.5330916" lon="7.3200494"/>
      <trkpt lat="51.5336942" lon="7.3197495"/>
      <trkpt lat="51.5339406" lon="7.3196265"/>
      <trkpt lat="51.5344249" lon="7.3193951"/>
      <trkpt lat="51.5347954" lon="7.3192224"/>
      <trkpt lat="51.5350150" lon="7.3191223"/>
      <trkpt lat="51.5351923" lon="7.3190458"/>
      <trkpt lat="51.5353805" lon="7.3189746"/>
      <trkpt lat="51.5354433" lon="7.3189529"/>
      <trkpt lat="51.5355704" lon="7.3189129"/>
      <trkpt lat="51.5358526" lon="7.3188305"/>
      <trkpt lat="51.5361686" lon="7.3187383"/>
      <trkpt lat="51.5365011" lon="7.3186499"/>
      <trkpt lat="51.5365169" lon="7.3186462"/>
      <trkpt lat="51.5365663" lon="7.3186348"/>
      <trkpt lat="51.5368903" lon="7.3185475"/>
      <trkpt lat="51.5370409" lon="7.3185068"/>
      <trkpt lat="51.5375307" lon="7.3183555"/>
      <trkpt lat="51.5378122" lon="7.3182814"/>
      <trkpt lat="51.5377658" lon="7.3178538"/>
      <trkpt lat="51.5377121" lon="7.3175993"/>
      <trkpt lat="51.5375107" lon="7.3169876"/>
      <trkpt lat="51.5370987" lon="7.3157066"/>
      <trkpt lat="51.5371342" lon="7.3156691"/>
      <trkpt lat="51.5372057" lon="7.3156102"/>
      <trkpt lat="51.5374644" lon="7.3154464"/>
      <trkpt lat="51.5375038" lon="7.3154215"/>
      <trkpt lat="51.5377460" lon="7.3152682"/>
      <trkpt lat="51.5380238" lon="7.3150973"/>
      <trkpt lat="51.5385564" lon="7.3147330"/>
      <trkpt lat="51.5387047" lon="7.3146422"/>
      <trkpt lat="51.5391482" lon="7.3143577"/>
      <trkpt lat="51.5395341" lon="7.3140799"/>
      <trkpt lat="51.5399722" lon="7.3137832"/>
      <trkpt lat="51.5401785" lon="7.3136561"/>
      <trkpt lat="51.5402493" lon="7.3136135"/>
      <trkpt lat="51.5402664" lon="7.3135839"/>
      <trkpt lat="51.5402761" lon="7.3135478"/>
      <trkpt lat="51.5402706" lon="7.3135079"/>
      <trkpt lat="51.5401854" lon="7.3131991"/>
      <trkpt lat="51.5400987" lon="7.3128847"/>
      <trkpt lat="51.5399455" lon="7.3123151"/>
      <trkpt lat="51.5399360" lon="7.3122588"/>
      <trkpt lat="51.5399058" lon="7.3119643"/>
      <trkpt lat="51.5398944" lon="7.3117989"/>
      <trkpt lat="51.5401167" lon="7.3117349"/>
      <trkpt lat="51.5402856" lon="7.3116556"/>
      <trkpt lat="51.5402539" lon="7.3115368"/>
      <trkpt lat="51.5399778" lon="7.3109226"/>
      <trkpt lat="51.5399343" lon="7.3107984"/>
      <trkpt lat="51.5399142" lon="7.3107197"/>
      <trkpt lat="51.5398986" lon="7.3106474"/>
      <trkpt lat="51.5398838" lon="7.3105727"/>
      <trkpt lat="51.5398743" lon="7.3105015"/>
      <trkpt lat="51.5398644" lon="7.3104346"/>
      <trkpt lat="51.5398536" lon="7.3102947"/>
      <trkpt lat="51.5398525" lon="7.3093102"/>
      <trkpt lat="51.5398517" lon="7.3087557"/>
      <trkpt lat="51.5399077" lon="7.3087693"/>
      <trkpt lat="51.5399637" lon="7.3087829"/>
      <trkpt lat="51.5399969" lon="7.3087910"/>
      <trkpt lat="51.5401328" lon="7.3088326"/>
      <trkpt lat="51.5402138" lon="7.3088567"/>
      <trkpt lat="51.5406191" lon="7.3089827"/>
      <trkpt lat="51.5407175" lon="7.3089925"/>
      <trkpt lat="51.5407806" lon="7.3089866"/>
      <trkpt lat="51.5408461" lon="7.3089667"/>
      <trkpt lat="51.5409336" lon="7.3089156"/>
      <trkpt lat="51.5410782" lon="7.3088033"/>
      <trkpt lat="51.5413297" lon="7.3086000"/>
      <trkpt lat="51.5414860" lon="7.3084845"/>
      <trkpt lat="51.5416322" lon="7.3083849"/>
      <trkpt lat="51.5417635" lon="7.3083055"/>
      <trkpt lat="51.5418928" lon="7.3082407"/>
      <trkpt lat="51.5421425" lon="7.3081156"/>
      <trkpt lat="51.5422942" lon="7.3080396"/>
      <trkpt lat="51.5426183" lon="7.3078773"/>
      <trkpt lat="51.5428992" lon="7.3077502"/>
      <trkpt lat="51.5434474" lon="7.3075021"/>
      <trkpt lat="51.5435225" lon="7.3074681"/>
      <trkpt lat="51.5436798" lon="7.3073971"/>
      <trkpt lat="51.5437837" lon="7.3073495"/>
      <trkpt lat="51.5438420" lon="7.3073228"/>
      <trkpt lat="51.5439025" lon="7.3072951"/>
      <trkpt lat="51.5439687" lon="7.3072649"/>
      <trkpt lat="51.5440031" lon="7.3072492"/>
      <trkpt lat="51.5441591" lon="7.3071779"/>
      <trkpt lat="51.5443634" lon="7.3070861"/>
      <trkpt lat="51.5443854" lon="7.3072035"/>
      <trkpt lat="51.5446632" lon="7.3079747"/>
      <trkpt lat="51.5446764" lon="7.3080115"/>
      <trkpt lat="51.5447351" lon="7.3081744"/>
      <trkpt lat="51.5447972" lon="7.3083469"/>
      <trkpt lat="51.5450052" lon="7.3089243"/>
      <trkpt lat="51.5452642" lon="7.3096834"/>
      <trkpt lat="51.5453830" lon="7.3099952"/>
      <trkpt lat="51.5455926" lon="7.3103584"/>
      <trkpt lat="51.5458954" lon="7.3108830"/>
      <trkpt lat="51.5462756" lon="7.3115279"/>
      <trkpt lat="51.5463211" lon="7.3116034"/>
      <trkpt lat="51.5464678" lon="7.3118579"/>
      <trkpt lat="51.5465526" lon="7.3120034"/>
      <trkpt lat="51.5465042" lon="7.3120762"/>
      <trkpt lat="51.5462885" lon="7.3124136"/>
      <trkpt lat="51.5462795" lon="7.3124256"/>
      <trkpt lat="51.5462425" lon="7.3124724"/>
      <trkpt lat="51.5462055" lon="7.3125160"/>
      <trkpt lat="51.5459321" lon="7.3127515"/>
      <trkpt lat="51.5458196" lon="7.3128498"/>
      <trkpt lat="51.5456847" lon="7.3129596"/>
      <trkpt lat="51.5454617" lon="7.3131616"/>
      <trkpt lat="51.5453271" lon="7.3132682"/>
      <trkpt lat="51.5453258" lon="7.3132693"/>
      <trkpt lat="51.5451610" lon="7.3134077"/>
      <trkpt lat="51.5449436" lon="7.3135592"/>
      <trkpt lat="51.5448944" lon="7.3136035"/>
      <trkpt lat="51.5448521" lon="7.3136563"/>
      <trkpt lat="51.5448228" lon="7.3137143"/>
      <trkpt lat="51.5447840" lon="7.3138203"/>
      <trkpt lat="51.5447708" lon="7.3139012"/>
      <trkpt lat="51.5447658" lon="7.3139964"/>
      <trkpt lat="51.5447681" lon="7.3140718"/>
      <trkpt lat="51.5448048" lon="7.3142836"/>
      <trkpt lat="51.5448362" lon="7.3144509"/>
      <trkpt lat="51.5448669" lon="7.3146220"/>
      <trkpt lat="51.5449800" lon="7.3152514"/>
      <trkpt lat="51.5449872" lon="7.3152917"/>
      <trkpt lat="51.5449893" lon="7.3152973"/>
      <trkpt lat="51.5450292" lon="7.3153264"/>
      <trkpt lat="51.5450753" lon="7.3153472"/>
      <trkpt lat="51.5451178" lon="7.3153496"/>
      <trkpt lat="51.5451849" lon="7.3153462"/>
      <trkpt lat="51.5453187" lon="7.3152444"/>
      <trkpt lat="51.5459631" lon="7.3148339"/>
      <trkpt lat="51.5461769" lon="7.3146962"/>
      <trkpt lat="51.5463465" lon="7.3145859"/>
      <trkpt lat="51.5466058" lon="7.3144201"/>
      <trkpt lat="51.5467025" lon="7.3143600"/>
      <trkpt lat="51.5467637" lon="7.3143181"/>
      <trkpt lat="51.5469350" lon="7.3141914"/>
      <trkpt lat="51.5471163" lon="7.3140343"/>
      <trkpt lat="51.5474247" lon="7.3137410"/>
      <trkpt lat="51.5475589" lon="7.3135967"/>
      <trkpt lat="51.5478132" lon="7.3133451"/>
      <trkpt lat="51.5480418" lon="7.3130469"/>
      <trkpt lat="51.5480657" lon="7.3130139"/>
      <trkpt lat="51.5481098" lon="7.3129529"/>
      <trkpt lat="51.5481409" lon="7.3129031"/>
      <trkpt lat="51.5482244" lon="7.3127682"/>
      <trkpt lat="51.5483323" lon="7.3126052"/>
      <trkpt lat="51.5484555" lon="7.3124193"/>
      <trkpt lat="51.5485726" lon="7.3122751"/>
      <trkpt lat="51.5486786" lon="7.3121611"/>
      <trkpt lat="51.5487853" lon="7.3120531"/>
      <trkpt lat="51.5488511" lon="7.3119698"/>
      <trkpt lat="51.5490259" lon="7.3117038"/>
      <trkpt lat="51.5491572" lon="7.3114168"/>
      <trkpt lat="51.5493762" lon="7.3108368"/>
      <trkpt lat="51.5494785" lon="7.3105620"/>
      <trkpt lat="51.5495020" lon="7.3105015"/>
      <trkpt lat="51.5495253" lon="7.3104416"/>
      <trkpt lat="51.5496333" lon="7.3101431"/>
      <trkpt lat="51.5496495" lon="7.3101001"/>
      <trkpt lat="51.5497424" lon="7.3098606"/>
      <trkpt lat="51.5498092" lon="7.3096620"/>
      <trkpt lat="51.5498778" lon="7.3094213"/>
      <trkpt lat="51.5499216" lon="7.3092632"/>
      <trkpt lat="51.5500183" lon="7.3088689"/>
      <trkpt lat="51.5500861" lon="7.3085592"/>
      <trkpt lat="51.5501275" lon="7.3082457"/>
      <trkpt lat="51.5501405" lon="7.3081076"/>
      <trkpt lat="51.5501484" lon="7.3079655"/>
      <trkpt lat="51.5501501" lon="7.3078313"/>
      <trkpt lat="51.5501359" lon="7.3076939"/>
      <trkpt lat="51.5501097" lon="7.3075741"/>
      <trkpt lat="51.5500742" lon="7.3074833"/>
      <trkpt lat="51.5500296" lon="7.3074009"/>
      <trkpt lat="51.5500004" lon="7.3073519"/>
      <trkpt lat="51.5499362" lon="7.3072715"/>
      <trkpt lat="51.5498016" lon="7.3071831"/>
      <trkpt lat="51.5496826" lon="7.3071541"/>
      <trkpt lat="51.5495710" lon="7.3071774"/>
      <trkpt lat="51.5494223" lon="7.3072571"/>
      <trkpt lat="51.5493192" lon="7.3073629"/>
      <trkpt lat="51.5492617" lon="7.3074219"/>
      <trkpt lat="51.5489878" lon="7.3078004"/>
      <trkpt lat="51.5489946" lon="7.3079011"/>
      <trkpt lat="51.5490083" lon="7.3079799"/>
      <trkpt lat="51.5490292" lon="7.3080385"/>
      <trkpt lat="51.5490521" lon="7.3080833"/>
      <trkpt lat="51.5492523" lon="7.3084673"/>
      <trkpt lat="51.5494280" lon="7.3087826"/>
      <trkpt lat="51.5496004" lon="7.3090207"/>
      <trkpt lat="51.5497851" lon="7.3092433"/>
    </trkseg>
  </trk>
</gpx>