<?xml version="1.0" encoding="UTF-8"?>
<gpx version="1.1" creator="Linienjagd Castrop-Rauxel" xmlns="http://www.topografix.com/GPX/1/1">
  <metadata><name>Linie 378 – Stadtgebiet Castrop-Rauxel</name><desc>Bus 378: Ruhr-Universität =&gt; Castrop Münsterplatz | 3.69 km in Castrop-Rauxel | 10 Haltestellen</desc></metadata>
  <wpt lat="51.5236568" lon="7.3245331"><name>01 Lotharstraße</name><sym>Flag</sym></wpt>
  <wpt lat="51.5258096" lon="7.3236845"><name>02 Johannesstraße</name><sym>Flag</sym></wpt>
  <wpt lat="51.5285085" lon="7.3223503"><name>03 Gerther Straße</name><sym>Flag</sym></wpt>
  <wpt lat="51.5310565" lon="7.3210620"><name>04 Strunk</name><sym>Flag</sym></wpt>
  <wpt lat="51.5365169" lon="7.3186462"><name>05 Marienstraße</name><sym>Flag</sym></wpt>
  <wpt lat="51.5395323" lon="7.3178451"><name>06 Evangelischer Friedhof</name><sym>Flag</sym></wpt>
  <wpt lat="51.5433791" lon="7.3165265"><name>07 Tiergartenstraße</name><sym>Flag</sym></wpt>
  <wpt lat="51.5466058" lon="7.3144201"><name>08 Katholisches Krankenhaus</name><sym>Flag</sym></wpt>
  <wpt lat="51.5480418" lon="7.3130469"><name>09 Castrop Markt</name><sym>Flag</sym></wpt>
  <wpt lat="51.5496004" lon="7.3090207"><name>10 Castrop Münsterplatz</name><sym>Flag</sym></wpt>
  <trk><name>Linie 378 – Stadtgebiet Castrop-Rauxel</name>
    <trkseg>
      <trkpt lat="51.5227217" lon="7.3248258"/>
      <trkpt lat="51.5227409" lon="7.3248209"/>
      <trkpt lat="51.5229303" lon="7.3247627"/>
      <trkpt lat="51.5231023" lon="7.3246932"/>
      <trkpt lat="51.5233033" lon="7.3246297"/>
      <trkpt lat="51.5234065" lon="7.3246007"/>
      <trkpt lat="51.5236568" lon="7.3245331"/>
      <trkpt lat="51.5237444" lon="7.3245110"/>
      <trkpt lat="51.5238080" lon="7.3244960"/>
      <trkpt lat="51.5242287" lon="7.3243653"/>
      <trkpt lat="51.5244374" lon="7.3243004"/>
      <trkpt lat="51.5245306" lon="7.3242702"/>
      <trkpt lat="51.5246385" lon="7.3242306"/>
      <trkpt lat="51.5247992" lon="7.3241717"/>
      <trkpt lat="51.5249507" lon="7.3241099"/>
      <trkpt lat="51.5252927" lon="7.3239368"/>
      <trkpt lat="51.5255066" lon="7.3238324"/>
      <trkpt lat="51.5256490" lon="7.3237634"/>
      <trkpt lat="51.5257554" lon="7.3237118"/>
      <trkpt lat="51.5257844" lon="7.3236977"/>
      <trkpt lat="51.5258096" lon="7.3236845"/>
      <trkpt lat="51.5258284" lon="7.3236744"/>
      <trkpt lat="51.5258728" lon="7.3236504"/>
      <trkpt lat="51.5258888" lon="7.3236423"/>
      <trkpt lat="51.5261661" lon="7.3235101"/>
      <trkpt lat="51.5263289" lon="7.3234263"/>
      <trkpt lat="51.5263905" lon="7.3233919"/>
      <trkpt lat="51.5264203" lon="7.3233773"/>
      <trkpt lat="51.5266106" lon="7.3232836"/>
      <trkpt lat="51.5266404" lon="7.3232690"/>
      <trkpt lat="51.5267989" lon="7.3231911"/>
      <trkpt lat="51.5270018" lon="7.3230913"/>
      <trkpt lat="51.5270552" lon="7.3230650"/>
      <trkpt lat="51.5270977" lon="7.3230441"/>
      <trkpt lat="51.5271722" lon="7.3230074"/>
      <trkpt lat="51.5273005" lon="7.3229444"/>
      <trkpt lat="51.5273152" lon="7.3229371"/>
      <trkpt lat="51.5273678" lon="7.3229113"/>
      <trkpt lat="51.5275219" lon="7.3228355"/>
      <trkpt lat="51.5276478" lon="7.3227736"/>
      <trkpt lat="51.5277038" lon="7.3227460"/>
      <trkpt lat="51.5280204" lon="7.3225903"/>
      <trkpt lat="51.5280817" lon="7.3225602"/>
      <trkpt lat="51.5284446" lon="7.3223817"/>
      <trkpt lat="51.5285085" lon="7.3223503"/>
      <trkpt lat="51.5285475" lon="7.3223311"/>
      <trkpt lat="51.5286685" lon="7.3222716"/>
      <trkpt lat="51.5287420" lon="7.3222355"/>
      <trkpt lat="51.5287641" lon="7.3222246"/>
      <trkpt lat="51.5288058" lon="7.3222041"/>
      <trkpt lat="51.5288299" lon="7.3221896"/>
      <trkpt lat="51.5290691" lon="7.3220669"/>
      <trkpt lat="51.5291213" lon="7.3220399"/>
      <trkpt lat="51.5293628" lon="7.3219148"/>
      <trkpt lat="51.5297312" lon="7.3217316"/>
      <trkpt lat="51.5297864" lon="7.3217041"/>
      <trkpt lat="51.5301163" lon="7.3215401"/>
      <trkpt lat="51.5304215" lon="7.3213884"/>
      <trkpt lat="51.5306046" lon="7.3212957"/>
      <trkpt lat="51.5308713" lon="7.3211621"/>
      <trkpt lat="51.5310074" lon="7.3210917"/>
      <trkpt lat="51.5310565" lon="7.3210620"/>
      <trkpt lat="51.5313028" lon="7.3209395"/>
      <trkpt lat="51.5317166" lon="7.3207336"/>
      <trkpt lat="51.5317425" lon="7.3207207"/>
      <trkpt lat="51.5318888" lon="7.3206479"/>
      <trkpt lat="51.5321031" lon="7.3205413"/>
      <trkpt lat="51.5325672" lon="7.3203103"/>
      <trkpt lat="51.5327661" lon="7.3202113"/>
      <trkpt lat="51.5330916" lon="7.3200494"/>
      <trkpt lat="51.5336942" lon="7.3197495"/>
      <trkpt lat="51.5339406" lon="7.3196265"/>
      <trkpt lat="51.5344249" lon="7.3193951"/>
      <trkpt lat="51.5347954" lon="7.3192224"/>
      <trkpt lat="51.5350150" lon="7.3191223"/>
      <trkpt lat="51.5351923" lon="7.3190458"/>
      <trkpt lat="51.5353805" lon="7.3189746"/>
      <trkpt lat="51.5354433" lon="7.3189529"/>
      <trkpt lat="51.5355704" lon="7.3189129"/>
      <trkpt lat="51.5358526" lon="7.3188305"/>
      <trkpt lat="51.5361686" lon="7.3187383"/>
      <trkpt lat="51.5365011" lon="7.3186499"/>
      <trkpt lat="51.5365169" lon="7.3186462"/>
      <trkpt lat="51.5365663" lon="7.3186348"/>
      <trkpt lat="51.5368903" lon="7.3185475"/>
      <trkpt lat="51.5370409" lon="7.3185068"/>
      <trkpt lat="51.5375307" lon="7.3183555"/>
      <trkpt lat="51.5378122" lon="7.3182814"/>
      <trkpt lat="51.5379209" lon="7.3182594"/>
      <trkpt lat="51.5386563" lon="7.3180673"/>
      <trkpt lat="51.5388359" lon="7.3180212"/>
      <trkpt lat="51.5388744" lon="7.3180115"/>
      <trkpt lat="51.5389154" lon="7.3180011"/>
      <trkpt lat="51.5389562" lon="7.3179903"/>
      <trkpt lat="51.5391355" lon="7.3179454"/>
      <trkpt lat="51.5393054" lon="7.3179052"/>
      <trkpt lat="51.5395323" lon="7.3178451"/>
      <trkpt lat="51.5396284" lon="7.3178207"/>
      <trkpt lat="51.5401897" lon="7.3176807"/>
      <trkpt lat="51.5407108" lon="7.3175444"/>
      <trkpt lat="51.5411249" lon="7.3174418"/>
      <trkpt lat="51.5413256" lon="7.3173916"/>
      <trkpt lat="51.5415178" lon="7.3173436"/>
      <trkpt lat="51.5418546" lon="7.3172648"/>
      <trkpt lat="51.5420503" lon="7.3172090"/>
      <trkpt lat="51.5422936" lon="7.3171386"/>
      <trkpt lat="51.5424468" lon="7.3170825"/>
      <trkpt lat="51.5425338" lon="7.3170509"/>
      <trkpt lat="51.5426637" lon="7.3169771"/>
      <trkpt lat="51.5429295" lon="7.3168100"/>
      <trkpt lat="51.5430419" lon="7.3167403"/>
      <trkpt lat="51.5431894" lon="7.3166501"/>
      <trkpt lat="51.5432683" lon="7.3165981"/>
      <trkpt lat="51.5433791" lon="7.3165265"/>
      <trkpt lat="51.5436063" lon="7.3163786"/>
      <trkpt lat="51.5437163" lon="7.3163069"/>
      <trkpt lat="51.5439111" lon="7.3161767"/>
      <trkpt lat="51.5440449" lon="7.3160824"/>
      <trkpt lat="51.5441556" lon="7.3160237"/>
      <trkpt lat="51.5442945" lon="7.3159779"/>
      <trkpt lat="51.5443749" lon="7.3159550"/>
      <trkpt lat="51.5445033" lon="7.3159347"/>
      <trkpt lat="51.5447173" lon="7.3159489"/>
      <trkpt lat="51.5448712" lon="7.3159791"/>
      <trkpt lat="51.5449334" lon="7.3159949"/>
      <trkpt lat="51.5450212" lon="7.3157100"/>
      <trkpt lat="51.5450336" lon="7.3156386"/>
      <trkpt lat="51.5450565" lon="7.3155638"/>
      <trkpt lat="51.5450878" lon="7.3154907"/>
      <trkpt lat="51.5451270" lon="7.3154213"/>
      <trkpt lat="51.5451849" lon="7.3153462"/>
      <trkpt lat="51.5453187" lon="7.3152444"/>
      <trkpt lat="51.5459631" lon="7.3148339"/>
      <trkpt lat="51.5461769" lon="7.3146962"/>
      <trkpt lat="51.5463465" lon="7.3145859"/>
      <trkpt lat="51.5466058" lon="7.3144201"/>
      <trkpt lat="51.5467025" lon="7.3143600"/>
      <trkpt lat="51.5467637" lon="7.3143181"/>
      <trkpt lat="51.5469350" lon="7.3141914"/>
      <trkpt lat="51.5471163" lon="7.3140343"/>
      <trkpt lat="51.5474247" lon="7.3137410"/>
      <trkpt lat="51.5475589" lon="7.3135967"/>
      <trkpt lat="51.5478132" lon="7.3133451"/>
      <trkpt lat="51.5480418" lon="7.3130469"/>
      <trkpt lat="51.5480657" lon="7.3130139"/>
      <trkpt lat="51.5481098" lon="7.3129529"/>
      <trkpt lat="51.5481409" lon="7.3129031"/>
      <trkpt lat="51.5482244" lon="7.3127682"/>
      <trkpt lat="51.5483323" lon="7.3126052"/>
      <trkpt lat="51.5484555" lon="7.3124193"/>
      <trkpt lat="51.5485726" lon="7.3122751"/>
      <trkpt lat="51.5486786" lon="7.3121611"/>
      <trkpt lat="51.5487853" lon="7.3120531"/>
      <trkpt lat="51.5488511" lon="7.3119698"/>
      <trkpt lat="51.5490259" lon="7.3117038"/>
      <trkpt lat="51.5491572" lon="7.3114168"/>
      <trkpt lat="51.5493762" lon="7.3108368"/>
      <trkpt lat="51.5494785" lon="7.3105620"/>
      <trkpt lat="51.5495020" lon="7.3105015"/>
      <trkpt lat="51.5495253" lon="7.3104416"/>
      <trkpt lat="51.5496333" lon="7.3101431"/>
      <trkpt lat="51.5496495" lon="7.3101001"/>
      <trkpt lat="51.5497424" lon="7.3098606"/>
      <trkpt lat="51.5498092" lon="7.3096620"/>
      <trkpt lat="51.5498778" lon="7.3094213"/>
      <trkpt lat="51.5499216" lon="7.3092632"/>
      <trkpt lat="51.5500183" lon="7.3088689"/>
      <trkpt lat="51.5500861" lon="7.3085592"/>
      <trkpt lat="51.5501275" lon="7.3082457"/>
      <trkpt lat="51.5501405" lon="7.3081076"/>
      <trkpt lat="51.5501484" lon="7.3079655"/>
      <trkpt lat="51.5501501" lon="7.3078313"/>
      <trkpt lat="51.5501359" lon="7.3076939"/>
      <trkpt lat="51.5501097" lon="7.3075741"/>
      <trkpt lat="51.5500742" lon="7.3074833"/>
      <trkpt lat="51.5500296" lon="7.3074009"/>
      <trkpt lat="51.5500004" lon="7.3073519"/>
      <trkpt lat="51.5499362" lon="7.3072715"/>
      <trkpt lat="51.5498016" lon="7.3071831"/>
      <trkpt lat="51.5496826" lon="7.3071541"/>
      <trkpt lat="51.5495710" lon="7.3071774"/>
      <trkpt lat="51.5494223" lon="7.3072571"/>
      <trkpt lat="51.5493192" lon="7.3073629"/>
      <trkpt lat="51.5492617" lon="7.3074219"/>
      <trkpt lat="51.5489878" lon="7.3078004"/>
      <trkpt lat="51.5489946" lon="7.3079011"/>
      <trkpt lat="51.5490083" lon="7.3079799"/>
      <trkpt lat="51.5490292" lon="7.3080385"/>
      <trkpt lat="51.5490521" lon="7.3080833"/>
      <trkpt lat="51.5492523" lon="7.3084673"/>
      <trkpt lat="51.5494280" lon="7.3087826"/>
      <trkpt lat="51.5496004" lon="7.3090207"/>
    </trkseg>
  </trk>
</gpx>