<?xml version="1.0" encoding="UTF-8"?>
<gpx version="1.1" creator="Linienjagd Castrop-Rauxel" xmlns="http://www.topografix.com/GPX/1/1">
  <metadata><name>Linie 480 – Stadtgebiet Castrop-Rauxel</name><desc>Bus 480: Marten =&gt; Ickern | 14.70 km in Castrop-Rauxel | 33 Haltestellen</desc></metadata>
  <wpt lat="51.5294762" lon="7.3541377"><name>01 Frohlinde Denkmal</name><sym>Flag</sym></wpt>
  <wpt lat="51.5323025" lon="7.3463113"><name>02 Vincennesstraße</name><sym>Flag</sym></wpt>
  <wpt lat="51.5345771" lon="7.3421468"><name>03 Pankok</name><sym>Flag</sym></wpt>
  <wpt lat="51.5407110" lon="7.3355728"><name>04 Schweriner Hellweg</name><sym>Flag</sym></wpt>
  <wpt lat="51.5422945" lon="7.3324399"><name>05 Neuroder Platz</name><sym>Flag</sym></wpt>
  <wpt lat="51.5441656" lon="7.3291776"><name>06 Grimbergstraße</name><sym>Flag</sym></wpt>
  <wpt lat="51.5478446" lon="7.3203304"><name>07 Goldschmieding</name><sym>Flag</sym></wpt>
  <wpt lat="51.5466058" lon="7.3144201"><name>08 Katholisches Krankenhaus</name><sym>Flag</sym></wpt>
  <wpt lat="51.5480418" lon="7.3130469"><name>09 Castrop Markt</name><sym>Flag</sym></wpt>
  <wpt lat="51.5491719" lon="7.3085843"><name>10 Castrop Münsterplatz</name><sym>Flag</sym></wpt>
  <wpt lat="51.5529266" lon="7.3099979"><name>11 Engelsburgplatz</name><sym>Flag</sym></wpt>
  <wpt lat="51.5555167" lon="7.3107807"><name>12 Castrop Betriebshof</name><sym>Flag</sym></wpt>
  <wpt lat="51.5587868" lon="7.3101374"><name>13 Lunastraße</name><sym>Flag</sym></wpt>
  <wpt lat="51.5619025" lon="7.3095542"><name>14 Rosenstraße</name><sym>Flag</sym></wpt>
  <wpt lat="51.5651161" lon="7.3087150"><name>15 Europaplatz</name><sym>Flag</sym></wpt>
  <wpt lat="51.5671126" lon="7.3078032"><name>16 Liebigstraße</name><sym>Flag</sym></wpt>
  <wpt lat="51.5697241" lon="7.3066903"><name>17 Schulstraße</name><sym>Flag</sym></wpt>
  <wpt lat="51.5732835" lon="7.3051883"><name>18 Castrop-Rauxel Hbf</name><sym>Flag</sym></wpt>
  <wpt lat="51.5764474" lon="7.3042046"><name>19 Zeche Victor I/II</name><sym>Flag</sym></wpt>
  <wpt lat="51.5812348" lon="7.3043325"><name>20 Siemensstraße</name><sym>Flag</sym></wpt>
  <wpt lat="51.5837636" lon="7.3076540"><name>21 Habinghorst Schulzentrum</name><sym>Flag</sym></wpt>
  <wpt lat="51.5842169" lon="7.3106307"><name>22 Habinghorster Straße</name><sym>Flag</sym></wpt>
  <wpt lat="51.5850121" lon="7.3147303"><name>23 Hugostraße</name><sym>Flag</sym></wpt>
  <wpt lat="51.5857133" lon="7.3183638"><name>24 Habinghorst Post</name><sym>Flag</sym></wpt>
  <wpt lat="51.5877595" lon="7.3284477"><name>25 Zeche Victor III / IV</name><sym>Flag</sym></wpt>
  <wpt lat="51.5885130" lon="7.3313825"><name>26 Recklinghauser Straße</name><sym>Flag</sym></wpt>
  <wpt lat="51.5902711" lon="7.3358348"><name>27 Heinestraße</name><sym>Flag</sym></wpt>
  <wpt lat="51.5923626" lon="7.3385353"><name>28 Ickern Markt</name><sym>Flag</sym></wpt>
  <wpt lat="51.5952320" lon="7.3437331"><name>29 Uferstraße</name><sym>Flag</sym></wpt>
  <wpt lat="51.5977734" lon="7.3460783"><name>30 Groppenbachstraße</name><sym>Flag</sym></wpt>
  <wpt lat="51.6001324" lon="7.3467540"><name>31 Zechenstraße</name><sym>Flag</sym></wpt>
  <wpt lat="51.5984841" lon="7.3503916"><name>32 Im Stahlskamp</name><sym>Flag</sym></wpt>
  <wpt lat="51.5959615" lon="7.3522507"><name>33 Ickern Nord</name><sym>Flag</sym></wpt>
  <trk><name>Linie 480 – Stadtgebiet Castrop-Rauxel</name>
    <trkseg>
      <trkpt lat="51.5272312" lon="7.3586202"/>
      <trkpt lat="51.5275234" lon="7.3578960"/>
      <trkpt lat="51.5276744" lon="7.3574809"/>
      <trkpt lat="51.5277627" lon="7.3572060"/>
      <trkpt lat="51.5278293" lon="7.3569855"/>
      <trkpt lat="51.5279703" lon="7.3565256"/>
      <trkpt lat="51.5280815" lon="7.3561919"/>
      <trkpt lat="51.5282596" lon="7.3557151"/>
      <trkpt lat="51.5282778" lon="7.3556822"/>
      <trkpt lat="51.5283026" lon="7.3556371"/>
      <trkpt lat="51.5284044" lon="7.3554787"/>
      <trkpt lat="51.5285123" lon="7.3553145"/>
      <trkpt lat="51.5285885" lon="7.3552276"/>
      <trkpt lat="51.5286807" lon="7.3551107"/>
      <trkpt lat="51.5287067" lon="7.3550776"/>
      <trkpt lat="51.5288445" lon="7.3549023"/>
      <trkpt lat="51.5288694" lon="7.3548728"/>
      <trkpt lat="51.5292511" lon="7.3544206"/>
      <trkpt lat="51.5293335" lon="7.3543139"/>
      <trkpt lat="51.5294762" lon="7.3541377"/>
      <trkpt lat="51.5295078" lon="7.3541007"/>
      <trkpt lat="51.5296254" lon="7.3539554"/>
      <trkpt lat="51.5296701" lon="7.3539002"/>
      <trkpt lat="51.5298542" lon="7.3536658"/>
      <trkpt lat="51.5299979" lon="7.3534783"/>
      <trkpt lat="51.5300919" lon="7.3533481"/>
      <trkpt lat="51.5302115" lon="7.3531709"/>
      <trkpt lat="51.5303328" lon="7.3529912"/>
      <trkpt lat="51.5305614" lon="7.3526131"/>
      <trkpt lat="51.5306246" lon="7.3525009"/>
      <trkpt lat="51.5308603" lon="7.3520820"/>
      <trkpt lat="51.5310062" lon="7.3517777"/>
      <trkpt lat="51.5311003" lon="7.3515420"/>
      <trkpt lat="51.5311723" lon="7.3513024"/>
      <trkpt lat="51.5312167" lon="7.3511012"/>
      <trkpt lat="51.5312541" lon="7.3509009"/>
      <trkpt lat="51.5313262" lon="7.3504660"/>
      <trkpt lat="51.5314638" lon="7.3494583"/>
      <trkpt lat="51.5315158" lon="7.3490779"/>
      <trkpt lat="51.5316348" lon="7.3483723"/>
      <trkpt lat="51.5316680" lon="7.3482122"/>
      <trkpt lat="51.5316994" lon="7.3480547"/>
      <trkpt lat="51.5317616" lon="7.3478091"/>
      <trkpt lat="51.5318962" lon="7.3473311"/>
      <trkpt lat="51.5319567" lon="7.3471497"/>
      <trkpt lat="51.5320226" lon="7.3469596"/>
      <trkpt lat="51.5321260" lon="7.3466697"/>
      <trkpt lat="51.5322098" lon="7.3464981"/>
      <trkpt lat="51.5323025" lon="7.3463113"/>
      <trkpt lat="51.5324409" lon="7.3460391"/>
      <trkpt lat="51.5332105" lon="7.3447033"/>
      <trkpt lat="51.5337401" lon="7.3437540"/>
      <trkpt lat="51.5343830" lon="7.3425188"/>
      <trkpt lat="51.5344773" lon="7.3423405"/>
      <trkpt lat="51.5345771" lon="7.3421468"/>
      <trkpt lat="51.5347074" lon="7.3419131"/>
      <trkpt lat="51.5348587" lon="7.3417075"/>
      <trkpt lat="51.5352240" lon="7.3412401"/>
      <trkpt lat="51.5354474" lon="7.3409842"/>
      <trkpt lat="51.5357197" lon="7.3407023"/>
      <trkpt lat="51.5364045" lon="7.3401059"/>
      <trkpt lat="51.5369700" lon="7.3395846"/>
      <trkpt lat="51.5370914" lon="7.3394733"/>
      <trkpt lat="51.5373789" lon="7.3392072"/>
      <trkpt lat="51.5376927" lon="7.3389149"/>
      <trkpt lat="51.5378857" lon="7.3387350"/>
      <trkpt lat="51.5387225" lon="7.3379496"/>
      <trkpt lat="51.5389995" lon="7.3376537"/>
      <trkpt lat="51.5393066" lon="7.3372725"/>
      <trkpt lat="51.5394038" lon="7.3371451"/>
      <trkpt lat="51.5395935" lon="7.3368839"/>
      <trkpt lat="51.5399261" lon="7.3364499"/>
      <trkpt lat="51.5400557" lon="7.3363116"/>
      <trkpt lat="51.5401729" lon="7.3361928"/>
      <trkpt lat="51.5402815" lon="7.3360829"/>
      <trkpt lat="51.5404592" lon="7.3358808"/>
      <trkpt lat="51.5405271" lon="7.3358022"/>
      <trkpt lat="51.5406573" lon="7.3356432"/>
      <trkpt lat="51.5407110" lon="7.3355728"/>
      <trkpt lat="51.5408450" lon="7.3353896"/>
      <trkpt lat="51.5409649" lon="7.3352122"/>
      <trkpt lat="51.5411396" lon="7.3349769"/>
      <trkpt lat="51.5414752" lon="7.3345172"/>
      <trkpt lat="51.5416183" lon="7.3343125"/>
      <trkpt lat="51.5416430" lon="7.3342679"/>
      <trkpt lat="51.5417473" lon="7.3340791"/>
      <trkpt lat="51.5418299" lon="7.3339102"/>
      <trkpt lat="51.5418654" lon="7.3338377"/>
      <trkpt lat="51.5419908" lon="7.3335362"/>
      <trkpt lat="51.5420485" lon="7.3334046"/>
      <trkpt lat="51.5420980" lon="7.3333027"/>
      <trkpt lat="51.5421232" lon="7.3333294"/>
      <trkpt lat="51.5421517" lon="7.3333454"/>
      <trkpt lat="51.5421825" lon="7.3333498"/>
      <trkpt lat="51.5422135" lon="7.3333416"/>
      <trkpt lat="51.5422517" lon="7.3333107"/>
      <trkpt lat="51.5422706" lon="7.3332829"/>
      <trkpt lat="51.5422855" lon="7.3332494"/>
      <trkpt lat="51.5422974" lon="7.3332022"/>
      <trkpt lat="51.5423016" lon="7.3331516"/>
      <trkpt lat="51.5422973" lon="7.3330997"/>
      <trkpt lat="51.5422845" lon="7.3330504"/>
      <trkpt lat="51.5422638" lon="7.3330083"/>
      <trkpt lat="51.5422374" lon="7.3329770"/>
      <trkpt lat="51.5422068" lon="7.3329580"/>
      <trkpt lat="51.5421879" lon="7.3329532"/>
      <trkpt lat="51.5421888" lon="7.3329057"/>
      <trkpt lat="51.5421899" lon="7.3328510"/>
      <trkpt lat="51.5422053" lon="7.3327455"/>
      <trkpt lat="51.5422163" lon="7.3327016"/>
      <trkpt lat="51.5422697" lon="7.3325243"/>
      <trkpt lat="51.5422945" lon="7.3324399"/>
      <trkpt lat="51.5423104" lon="7.3323902"/>
      <trkpt lat="51.5423485" lon="7.3322894"/>
      <trkpt lat="51.5424707" lon="7.3319858"/>
      <trkpt lat="51.5427753" lon="7.3313473"/>
      <trkpt lat="51.5428133" lon="7.3312676"/>
      <trkpt lat="51.5429246" lon="7.3310653"/>
      <trkpt lat="51.5431131" lon="7.3307139"/>
      <trkpt lat="51.5431663" lon="7.3306147"/>
      <trkpt lat="51.5434373" lon="7.3301852"/>
      <trkpt lat="51.5436492" lon="7.3298673"/>
      <trkpt lat="51.5438610" lon="7.3295840"/>
      <trkpt lat="51.5438999" lon="7.3295297"/>
      <trkpt lat="51.5441656" lon="7.3291776"/>
      <trkpt lat="51.5442303" lon="7.3290814"/>
      <trkpt lat="51.5443713" lon="7.3288690"/>
      <trkpt lat="51.5445244" lon="7.3286001"/>
      <trkpt lat="51.5446461" lon="7.3283412"/>
      <trkpt lat="51.5448181" lon="7.3279108"/>
      <trkpt lat="51.5449888" lon="7.3274159"/>
      <trkpt lat="51.5450315" lon="7.3272978"/>
      <trkpt lat="51.5451520" lon="7.3269967"/>
      <trkpt lat="51.5453019" lon="7.3266956"/>
      <trkpt lat="51.5456548" lon="7.3261422"/>
      <trkpt lat="51.5460169" lon="7.3254897"/>
      <trkpt lat="51.5461102" lon="7.3253201"/>
      <trkpt lat="51.5461900" lon="7.3251441"/>
      <trkpt lat="51.5463323" lon="7.3247832"/>
      <trkpt lat="51.5463981" lon="7.3245953"/>
      <trkpt lat="51.5464071" lon="7.3245582"/>
      <trkpt lat="51.5466998" lon="7.3236862"/>
      <trkpt lat="51.5470007" lon="7.3228165"/>
      <trkpt lat="51.5471764" lon="7.3222955"/>
      <trkpt lat="51.5475039" lon="7.3213655"/>
      <trkpt lat="51.5476276" lon="7.3209971"/>
      <trkpt lat="51.5477504" lon="7.3206316"/>
      <trkpt lat="51.5477669" lon="7.3205976"/>
      <trkpt lat="51.5477987" lon="7.3205319"/>
      <trkpt lat="51.5478241" lon="7.3204344"/>
      <trkpt lat="51.5478446" lon="7.3203304"/>
      <trkpt lat="51.5478550" lon="7.3202101"/>
      <trkpt lat="51.5478548" lon="7.3199827"/>
      <trkpt lat="51.5478407" lon="7.3198047"/>
      <trkpt lat="51.5478377" lon="7.3197819"/>
      <trkpt lat="51.5478272" lon="7.3197027"/>
      <trkpt lat="51.5477424" lon="7.3190638"/>
      <trkpt lat="51.5477335" lon="7.3189971"/>
      <trkpt lat="51.5476650" lon="7.3187714"/>
      <trkpt lat="51.5476553" lon="7.3186150"/>
      <trkpt lat="51.5475369" lon="7.3186118"/>
      <trkpt lat="51.5471621" lon="7.3185543"/>
      <trkpt lat="51.5469719" lon="7.3184765"/>
      <trkpt lat="51.5467818" lon="7.3183472"/>
      <trkpt lat="51.5466193" lon="7.3181832"/>
      <trkpt lat="51.5465109" lon="7.3180229"/>
      <trkpt lat="51.5459524" lon="7.3169220"/>
      <trkpt lat="51.5458918" lon="7.3168163"/>
      <trkpt lat="51.5458695" lon="7.3167786"/>
      <trkpt lat="51.5457783" lon="7.3166354"/>
      <trkpt lat="51.5456828" lon="7.3165090"/>
      <trkpt lat="51.5456070" lon="7.3164158"/>
      <trkpt lat="51.5454827" lon="7.3162877"/>
      <trkpt lat="51.5453205" lon="7.3161522"/>
      <trkpt lat="51.5451195" lon="7.3160058"/>
      <trkpt lat="51.5449334" lon="7.3159949"/>
      <trkpt lat="51.5450212" lon="7.3157100"/>
      <trkpt lat="51.5450336" lon="7.3156386"/>
      <trkpt lat="51.5450565" lon="7.3155638"/>
      <trkpt lat="51.5450878" lon="7.3154907"/>
      <trkpt lat="51.5451270" lon="7.3154213"/>
      <trkpt lat="51.5451849" lon="7.3153462"/>
      <trkpt lat="51.5453187" lon="7.3152444"/>
      <trkpt lat="51.5459631" lon="7.3148339"/>
      <trkpt lat="51.5461769" lon="7.3146962"/>
      <trkpt lat="51.5463465" lon="7.3145859"/>
      <trkpt lat="51.5466058" lon="7.3144201"/>
      <trkpt lat="51.5467025" lon="7.3143600"/>
      <trkpt lat="51.5467637" lon="7.3143181"/>
      <trkpt lat="51.5469350" lon="7.3141914"/>
      <trkpt lat="51.5471163" lon="7.3140343"/>
      <trkpt lat="51.5474247" lon="7.3137410"/>
      <trkpt lat="51.5475589" lon="7.3135967"/>
      <trkpt lat="51.5478132" lon="7.3133451"/>
      <trkpt lat="51.5480418" lon="7.3130469"/>
      <trkpt lat="51.5480657" lon="7.3130139"/>
      <trkpt lat="51.5481098" lon="7.3129529"/>
      <trkpt lat="51.5481409" lon="7.3129031"/>
      <trkpt lat="51.5482244" lon="7.3127682"/>
      <trkpt lat="51.5483323" lon="7.3126052"/>
      <trkpt lat="51.5484555" lon="7.3124193"/>
      <trkpt lat="51.5485726" lon="7.3122751"/>
      <trkpt lat="51.5486786" lon="7.3121611"/>
      <trkpt lat="51.5487853" lon="7.3120531"/>
      <trkpt lat="51.5488511" lon="7.3119698"/>
      <trkpt lat="51.5490259" lon="7.3117038"/>
      <trkpt lat="51.5491572" lon="7.3114168"/>
      <trkpt lat="51.5493762" lon="7.3108368"/>
      <trkpt lat="51.5494785" lon="7.3105620"/>
      <trkpt lat="51.5495020" lon="7.3105015"/>
      <trkpt lat="51.5495253" lon="7.3104416"/>
      <trkpt lat="51.5496333" lon="7.3101431"/>
      <trkpt lat="51.5496495" lon="7.3101001"/>
      <trkpt lat="51.5497424" lon="7.3098606"/>
      <trkpt lat="51.5498092" lon="7.3096620"/>
      <trkpt lat="51.5498778" lon="7.3094213"/>
      <trkpt lat="51.5499216" lon="7.3092632"/>
      <trkpt lat="51.5500183" lon="7.3088689"/>
      <trkpt lat="51.5500861" lon="7.3085592"/>
      <trkpt lat="51.5501275" lon="7.3082457"/>
      <trkpt lat="51.5501405" lon="7.3081076"/>
      <trkpt lat="51.5501484" lon="7.3079655"/>
      <trkpt lat="51.5501501" lon="7.3078313"/>
      <trkpt lat="51.5501359" lon="7.3076939"/>
      <trkpt lat="51.5501097" lon="7.3075741"/>
      <trkpt lat="51.5500742" lon="7.3074833"/>
      <trkpt lat="51.5500296" lon="7.3074009"/>
      <trkpt lat="51.5500004" lon="7.3073519"/>
      <trkpt lat="51.5499362" lon="7.3072715"/>
      <trkpt lat="51.5498016" lon="7.3071831"/>
      <trkpt lat="51.5496826" lon="7.3071541"/>
      <trkpt lat="51.5495710" lon="7.3071774"/>
      <trkpt lat="51.5494223" lon="7.3072571"/>
      <trkpt lat="51.5493192" lon="7.3073629"/>
      <trkpt lat="51.5492617" lon="7.3074219"/>
      <trkpt lat="51.5489878" lon="7.3078004"/>
      <trkpt lat="51.5489809" lon="7.3078957"/>
      <trkpt lat="51.5489835" lon="7.3079770"/>
      <trkpt lat="51.5490498" lon="7.3082507"/>
      <trkpt lat="51.5491719" lon="7.3085843"/>
      <trkpt lat="51.5492175" lon="7.3086793"/>
      <trkpt lat="51.5493265" lon="7.3088877"/>
      <trkpt lat="51.5493442" lon="7.3089234"/>
      <trkpt lat="51.5493716" lon="7.3089642"/>
      <trkpt lat="51.5494510" lon="7.3090787"/>
      <trkpt lat="51.5495623" lon="7.3092147"/>
      <trkpt lat="51.5497556" lon="7.3093970"/>
      <trkpt lat="51.5497782" lon="7.3094102"/>
      <trkpt lat="51.5498277" lon="7.3094217"/>
      <trkpt lat="51.5498778" lon="7.3094213"/>
      <trkpt lat="51.5499216" lon="7.3092632"/>
      <trkpt lat="51.5500183" lon="7.3088689"/>
      <trkpt lat="51.5500861" lon="7.3085592"/>
      <trkpt lat="51.5501360" lon="7.3083809"/>
      <trkpt lat="51.5502664" lon="7.3076791"/>
      <trkpt lat="51.5502938" lon="7.3074757"/>
      <trkpt lat="51.5503145" lon="7.3072911"/>
      <trkpt lat="51.5503156" lon="7.3071179"/>
      <trkpt lat="51.5503013" lon="7.3069551"/>
      <trkpt lat="51.5502437" lon="7.3066489"/>
      <trkpt lat="51.5501993" lon="7.3062938"/>
      <trkpt lat="51.5497139" lon="7.3063923"/>
      <trkpt lat="51.5496309" lon="7.3063997"/>
      <trkpt lat="51.5495888" lon="7.3063903"/>
      <trkpt lat="51.5495329" lon="7.3063635"/>
      <trkpt lat="51.5494779" lon="7.3063099"/>
      <trkpt lat="51.5494529" lon="7.3062140"/>
      <trkpt lat="51.5494258" lon="7.3061550"/>
      <trkpt lat="51.5494066" lon="7.3060819"/>
      <trkpt lat="51.5494045" lon="7.3060141"/>
      <trkpt lat="51.5494075" lon="7.3059463"/>
      <trkpt lat="51.5494254" lon="7.3058656"/>
      <trkpt lat="51.5494588" lon="7.3057990"/>
      <trkpt lat="51.5494820" lon="7.3057654"/>
      <trkpt lat="51.5495033" lon="7.3057345"/>
      <trkpt lat="51.5495362" lon="7.3057094"/>
      <trkpt lat="51.5496166" lon="7.3056569"/>
      <trkpt lat="51.5499486" lon="7.3056724"/>
      <trkpt lat="51.5500699" lon="7.3056972"/>
      <trkpt lat="51.5502217" lon="7.3057345"/>
      <trkpt lat="51.5503829" lon="7.3057901"/>
      <trkpt lat="51.5505312" lon="7.3058552"/>
      <trkpt lat="51.5506763" lon="7.3059367"/>
      <trkpt lat="51.5508117" lon="7.3060156"/>
      <trkpt lat="51.5510121" lon="7.3061696"/>
      <trkpt lat="51.5511349" lon="7.3062713"/>
      <trkpt lat="51.5512482" lon="7.3063822"/>
      <trkpt lat="51.5513085" lon="7.3064495"/>
      <trkpt lat="51.5514697" lon="7.3066384"/>
      <trkpt lat="51.5516230" lon="7.3068409"/>
      <trkpt lat="51.5516849" lon="7.3069307"/>
      <trkpt lat="51.5518488" lon="7.3072071"/>
      <trkpt lat="51.5519871" lon="7.3074704"/>
      <trkpt lat="51.5520461" lon="7.3076064"/>
      <trkpt lat="51.5520625" lon="7.3076441"/>
      <trkpt lat="51.5521158" lon="7.3077671"/>
      <trkpt lat="51.5521341" lon="7.3078194"/>
      <trkpt lat="51.5521753" lon="7.3079337"/>
      <trkpt lat="51.5522482" lon="7.3081373"/>
      <trkpt lat="51.5523826" lon="7.3085740"/>
      <trkpt lat="51.5524413" lon="7.3087609"/>
      <trkpt lat="51.5526063" lon="7.3092965"/>
      <trkpt lat="51.5526540" lon="7.3094353"/>
      <trkpt lat="51.5527360" lon="7.3096338"/>
      <trkpt lat="51.5528423" lon="7.3098517"/>
      <trkpt lat="51.5529266" lon="7.3099979"/>
      <trkpt lat="51.5529995" lon="7.3101106"/>
      <trkpt lat="51.5530767" lon="7.3102219"/>
      <trkpt lat="51.5532043" lon="7.3103754"/>
      <trkpt lat="51.5533126" lon="7.3104918"/>
      <trkpt lat="51.5534970" lon="7.3106470"/>
      <trkpt lat="51.5535691" lon="7.3107024"/>
      <trkpt lat="51.5536476" lon="7.3107587"/>
      <trkpt lat="51.5536854" lon="7.3107841"/>
      <trkpt lat="51.5538027" lon="7.3108562"/>
      <trkpt lat="51.5539429" lon="7.3109379"/>
      <trkpt lat="51.5540631" lon="7.3109950"/>
      <trkpt lat="51.5541782" lon="7.3110306"/>
      <trkpt lat="51.5543012" lon="7.3110500"/>
      <trkpt lat="51.5544092" lon="7.3110513"/>
      <trkpt lat="51.5545274" lon="7.3110403"/>
      <trkpt lat="51.5546334" lon="7.3110156"/>
      <trkpt lat="51.5547079" lon="7.3109980"/>
      <trkpt lat="51.5548025" lon="7.3109759"/>
      <trkpt lat="51.5548787" lon="7.3109581"/>
      <trkpt lat="51.5549339" lon="7.3109009"/>
      <trkpt lat="51.5549884" lon="7.3108899"/>
      <trkpt lat="51.5550635" lon="7.3108746"/>
      <trkpt lat="51.5552056" lon="7.3108460"/>
      <trkpt lat="51.5552761" lon="7.3108314"/>
      <trkpt lat="51.5555167" lon="7.3107807"/>
      <trkpt lat="51.5555824" lon="7.3107691"/>
      <trkpt lat="51.5557517" lon="7.3107347"/>
      <trkpt lat="51.5559932" lon="7.3106857"/>
      <trkpt lat="51.5560681" lon="7.3106704"/>
      <trkpt lat="51.5563656" lon="7.3106100"/>
      <trkpt lat="51.5565228" lon="7.3105780"/>
      <trkpt lat="51.5570697" lon="7.3104669"/>
      <trkpt lat="51.5571427" lon="7.3104521"/>
      <trkpt lat="51.5572382" lon="7.3104326"/>
      <trkpt lat="51.5575950" lon="7.3103385"/>
      <trkpt lat="51.5576857" lon="7.3103748"/>
      <trkpt lat="51.5577970" lon="7.3103549"/>
      <trkpt lat="51.5579966" lon="7.3103292"/>
      <trkpt lat="51.5580733" lon="7.3103208"/>
      <trkpt lat="51.5581916" lon="7.3103022"/>
      <trkpt lat="51.5583036" lon="7.3102789"/>
      <trkpt lat="51.5583936" lon="7.3102574"/>
      <trkpt lat="51.5584694" lon="7.3101947"/>
      <trkpt lat="51.5584745" lon="7.3101940"/>
      <trkpt lat="51.5587610" lon="7.3101419"/>
      <trkpt lat="51.5587868" lon="7.3101374"/>
      <trkpt lat="51.5589829" lon="7.3100981"/>
      <trkpt lat="51.5590879" lon="7.3100751"/>
      <trkpt lat="51.5594332" lon="7.3100194"/>
      <trkpt lat="51.5596382" lon="7.3099762"/>
      <trkpt lat="51.5597843" lon="7.3099432"/>
      <trkpt lat="51.5601405" lon="7.3098546"/>
      <trkpt lat="51.5602141" lon="7.3098423"/>
      <trkpt lat="51.5603541" lon="7.3098083"/>
      <trkpt lat="51.5604044" lon="7.3098006"/>
      <trkpt lat="51.5604392" lon="7.3097952"/>
      <trkpt lat="51.5604623" lon="7.3097914"/>
      <trkpt lat="51.5609859" lon="7.3097072"/>
      <trkpt lat="51.5611503" lon="7.3096806"/>
      <trkpt lat="51.5611662" lon="7.3096781"/>
      <trkpt lat="51.5612500" lon="7.3096662"/>
      <trkpt lat="51.5613670" lon="7.3096467"/>
      <trkpt lat="51.5615170" lon="7.3096218"/>
      <trkpt lat="51.5616218" lon="7.3096019"/>
      <trkpt lat="51.5616577" lon="7.3095941"/>
      <trkpt lat="51.5619025" lon="7.3095542"/>
      <trkpt lat="51.5620238" lon="7.3095325"/>
      <trkpt lat="51.5621916" lon="7.3094929"/>
      <trkpt lat="51.5623302" lon="7.3094669"/>
      <trkpt lat="51.5624119" lon="7.3094508"/>
      <trkpt lat="51.5624469" lon="7.3094439"/>
      <trkpt lat="51.5626236" lon="7.3094166"/>
      <trkpt lat="51.5632865" lon="7.3092742"/>
      <trkpt lat="51.5636350" lon="7.3092051"/>
      <trkpt lat="51.5638528" lon="7.3092448"/>
      <trkpt lat="51.5639097" lon="7.3092597"/>
      <trkpt lat="51.5639435" lon="7.3092797"/>
      <trkpt lat="51.5639311" lon="7.3091874"/>
      <trkpt lat="51.5639342" lon="7.3092346"/>
      <trkpt lat="51.5639435" lon="7.3092797"/>
      <trkpt lat="51.5639653" lon="7.3093337"/>
      <trkpt lat="51.5639958" lon="7.3093754"/>
      <trkpt lat="51.5640325" lon="7.3094010"/>
      <trkpt lat="51.5640782" lon="7.3094081"/>
      <trkpt lat="51.5641228" lon="7.3093904"/>
      <trkpt lat="51.5641550" lon="7.3093589"/>
      <trkpt lat="51.5641806" lon="7.3093145"/>
      <trkpt lat="51.5641977" lon="7.3092607"/>
      <trkpt lat="51.5642051" lon="7.3092013"/>
      <trkpt lat="51.5642003" lon="7.3091289"/>
      <trkpt lat="51.5641811" lon="7.3090629"/>
      <trkpt lat="51.5641509" lon="7.3090122"/>
      <trkpt lat="51.5641123" lon="7.3089793"/>
      <trkpt lat="51.5641007" lon="7.3089761"/>
      <trkpt lat="51.5640693" lon="7.3089676"/>
      <trkpt lat="51.5640261" lon="7.3089782"/>
      <trkpt lat="51.5639873" lon="7.3090101"/>
      <trkpt lat="51.5639622" lon="7.3090482"/>
      <trkpt lat="51.5639439" lon="7.3090952"/>
      <trkpt lat="51.5639344" lon="7.3091402"/>
      <trkpt lat="51.5639311" lon="7.3091874"/>
      <trkpt lat="51.5642051" lon="7.3092013"/>
      <trkpt lat="51.5642829" lon="7.3091595"/>
      <trkpt lat="51.5647436" lon="7.3089160"/>
      <trkpt lat="51.5651161" lon="7.3087150"/>
      <trkpt lat="51.5653063" lon="7.3086223"/>
      <trkpt lat="51.5653804" lon="7.3085858"/>
      <trkpt lat="51.5653916" lon="7.3086132"/>
      <trkpt lat="51.5654053" lon="7.3086374"/>
      <trkpt lat="51.5654212" lon="7.3086578"/>
      <trkpt lat="51.5654389" lon="7.3086740"/>
      <trkpt lat="51.5654580" lon="7.3086856"/>
      <trkpt lat="51.5654767" lon="7.3086920"/>
      <trkpt lat="51.5654957" lon="7.3086939"/>
      <trkpt lat="51.5655148" lon="7.3086913"/>
      <trkpt lat="51.5655333" lon="7.3086843"/>
      <trkpt lat="51.5655511" lon="7.3086729"/>
      <trkpt lat="51.5655676" lon="7.3086575"/>
      <trkpt lat="51.5655891" lon="7.3086279"/>
      <trkpt lat="51.5656062" lon="7.3085915"/>
      <trkpt lat="51.5656179" lon="7.3085499"/>
      <trkpt lat="51.5656542" lon="7.3084754"/>
      <trkpt lat="51.5656965" lon="7.3084387"/>
      <trkpt lat="51.5657369" lon="7.3084036"/>
      <trkpt lat="51.5658225" lon="7.3083230"/>
      <trkpt lat="51.5659747" lon="7.3082624"/>
      <trkpt lat="51.5660662" lon="7.3082238"/>
      <trkpt lat="51.5662034" lon="7.3081660"/>
      <trkpt lat="51.5663393" lon="7.3081088"/>
      <trkpt lat="51.5664245" lon="7.3080729"/>
      <trkpt lat="51.5665268" lon="7.3080434"/>
      <trkpt lat="51.5665456" lon="7.3080392"/>
      <trkpt lat="51.5665969" lon="7.3080189"/>
      <trkpt lat="51.5666572" lon="7.3079967"/>
      <trkpt lat="51.5667992" lon="7.3079364"/>
      <trkpt lat="51.5668826" lon="7.3079009"/>
      <trkpt lat="51.5669581" lon="7.3078688"/>
      <trkpt lat="51.5671126" lon="7.3078032"/>
      <trkpt lat="51.5672115" lon="7.3077611"/>
      <trkpt lat="51.5674096" lon="7.3076758"/>
      <trkpt lat="51.5674637" lon="7.3076515"/>
      <trkpt lat="51.5677509" lon="7.3075225"/>
      <trkpt lat="51.5680526" lon="7.3073996"/>
      <trkpt lat="51.5681115" lon="7.3073758"/>
      <trkpt lat="51.5682005" lon="7.3073398"/>
      <trkpt lat="51.5683483" lon="7.3072828"/>
      <trkpt lat="51.5683960" lon="7.3072613"/>
      <trkpt lat="51.5685333" lon="7.3071993"/>
      <trkpt lat="51.5687465" lon="7.3071041"/>
      <trkpt lat="51.5690207" lon="7.3070186"/>
      <trkpt lat="51.5694124" lon="7.3068488"/>
      <trkpt lat="51.5695481" lon="7.3067690"/>
      <trkpt lat="51.5697241" lon="7.3066903"/>
      <trkpt lat="51.5699860" lon="7.3065922"/>
      <trkpt lat="51.5701979" lon="7.3065188"/>
      <trkpt lat="51.5702850" lon="7.3064871"/>
      <trkpt lat="51.5708025" lon="7.3062555"/>
      <trkpt lat="51.5709051" lon="7.3062107"/>
      <trkpt lat="51.5710234" lon="7.3061600"/>
      <trkpt lat="51.5711378" lon="7.3061087"/>
      <trkpt lat="51.5711689" lon="7.3060962"/>
      <trkpt lat="51.5717040" lon="7.3058438"/>
      <trkpt lat="51.5718536" lon="7.3057848"/>
      <trkpt lat="51.5721570" lon="7.3056570"/>
      <trkpt lat="51.5723227" lon="7.3055940"/>
      <trkpt lat="51.5727986" lon="7.3054100"/>
      <trkpt lat="51.5729972" lon="7.3053114"/>
      <trkpt lat="51.5732835" lon="7.3051883"/>
      <trkpt lat="51.5732939" lon="7.3051840"/>
      <trkpt lat="51.5733208" lon="7.3051722"/>
      <trkpt lat="51.5734124" lon="7.3051323"/>
      <trkpt lat="51.5735423" lon="7.3050928"/>
      <trkpt lat="51.5736126" lon="7.3050586"/>
      <trkpt lat="51.5738406" lon="7.3049592"/>
      <trkpt lat="51.5742710" lon="7.3047703"/>
      <trkpt lat="51.5745293" lon="7.3046667"/>
      <trkpt lat="51.5746749" lon="7.3045971"/>
      <trkpt lat="51.5750021" lon="7.3044486"/>
      <trkpt lat="51.5752130" lon="7.3043654"/>
      <trkpt lat="51.5753632" lon="7.3043100"/>
      <trkpt lat="51.5754871" lon="7.3042766"/>
      <trkpt lat="51.5755286" lon="7.3042644"/>
      <trkpt lat="51.5755671" lon="7.3042530"/>
      <trkpt lat="51.5756693" lon="7.3042392"/>
      <trkpt lat="51.5757616" lon="7.3042317"/>
      <trkpt lat="51.5757666" lon="7.3042785"/>
      <trkpt lat="51.5757785" lon="7.3043219"/>
      <trkpt lat="51.5757964" lon="7.3043595"/>
      <trkpt lat="51.5758194" lon="7.3043890"/>
      <trkpt lat="51.5758462" lon="7.3044089"/>
      <trkpt lat="51.5758751" lon="7.3044179"/>
      <trkpt lat="51.5759045" lon="7.3044154"/>
      <trkpt lat="51.5759292" lon="7.3044041"/>
      <trkpt lat="51.5759519" lon="7.3043847"/>
      <trkpt lat="51.5759716" lon="7.3043581"/>
      <trkpt lat="51.5759873" lon="7.3043255"/>
      <trkpt lat="51.5759985" lon="7.3042883"/>
      <trkpt lat="51.5760046" lon="7.3042482"/>
      <trkpt lat="51.5760053" lon="7.3042068"/>
      <trkpt lat="51.5759963" lon="7.3041462"/>
      <trkpt lat="51.5759758" lon="7.3040931"/>
      <trkpt lat="51.5759461" lon="7.3040530"/>
      <trkpt lat="51.5759100" lon="7.3040300"/>
      <trkpt lat="51.5758877" lon="7.3040255"/>
      <trkpt lat="51.5758654" lon="7.3040276"/>
      <trkpt lat="51.5758436" lon="7.3040362"/>
      <trkpt lat="51.5758232" lon="7.3040511"/>
      <trkpt lat="51.5758048" lon="7.3040718"/>
      <trkpt lat="51.5757890" lon="7.3040975"/>
      <trkpt lat="51.5757765" lon="7.3041274"/>
      <trkpt lat="51.5757676" lon="7.3041605"/>
      <trkpt lat="51.5757626" lon="7.3041957"/>
      <trkpt lat="51.5757616" lon="7.3042317"/>
      <trkpt lat="51.5760053" lon="7.3042068"/>
      <trkpt lat="51.5760920" lon="7.3042074"/>
      <trkpt lat="51.5764474" lon="7.3042046"/>
      <trkpt lat="51.5765074" lon="7.3042084"/>
      <trkpt lat="51.5766069" lon="7.3042233"/>
      <trkpt lat="51.5767178" lon="7.3042392"/>
      <trkpt lat="51.5768299" lon="7.3042464"/>
      <trkpt lat="51.5769763" lon="7.3042489"/>
      <trkpt lat="51.5771947" lon="7.3042479"/>
      <trkpt lat="51.5774093" lon="7.3042445"/>
      <trkpt lat="51.5774764" lon="7.3042427"/>
      <trkpt lat="51.5778798" lon="7.3042330"/>
      <trkpt lat="51.5783454" lon="7.3042559"/>
      <trkpt lat="51.5784641" lon="7.3042648"/>
      <trkpt lat="51.5785218" lon="7.3042654"/>
      <trkpt lat="51.5785786" lon="7.3042629"/>
      <trkpt lat="51.5786146" lon="7.3042616"/>
      <trkpt lat="51.5788166" lon="7.3042658"/>
      <trkpt lat="51.5789128" lon="7.3042721"/>
      <trkpt lat="51.5791132" lon="7.3042838"/>
      <trkpt lat="51.5791975" lon="7.3042995"/>
      <trkpt lat="51.5792954" lon="7.3043177"/>
      <trkpt lat="51.5793664" lon="7.3043426"/>
      <trkpt lat="51.5796414" lon="7.3043567"/>
      <trkpt lat="51.5796329" lon="7.3043009"/>
      <trkpt lat="51.5796159" lon="7.3042504"/>
      <trkpt lat="51.5795914" lon="7.3042085"/>
      <trkpt lat="51.5795611" lon="7.3041780"/>
      <trkpt lat="51.5795270" lon="7.3041610"/>
      <trkpt lat="51.5794913" lon="7.3041586"/>
      <trkpt lat="51.5794616" lon="7.3041681"/>
      <trkpt lat="51.5794339" lon="7.3041877"/>
      <trkpt lat="51.5794094" lon="7.3042165"/>
      <trkpt lat="51.5793895" lon="7.3042531"/>
      <trkpt lat="51.5793749" lon="7.3042958"/>
      <trkpt lat="51.5793664" lon="7.3043426"/>
      <trkpt lat="51.5793647" lon="7.3043987"/>
      <trkpt lat="51.5793718" lon="7.3044538"/>
      <trkpt lat="51.5793872" lon="7.3045043"/>
      <trkpt lat="51.5794099" lon="7.3045470"/>
      <trkpt lat="51.5794385" lon="7.3045792"/>
      <trkpt lat="51.5794712" lon="7.3045990"/>
      <trkpt lat="51.5795059" lon="7.3046050"/>
      <trkpt lat="51.5795405" lon="7.3045969"/>
      <trkpt lat="51.5795706" lon="7.3045770"/>
      <trkpt lat="51.5795971" lon="7.3045464"/>
      <trkpt lat="51.5796184" lon="7.3045067"/>
      <trkpt lat="51.5796334" lon="7.3044601"/>
      <trkpt lat="51.5796412" lon="7.3044092"/>
      <trkpt lat="51.5796414" lon="7.3043567"/>
      <trkpt lat="51.5797143" lon="7.3043426"/>
      <trkpt lat="51.5798664" lon="7.3043134"/>
      <trkpt lat="51.5801577" lon="7.3042978"/>
      <trkpt lat="51.5803058" lon="7.3043042"/>
      <trkpt lat="51.5804425" lon="7.3043108"/>
      <trkpt lat="51.5806338" lon="7.3043184"/>
      <trkpt lat="51.5809221" lon="7.3043309"/>
      <trkpt lat="51.5812348" lon="7.3043325"/>
      <trkpt lat="51.5815419" lon="7.3043448"/>
      <trkpt lat="51.5817505" lon="7.3043522"/>
      <trkpt lat="51.5820051" lon="7.3043512"/>
      <trkpt lat="51.5822231" lon="7.3043623"/>
      <trkpt lat="51.5825266" lon="7.3043688"/>
      <trkpt lat="51.5827526" lon="7.3043805"/>
      <trkpt lat="51.5831416" lon="7.3043958"/>
      <trkpt lat="51.5831781" lon="7.3043972"/>
      <trkpt lat="51.5833140" lon="7.3044043"/>
      <trkpt lat="51.5833258" lon="7.3045970"/>
      <trkpt lat="51.5833483" lon="7.3047468"/>
      <trkpt lat="51.5833899" lon="7.3049768"/>
      <trkpt lat="51.5834389" lon="7.3051088"/>
      <trkpt lat="51.5834529" lon="7.3053475"/>
      <trkpt lat="51.5834664" lon="7.3054864"/>
      <trkpt lat="51.5835064" lon="7.3057936"/>
      <trkpt lat="51.5835538" lon="7.3061368"/>
      <trkpt lat="51.5836001" lon="7.3064723"/>
      <trkpt lat="51.5836310" lon="7.3066964"/>
      <trkpt lat="51.5837231" lon="7.3073632"/>
      <trkpt lat="51.5837636" lon="7.3076540"/>
      <trkpt lat="51.5837833" lon="7.3077999"/>
      <trkpt lat="51.5838188" lon="7.3080525"/>
      <trkpt lat="51.5838788" lon="7.3084868"/>
      <trkpt lat="51.5839355" lon="7.3089021"/>
      <trkpt lat="51.5840304" lon="7.3095899"/>
      <trkpt lat="51.5840435" lon="7.3096733"/>
      <trkpt lat="51.5840917" lon="7.3099807"/>
      <trkpt lat="51.5841217" lon="7.3101500"/>
      <trkpt lat="51.5841273" lon="7.3101813"/>
      <trkpt lat="51.5841715" lon="7.3104051"/>
      <trkpt lat="51.5842169" lon="7.3106307"/>
      <trkpt lat="51.5844881" lon="7.3119895"/>
      <trkpt lat="51.5848110" lon="7.3136636"/>
      <trkpt lat="51.5849659" lon="7.3144837"/>
      <trkpt lat="51.5850121" lon="7.3147303"/>
      <trkpt lat="51.5850945" lon="7.3151452"/>
      <trkpt lat="51.5853018" lon="7.3161438"/>
      <trkpt lat="51.5855732" lon="7.3176170"/>
      <trkpt lat="51.5856667" lon="7.3181136"/>
      <trkpt lat="51.5857133" lon="7.3183638"/>
      <trkpt lat="51.5857283" lon="7.3184533"/>
      <trkpt lat="51.5857461" lon="7.3185795"/>
      <trkpt lat="51.5857528" lon="7.3186678"/>
      <trkpt lat="51.5857665" lon="7.3187358"/>
      <trkpt lat="51.5863972" lon="7.3219208"/>
      <trkpt lat="51.5864096" lon="7.3219834"/>
      <trkpt lat="51.5864415" lon="7.3220745"/>
      <trkpt lat="51.5865269" lon="7.3222186"/>
      <trkpt lat="51.5865075" lon="7.3223376"/>
      <trkpt lat="51.5865035" lon="7.3224369"/>
      <trkpt lat="51.5865022" lon="7.3224912"/>
      <trkpt lat="51.5865110" lon="7.3225713"/>
      <trkpt lat="51.5865788" lon="7.3229205"/>
      <trkpt lat="51.5867090" lon="7.3235838"/>
      <trkpt lat="51.5869765" lon="7.3250115"/>
      <trkpt lat="51.5870474" lon="7.3253762"/>
      <trkpt lat="51.5871526" lon="7.3258764"/>
      <trkpt lat="51.5874159" lon="7.3269945"/>
      <trkpt lat="51.5874793" lon="7.3272551"/>
      <trkpt lat="51.5875352" lon="7.3275005"/>
      <trkpt lat="51.5875947" lon="7.3277454"/>
      <trkpt lat="51.5876719" lon="7.3280676"/>
      <trkpt lat="51.5876976" lon="7.3281836"/>
      <trkpt lat="51.5877595" lon="7.3284477"/>
      <trkpt lat="51.5877728" lon="7.3285056"/>
      <trkpt lat="51.5878299" lon="7.3287773"/>
      <trkpt lat="51.5878638" lon="7.3289189"/>
      <trkpt lat="51.5879934" lon="7.3294463"/>
      <trkpt lat="51.5880924" lon="7.3298416"/>
      <trkpt lat="51.5881171" lon="7.3299365"/>
      <trkpt lat="51.5883854" lon="7.3309667"/>
      <trkpt lat="51.5884732" lon="7.3312572"/>
      <trkpt lat="51.5885130" lon="7.3313825"/>
      <trkpt lat="51.5886018" lon="7.3316263"/>
      <trkpt lat="51.5886307" lon="7.3316950"/>
      <trkpt lat="51.5885976" lon="7.3317395"/>
      <trkpt lat="51.5885742" lon="7.3317979"/>
      <trkpt lat="51.5885628" lon="7.3318650"/>
      <trkpt lat="51.5885636" lon="7.3318995"/>
      <trkpt lat="51.5885644" lon="7.3319344"/>
      <trkpt lat="51.5885789" lon="7.3319999"/>
      <trkpt lat="51.5886049" lon="7.3320554"/>
      <trkpt lat="51.5886401" lon="7.3320958"/>
      <trkpt lat="51.5886811" lon="7.3321174"/>
      <trkpt lat="51.5887101" lon="7.3321202"/>
      <trkpt lat="51.5887389" lon="7.3321135"/>
      <trkpt lat="51.5887803" lon="7.3320849"/>
      <trkpt lat="51.5888142" lon="7.3320369"/>
      <trkpt lat="51.5888349" lon="7.3319823"/>
      <trkpt lat="51.5888455" lon="7.3319206"/>
      <trkpt lat="51.5888450" lon="7.3318566"/>
      <trkpt lat="51.5888336" lon="7.3317953"/>
      <trkpt lat="51.5888124" lon="7.3317422"/>
      <trkpt lat="51.5887831" lon="7.3317004"/>
      <trkpt lat="51.5887478" lon="7.3316730"/>
      <trkpt lat="51.5887080" lon="7.3316622"/>
      <trkpt lat="51.5886679" lon="7.3316697"/>
      <trkpt lat="51.5886307" lon="7.3316950"/>
      <trkpt lat="51.5885976" lon="7.3317395"/>
      <trkpt lat="51.5886811" lon="7.3321174"/>
      <trkpt lat="51.5886713" lon="7.3322331"/>
      <trkpt lat="51.5886356" lon="7.3324631"/>
      <trkpt lat="51.5885726" lon="7.3326738"/>
      <trkpt lat="51.5884067" lon="7.3331423"/>
      <trkpt lat="51.5883092" lon="7.3334379"/>
      <trkpt lat="51.5882740" lon="7.3335878"/>
      <trkpt lat="51.5882548" lon="7.3337531"/>
      <trkpt lat="51.5882586" lon="7.3338589"/>
      <trkpt lat="51.5882664" lon="7.3339393"/>
      <trkpt lat="51.5883274" lon="7.3341166"/>
      <trkpt lat="51.5884168" lon="7.3342943"/>
      <trkpt lat="51.5884618" lon="7.3343593"/>
      <trkpt lat="51.5885953" lon="7.3344937"/>
      <trkpt lat="51.5886778" lon="7.3345709"/>
      <trkpt lat="51.5888795" lon="7.3347342"/>
      <trkpt lat="51.5890573" lon="7.3348692"/>
      <trkpt lat="51.5898654" lon="7.3355332"/>
      <trkpt lat="51.5900615" lon="7.3356981"/>
      <trkpt lat="51.5901836" lon="7.3357853"/>
      <trkpt lat="51.5902711" lon="7.3358348"/>
      <trkpt lat="51.5904568" lon="7.3359229"/>
      <trkpt lat="51.5905768" lon="7.3359685"/>
      <trkpt lat="51.5909212" lon="7.3361252"/>
      <trkpt lat="51.5910264" lon="7.3362059"/>
      <trkpt lat="51.5910666" lon="7.3362483"/>
      <trkpt lat="51.5911256" lon="7.3363249"/>
      <trkpt lat="51.5911752" lon="7.3364465"/>
      <trkpt lat="51.5912628" lon="7.3366866"/>
      <trkpt lat="51.5914173" lon="7.3371575"/>
      <trkpt lat="51.5916029" lon="7.3375092"/>
      <trkpt lat="51.5918826" lon="7.3378964"/>
      <trkpt lat="51.5921673" lon="7.3382670"/>
      <trkpt lat="51.5921927" lon="7.3383003"/>
      <trkpt lat="51.5923626" lon="7.3385353"/>
      <trkpt lat="51.5924528" lon="7.3386596"/>
      <trkpt lat="51.5926407" lon="7.3389072"/>
      <trkpt lat="51.5926738" lon="7.3389543"/>
      <trkpt lat="51.5930207" lon="7.3394283"/>
      <trkpt lat="51.5932082" lon="7.3396845"/>
      <trkpt lat="51.5934759" lon="7.3400597"/>
      <trkpt lat="51.5935396" lon="7.3401432"/>
      <trkpt lat="51.5936943" lon="7.3403662"/>
      <trkpt lat="51.5937119" lon="7.3403915"/>
      <trkpt lat="51.5938011" lon="7.3405220"/>
      <trkpt lat="51.5939955" lon="7.3407904"/>
      <trkpt lat="51.5940863" lon="7.3409177"/>
      <trkpt lat="51.5942610" lon="7.3411402"/>
      <trkpt lat="51.5944312" lon="7.3413857"/>
      <trkpt lat="51.5945542" lon="7.3415507"/>
      <trkpt lat="51.5948935" lon="7.3420058"/>
      <trkpt lat="51.5950467" lon="7.3422236"/>
      <trkpt lat="51.5951299" lon="7.3423420"/>
      <trkpt lat="51.5951478" lon="7.3423674"/>
      <trkpt lat="51.5952282" lon="7.3424965"/>
      <trkpt lat="51.5953096" lon="7.3426894"/>
      <trkpt lat="51.5953219" lon="7.3427911"/>
      <trkpt lat="51.5953366" lon="7.3430018"/>
      <trkpt lat="51.5953238" lon="7.3430943"/>
      <trkpt lat="51.5952916" lon="7.3433268"/>
      <trkpt lat="51.5952602" lon="7.3435538"/>
      <trkpt lat="51.5952320" lon="7.3437331"/>
      <trkpt lat="51.5952066" lon="7.3439043"/>
      <trkpt lat="51.5951108" lon="7.3443569"/>
      <trkpt lat="51.5950142" lon="7.3447361"/>
      <trkpt lat="51.5948989" lon="7.3451216"/>
      <trkpt lat="51.5949462" lon="7.3451704"/>
      <trkpt lat="51.5949704" lon="7.3451953"/>
      <trkpt lat="51.5950034" lon="7.3452294"/>
      <trkpt lat="51.5951065" lon="7.3453357"/>
      <trkpt lat="51.5954301" lon="7.3455489"/>
      <trkpt lat="51.5956647" lon="7.3456319"/>
      <trkpt lat="51.5959042" lon="7.3456511"/>
      <trkpt lat="51.5962907" lon="7.3455715"/>
      <trkpt lat="51.5967699" lon="7.3456454"/>
      <trkpt lat="51.5970514" lon="7.3457630"/>
      <trkpt lat="51.5974335" lon="7.3459335"/>
      <trkpt lat="51.5976385" lon="7.3460300"/>
      <trkpt lat="51.5977023" lon="7.3460549"/>
      <trkpt lat="51.5977734" lon="7.3460783"/>
      <trkpt lat="51.5978234" lon="7.3460931"/>
      <trkpt lat="51.5979441" lon="7.3461041"/>
      <trkpt lat="51.5980088" lon="7.3460848"/>
      <trkpt lat="51.5982053" lon="7.3461539"/>
      <trkpt lat="51.5984548" lon="7.3462431"/>
      <trkpt lat="51.5986184" lon="7.3463287"/>
      <trkpt lat="51.5987684" lon="7.3463828"/>
      <trkpt lat="51.5989860" lon="7.3464234"/>
      <trkpt lat="51.5991363" lon="7.3463966"/>
      <trkpt lat="51.5993809" lon="7.3463612"/>
      <trkpt lat="51.5996834" lon="7.3462720"/>
      <trkpt lat="51.5997870" lon="7.3462912"/>
      <trkpt lat="51.6002567" lon="7.3461367"/>
      <trkpt lat="51.6002151" lon="7.3463854"/>
      <trkpt lat="51.6001324" lon="7.3467540"/>
      <trkpt lat="51.6000176" lon="7.3471968"/>
      <trkpt lat="51.5998944" lon="7.3475642"/>
      <trkpt lat="51.5997557" lon="7.3479179"/>
      <trkpt lat="51.5995850" lon="7.3482830"/>
      <trkpt lat="51.5993302" lon="7.3487065"/>
      <trkpt lat="51.5989818" lon="7.3494581"/>
      <trkpt lat="51.5987010" lon="7.3499961"/>
      <trkpt lat="51.5986450" lon="7.3500978"/>
      <trkpt lat="51.5985911" lon="7.3502063"/>
      <trkpt lat="51.5984841" lon="7.3503916"/>
      <trkpt lat="51.5981407" lon="7.3509431"/>
      <trkpt lat="51.5974551" lon="7.3519087"/>
      <trkpt lat="51.5968622" lon="7.3526695"/>
      <trkpt lat="51.5965752" lon="7.3530377"/>
      <trkpt lat="51.5964972" lon="7.3531378"/>
      <trkpt lat="51.5963974" lon="7.3530016"/>
      <trkpt lat="51.5963039" lon="7.3528405"/>
      <trkpt lat="51.5959615" lon="7.3522507"/>
    </trkseg>
  </trk>
</gpx>