<?xml version="1.0" encoding="UTF-8"?>
<gpx version="1.1" creator="Linienjagd Castrop-Rauxel" xmlns="http://www.topografix.com/GPX/1/1">
  <metadata><name>Linie 482 – Stadtgebiet Castrop-Rauxel</name><desc>Bus 482: Mengede =&gt; Schwerin | 15.23 km in Castrop-Rauxel | 38 Haltestellen</desc></metadata>
  <wpt lat="51.5824098" lon="7.3482250"><name>01 Castrop Stadtgrenze</name><sym>Flag</sym></wpt>
  <wpt lat="51.5845403" lon="7.3441670"><name>02 Lerchenstraße</name><sym>Flag</sym></wpt>
  <wpt lat="51.5861106" lon="7.3434712"><name>03 Amselstraße</name><sym>Flag</sym></wpt>
  <wpt lat="51.5892066" lon="7.3443382"><name>04 Friedrichstraße</name><sym>Flag</sym></wpt>
  <wpt lat="51.5919502" lon="7.3431092"><name>05 Vinckeplatz</name><sym>Flag</sym></wpt>
  <wpt lat="51.5921927" lon="7.3383003"><name>06 Ickern Markt</name><sym>Flag</sym></wpt>
  <wpt lat="51.5911752" lon="7.3351543"><name>07 Heinestraße</name><sym>Flag</sym></wpt>
  <wpt lat="51.5929218" lon="7.3325291"><name>08 Ickern Friedhof</name><sym>Flag</sym></wpt>
  <wpt lat="51.5938768" lon="7.3295898"><name>09 In der Wanne</name><sym>Flag</sym></wpt>
  <wpt lat="51.5959644" lon="7.3303469"><name>10 Waldenburger Straße</name><sym>Flag</sym></wpt>
  <wpt lat="51.5968602" lon="7.3235014"><name>11 Stettiner Straße</name><sym>Flag</sym></wpt>
  <wpt lat="51.5942016" lon="7.3204365"><name>12 Borghagener Straße</name><sym>Flag</sym></wpt>
  <wpt lat="51.5921616" lon="7.3164280"><name>13 Nordstraße</name><sym>Flag</sym></wpt>
  <wpt lat="51.5914646" lon="7.3202641"><name>14 Wesselstraße</name><sym>Flag</sym></wpt>
  <wpt lat="51.5883701" lon="7.3204274"><name>15 Am Busch</name><sym>Flag</sym></wpt>
  <wpt lat="51.5856667" lon="7.3181136"><name>16 Habinghorst Post</name><sym>Flag</sym></wpt>
  <wpt lat="51.5849659" lon="7.3144837"><name>17 Hugostraße</name><sym>Flag</sym></wpt>
  <wpt lat="51.5841715" lon="7.3104051"><name>18 Habinghorster Straße</name><sym>Flag</sym></wpt>
  <wpt lat="51.5834664" lon="7.3054864"><name>19 Habinghorst Schulzentrum</name><sym>Flag</sym></wpt>
  <wpt lat="51.5806338" lon="7.3043184"><name>20 Siemensstraße</name><sym>Flag</sym></wpt>
  <wpt lat="51.5768299" lon="7.3042464"><name>21 Zeche Victor I/II</name><sym>Flag</sym></wpt>
  <wpt lat="51.5729972" lon="7.3053114"><name>22 Castrop-Rauxel Hbf</name><sym>Flag</sym></wpt>
  <wpt lat="51.5702850" lon="7.3064871"><name>23 Schulstraße</name><sym>Flag</sym></wpt>
  <wpt lat="51.5665268" lon="7.3080434"><name>24 Liebigstraße</name><sym>Flag</sym></wpt>
  <wpt lat="51.5644247" lon="7.3089598"><name>25 Europaplatz</name><sym>Flag</sym></wpt>
  <wpt lat="51.5621916" lon="7.3094929"><name>26 Rosenstraße</name><sym>Flag</sym></wpt>
  <wpt lat="51.5584745" lon="7.3101940"><name>27 Lunastraße</name><sym>Flag</sym></wpt>
  <wpt lat="51.5552056" lon="7.3108460"><name>28 Castrop Betriebshof</name><sym>Flag</sym></wpt>
  <wpt lat="51.5533138" lon="7.3103264"><name>29 Engelsburgplatz</name><sym>Flag</sym></wpt>
  <wpt lat="51.5494280" lon="7.3087826"><name>30 Castrop Münsterplatz</name><sym>Flag</sym></wpt>
  <wpt lat="51.5472252" lon="7.3116389"><name>31 Castrop Markt</name><sym>Flag</sym></wpt>
  <wpt lat="51.5448048" lon="7.3142836"><name>32 Beethovenstraße</name><sym>Flag</sym></wpt>
  <wpt lat="51.5477156" lon="7.3195222"><name>33 Goldschmieding</name><sym>Flag</sym></wpt>
  <wpt lat="51.5442303" lon="7.3290814"><name>34 Grimbergstraße</name><sym>Flag</sym></wpt>
  <wpt lat="51.5422163" lon="7.3327016"><name>35 Neuroder Platz</name><sym>Flag</sym></wpt>
  <wpt lat="51.5404021" lon="7.3284896"><name>36 Westhofenstraße</name><sym>Flag</sym></wpt>
  <wpt lat="51.5394197" lon="7.3254876"><name>37 Oberspredey</name><sym>Flag</sym></wpt>
  <wpt lat="51.5376504" lon="7.3279299"><name>38 Schwerin Seniorenheim</name><sym>Flag</sym></wpt>
  <trk><name>Linie 482 – Stadtgebiet Castrop-Rauxel</name>
    <trkseg>
      <trkpt lat="51.5820266" lon="7.3487265"/>
      <trkpt lat="51.5822412" lon="7.3484416"/>
      <trkpt lat="51.5824098" lon="7.3482250"/>
      <trkpt lat="51.5827652" lon="7.3477322"/>
      <trkpt lat="51.5829475" lon="7.3474363"/>
      <trkpt lat="51.5830068" lon="7.3473275"/>
      <trkpt lat="51.5839682" lon="7.3453336"/>
      <trkpt lat="51.5842783" lon="7.3447090"/>
      <trkpt lat="51.5845403" lon="7.3441670"/>
      <trkpt lat="51.5849069" lon="7.3433889"/>
      <trkpt lat="51.5850297" lon="7.3430855"/>
      <trkpt lat="51.5850807" lon="7.3431299"/>
      <trkpt lat="51.5851482" lon="7.3431745"/>
      <trkpt lat="51.5852665" lon="7.3432297"/>
      <trkpt lat="51.5861106" lon="7.3434712"/>
      <trkpt lat="51.5861879" lon="7.3434917"/>
      <trkpt lat="51.5863764" lon="7.3435441"/>
      <trkpt lat="51.5864650" lon="7.3435697"/>
      <trkpt lat="51.5865540" lon="7.3435921"/>
      <trkpt lat="51.5871214" lon="7.3437566"/>
      <trkpt lat="51.5873496" lon="7.3438188"/>
      <trkpt lat="51.5875570" lon="7.3438796"/>
      <trkpt lat="51.5879922" lon="7.3440055"/>
      <trkpt lat="51.5887519" lon="7.3442167"/>
      <trkpt lat="51.5889668" lon="7.3442705"/>
      <trkpt lat="51.5892066" lon="7.3443382"/>
      <trkpt lat="51.5892795" lon="7.3443536"/>
      <trkpt lat="51.5893369" lon="7.3443551"/>
      <trkpt lat="51.5894037" lon="7.3443476"/>
      <trkpt lat="51.5894474" lon="7.3443389"/>
      <trkpt lat="51.5895412" lon="7.3443071"/>
      <trkpt lat="51.5897407" lon="7.3442244"/>
      <trkpt lat="51.5905607" lon="7.3438146"/>
      <trkpt lat="51.5912196" lon="7.3434793"/>
      <trkpt lat="51.5916605" lon="7.3432477"/>
      <trkpt lat="51.5919502" lon="7.3431092"/>
      <trkpt lat="51.5921562" lon="7.3430139"/>
      <trkpt lat="51.5922428" lon="7.3429299"/>
      <trkpt lat="51.5923161" lon="7.3427994"/>
      <trkpt lat="51.5923336" lon="7.3427495"/>
      <trkpt lat="51.5926484" lon="7.3416654"/>
      <trkpt lat="51.5927669" lon="7.3412113"/>
      <trkpt lat="51.5928617" lon="7.3408482"/>
      <trkpt lat="51.5928859" lon="7.3407458"/>
      <trkpt lat="51.5930811" lon="7.3399766"/>
      <trkpt lat="51.5932082" lon="7.3396845"/>
      <trkpt lat="51.5930207" lon="7.3394283"/>
      <trkpt lat="51.5926738" lon="7.3389543"/>
      <trkpt lat="51.5926407" lon="7.3389072"/>
      <trkpt lat="51.5924528" lon="7.3386596"/>
      <trkpt lat="51.5923626" lon="7.3385353"/>
      <trkpt lat="51.5921927" lon="7.3383003"/>
      <trkpt lat="51.5921673" lon="7.3382670"/>
      <trkpt lat="51.5918826" lon="7.3378964"/>
      <trkpt lat="51.5916029" lon="7.3375092"/>
      <trkpt lat="51.5914173" lon="7.3371575"/>
      <trkpt lat="51.5912628" lon="7.3366866"/>
      <trkpt lat="51.5911752" lon="7.3364465"/>
      <trkpt lat="51.5911256" lon="7.3363249"/>
      <trkpt lat="51.5910666" lon="7.3362483"/>
      <trkpt lat="51.5910264" lon="7.3362059"/>
      <trkpt lat="51.5911283" lon="7.3354690"/>
      <trkpt lat="51.5911752" lon="7.3351543"/>
      <trkpt lat="51.5912305" lon="7.3347870"/>
      <trkpt lat="51.5912733" lon="7.3346551"/>
      <trkpt lat="51.5915564" lon="7.3338964"/>
      <trkpt lat="51.5916053" lon="7.3337747"/>
      <trkpt lat="51.5917402" lon="7.3335202"/>
      <trkpt lat="51.5923722" lon="7.3328963"/>
      <trkpt lat="51.5927453" lon="7.3325393"/>
      <trkpt lat="51.5928813" lon="7.3325298"/>
      <trkpt lat="51.5929218" lon="7.3325291"/>
      <trkpt lat="51.5930178" lon="7.3325270"/>
      <trkpt lat="51.5930158" lon="7.3323009"/>
      <trkpt lat="51.5930117" lon="7.3319581"/>
      <trkpt lat="51.5930064" lon="7.3316769"/>
      <trkpt lat="51.5929982" lon="7.3308634"/>
      <trkpt lat="51.5929831" lon="7.3297788"/>
      <trkpt lat="51.5929896" lon="7.3295949"/>
      <trkpt lat="51.5930183" lon="7.3293506"/>
      <trkpt lat="51.5930355" lon="7.3293593"/>
      <trkpt lat="51.5930535" lon="7.3293592"/>
      <trkpt lat="51.5930707" lon="7.3293505"/>
      <trkpt lat="51.5930855" lon="7.3293339"/>
      <trkpt lat="51.5930966" lon="7.3293109"/>
      <trkpt lat="51.5931028" lon="7.3292837"/>
      <trkpt lat="51.5931038" lon="7.3292566"/>
      <trkpt lat="51.5931001" lon="7.3292301"/>
      <trkpt lat="51.5930919" lon="7.3292064"/>
      <trkpt lat="51.5930799" lon="7.3291873"/>
      <trkpt lat="51.5930650" lon="7.3291744"/>
      <trkpt lat="51.5930486" lon="7.3291688"/>
      <trkpt lat="51.5930317" lon="7.3291708"/>
      <trkpt lat="51.5930179" lon="7.3291786"/>
      <trkpt lat="51.5930057" lon="7.3291915"/>
      <trkpt lat="51.5929959" lon="7.3292089"/>
      <trkpt lat="51.5929889" lon="7.3292296"/>
      <trkpt lat="51.5929850" lon="7.3292574"/>
      <trkpt lat="51.5929864" lon="7.3292857"/>
      <trkpt lat="51.5929928" lon="7.3293122"/>
      <trkpt lat="51.5930038" lon="7.3293345"/>
      <trkpt lat="51.5930183" lon="7.3293506"/>
      <trkpt lat="51.5930355" lon="7.3293593"/>
      <trkpt lat="51.5931028" lon="7.3292837"/>
      <trkpt lat="51.5933910" lon="7.3294048"/>
      <trkpt lat="51.5936450" lon="7.3295004"/>
      <trkpt lat="51.5938768" lon="7.3295898"/>
      <trkpt lat="51.5945551" lon="7.3298356"/>
      <trkpt lat="51.5946628" lon="7.3298739"/>
      <trkpt lat="51.5950118" lon="7.3299957"/>
      <trkpt lat="51.5950398" lon="7.3300052"/>
      <trkpt lat="51.5951744" lon="7.3300494"/>
      <trkpt lat="51.5954950" lon="7.3301652"/>
      <trkpt lat="51.5956050" lon="7.3301959"/>
      <trkpt lat="51.5957434" lon="7.3302496"/>
      <trkpt lat="51.5959060" lon="7.3303208"/>
      <trkpt lat="51.5959644" lon="7.3303469"/>
      <trkpt lat="51.5960304" lon="7.3303738"/>
      <trkpt lat="51.5962897" lon="7.3304947"/>
      <trkpt lat="51.5963229" lon="7.3305147"/>
      <trkpt lat="51.5963592" lon="7.3302176"/>
      <trkpt lat="51.5963684" lon="7.3301061"/>
      <trkpt lat="51.5964310" lon="7.3293451"/>
      <trkpt lat="51.5964591" lon="7.3289832"/>
      <trkpt lat="51.5964707" lon="7.3288694"/>
      <trkpt lat="51.5965105" lon="7.3284299"/>
      <trkpt lat="51.5966141" lon="7.3273722"/>
      <trkpt lat="51.5966281" lon="7.3272469"/>
      <trkpt lat="51.5966629" lon="7.3269359"/>
      <trkpt lat="51.5967598" lon="7.3259195"/>
      <trkpt lat="51.5967939" lon="7.3253740"/>
      <trkpt lat="51.5967987" lon="7.3252972"/>
      <trkpt lat="51.5968419" lon="7.3244513"/>
      <trkpt lat="51.5968493" lon="7.3242562"/>
      <trkpt lat="51.5968548" lon="7.3240573"/>
      <trkpt lat="51.5968578" lon="7.3238379"/>
      <trkpt lat="51.5968598" lon="7.3235317"/>
      <trkpt lat="51.5968602" lon="7.3235014"/>
      <trkpt lat="51.5968604" lon="7.3234155"/>
      <trkpt lat="51.5968601" lon="7.3232093"/>
      <trkpt lat="51.5968599" lon="7.3231752"/>
      <trkpt lat="51.5968628" lon="7.3229971"/>
      <trkpt lat="51.5968676" lon="7.3227691"/>
      <trkpt lat="51.5968738" lon="7.3224897"/>
      <trkpt lat="51.5968783" lon="7.3223239"/>
      <trkpt lat="51.5968904" lon="7.3218700"/>
      <trkpt lat="51.5968922" lon="7.3218155"/>
      <trkpt lat="51.5969031" lon="7.3214180"/>
      <trkpt lat="51.5969148" lon="7.3208872"/>
      <trkpt lat="51.5967569" lon="7.3208515"/>
      <trkpt lat="51.5965007" lon="7.3207969"/>
      <trkpt lat="51.5963390" lon="7.3207628"/>
      <trkpt lat="51.5960644" lon="7.3207106"/>
      <trkpt lat="51.5958203" lon="7.3206564"/>
      <trkpt lat="51.5956812" lon="7.3206324"/>
      <trkpt lat="51.5954388" lon="7.3205936"/>
      <trkpt lat="51.5953134" lon="7.3205748"/>
      <trkpt lat="51.5945961" lon="7.3204804"/>
      <trkpt lat="51.5942016" lon="7.3204365"/>
      <trkpt lat="51.5940044" lon="7.3204106"/>
      <trkpt lat="51.5938925" lon="7.3203985"/>
      <trkpt lat="51.5933893" lon="7.3203367"/>
      <trkpt lat="51.5931825" lon="7.3203324"/>
      <trkpt lat="51.5930585" lon="7.3203298"/>
      <trkpt lat="51.5930912" lon="7.3200794"/>
      <trkpt lat="51.5931217" lon="7.3195745"/>
      <trkpt lat="51.5931262" lon="7.3193298"/>
      <trkpt lat="51.5931249" lon="7.3190847"/>
      <trkpt lat="51.5930995" lon="7.3184605"/>
      <trkpt lat="51.5930632" lon="7.3177348"/>
      <trkpt lat="51.5930020" lon="7.3165087"/>
      <trkpt lat="51.5929928" lon="7.3163056"/>
      <trkpt lat="51.5926326" lon="7.3163561"/>
      <trkpt lat="51.5921616" lon="7.3164280"/>
      <trkpt lat="51.5915786" lon="7.3165200"/>
      <trkpt lat="51.5916746" lon="7.3187041"/>
      <trkpt lat="51.5918676" lon="7.3201775"/>
      <trkpt lat="51.5918360" lon="7.3201823"/>
      <trkpt lat="51.5914646" lon="7.3202641"/>
      <trkpt lat="51.5910511" lon="7.3203573"/>
      <trkpt lat="51.5909091" lon="7.3203788"/>
      <trkpt lat="51.5900466" lon="7.3204739"/>
      <trkpt lat="51.5897179" lon="7.3204889"/>
      <trkpt lat="51.5894724" lon="7.3204927"/>
      <trkpt lat="51.5894154" lon="7.3204936"/>
      <trkpt lat="51.5888064" lon="7.3204313"/>
      <trkpt lat="51.5885442" lon="7.3204216"/>
      <trkpt lat="51.5884730" lon="7.3204230"/>
      <trkpt lat="51.5883701" lon="7.3204274"/>
      <trkpt lat="51.5881986" lon="7.3204352"/>
      <trkpt lat="51.5880622" lon="7.3204096"/>
      <trkpt lat="51.5879832" lon="7.3203817"/>
      <trkpt lat="51.5878323" lon="7.3202881"/>
      <trkpt lat="51.5877783" lon="7.3202486"/>
      <trkpt lat="51.5877268" lon="7.3202094"/>
      <trkpt lat="51.5876774" lon="7.3201644"/>
      <trkpt lat="51.5867743" lon="7.3193696"/>
      <trkpt lat="51.5859929" lon="7.3187070"/>
      <trkpt lat="51.5858948" lon="7.3186292"/>
      <trkpt lat="51.5858247" lon="7.3185885"/>
      <trkpt lat="51.5857461" lon="7.3185795"/>
      <trkpt lat="51.5857283" lon="7.3184533"/>
      <trkpt lat="51.5857133" lon="7.3183638"/>
      <trkpt lat="51.5856667" lon="7.3181136"/>
      <trkpt lat="51.5855732" lon="7.3176170"/>
      <trkpt lat="51.5853018" lon="7.3161438"/>
      <trkpt lat="51.5850945" lon="7.3151452"/>
      <trkpt lat="51.5850121" lon="7.3147303"/>
      <trkpt lat="51.5849659" lon="7.3144837"/>
      <trkpt lat="51.5848110" lon="7.3136636"/>
      <trkpt lat="51.5844881" lon="7.3119895"/>
      <trkpt lat="51.5842169" lon="7.3106307"/>
      <trkpt lat="51.5841715" lon="7.3104051"/>
      <trkpt lat="51.5841273" lon="7.3101813"/>
      <trkpt lat="51.5841217" lon="7.3101500"/>
      <trkpt lat="51.5840917" lon="7.3099807"/>
      <trkpt lat="51.5840435" lon="7.3096733"/>
      <trkpt lat="51.5840304" lon="7.3095899"/>
      <trkpt lat="51.5839355" lon="7.3089021"/>
      <trkpt lat="51.5838788" lon="7.3084868"/>
      <trkpt lat="51.5838188" lon="7.3080525"/>
      <trkpt lat="51.5837833" lon="7.3077999"/>
      <trkpt lat="51.5837636" lon="7.3076540"/>
      <trkpt lat="51.5837231" lon="7.3073632"/>
      <trkpt lat="51.5836310" lon="7.3066964"/>
      <trkpt lat="51.5836001" lon="7.3064723"/>
      <trkpt lat="51.5835538" lon="7.3061368"/>
      <trkpt lat="51.5835064" lon="7.3057936"/>
      <trkpt lat="51.5834664" lon="7.3054864"/>
      <trkpt lat="51.5834529" lon="7.3053475"/>
      <trkpt lat="51.5834389" lon="7.3051088"/>
      <trkpt lat="51.5834387" lon="7.3046528"/>
      <trkpt lat="51.5834386" lon="7.3045962"/>
      <trkpt lat="51.5834385" lon="7.3044107"/>
      <trkpt lat="51.5833140" lon="7.3044043"/>
      <trkpt lat="51.5831781" lon="7.3043972"/>
      <trkpt lat="51.5831416" lon="7.3043958"/>
      <trkpt lat="51.5827526" lon="7.3043805"/>
      <trkpt lat="51.5825266" lon="7.3043688"/>
      <trkpt lat="51.5822231" lon="7.3043623"/>
      <trkpt lat="51.5820051" lon="7.3043512"/>
      <trkpt lat="51.5817505" lon="7.3043522"/>
      <trkpt lat="51.5815419" lon="7.3043448"/>
      <trkpt lat="51.5812348" lon="7.3043325"/>
      <trkpt lat="51.5809221" lon="7.3043309"/>
      <trkpt lat="51.5806338" lon="7.3043184"/>
      <trkpt lat="51.5804425" lon="7.3043108"/>
      <trkpt lat="51.5803058" lon="7.3043042"/>
      <trkpt lat="51.5801577" lon="7.3042978"/>
      <trkpt lat="51.5798664" lon="7.3043134"/>
      <trkpt lat="51.5797143" lon="7.3043426"/>
      <trkpt lat="51.5796414" lon="7.3043567"/>
      <trkpt lat="51.5796329" lon="7.3043009"/>
      <trkpt lat="51.5796159" lon="7.3042504"/>
      <trkpt lat="51.5795914" lon="7.3042085"/>
      <trkpt lat="51.5795611" lon="7.3041780"/>
      <trkpt lat="51.5795270" lon="7.3041610"/>
      <trkpt lat="51.5794913" lon="7.3041586"/>
      <trkpt lat="51.5794616" lon="7.3041681"/>
      <trkpt lat="51.5794339" lon="7.3041877"/>
      <trkpt lat="51.5794094" lon="7.3042165"/>
      <trkpt lat="51.5793895" lon="7.3042531"/>
      <trkpt lat="51.5793749" lon="7.3042958"/>
      <trkpt lat="51.5793664" lon="7.3043426"/>
      <trkpt lat="51.5793647" lon="7.3043987"/>
      <trkpt lat="51.5793718" lon="7.3044538"/>
      <trkpt lat="51.5793872" lon="7.3045043"/>
      <trkpt lat="51.5794099" lon="7.3045470"/>
      <trkpt lat="51.5794385" lon="7.3045792"/>
      <trkpt lat="51.5794712" lon="7.3045990"/>
      <trkpt lat="51.5795059" lon="7.3046050"/>
      <trkpt lat="51.5795405" lon="7.3045969"/>
      <trkpt lat="51.5795706" lon="7.3045770"/>
      <trkpt lat="51.5795971" lon="7.3045464"/>
      <trkpt lat="51.5796184" lon="7.3045067"/>
      <trkpt lat="51.5796334" lon="7.3044601"/>
      <trkpt lat="51.5796412" lon="7.3044092"/>
      <trkpt lat="51.5796414" lon="7.3043567"/>
      <trkpt lat="51.5793664" lon="7.3043426"/>
      <trkpt lat="51.5792954" lon="7.3043177"/>
      <trkpt lat="51.5791975" lon="7.3042995"/>
      <trkpt lat="51.5791132" lon="7.3042838"/>
      <trkpt lat="51.5789128" lon="7.3042721"/>
      <trkpt lat="51.5788166" lon="7.3042658"/>
      <trkpt lat="51.5786146" lon="7.3042616"/>
      <trkpt lat="51.5785786" lon="7.3042629"/>
      <trkpt lat="51.5785218" lon="7.3042654"/>
      <trkpt lat="51.5784641" lon="7.3042648"/>
      <trkpt lat="51.5783454" lon="7.3042559"/>
      <trkpt lat="51.5778798" lon="7.3042330"/>
      <trkpt lat="51.5774764" lon="7.3042427"/>
      <trkpt lat="51.5774093" lon="7.3042445"/>
      <trkpt lat="51.5771947" lon="7.3042479"/>
      <trkpt lat="51.5769763" lon="7.3042489"/>
      <trkpt lat="51.5768299" lon="7.3042464"/>
      <trkpt lat="51.5767178" lon="7.3042392"/>
      <trkpt lat="51.5766069" lon="7.3042233"/>
      <trkpt lat="51.5765074" lon="7.3042084"/>
      <trkpt lat="51.5764474" lon="7.3042046"/>
      <trkpt lat="51.5760920" lon="7.3042074"/>
      <trkpt lat="51.5760053" lon="7.3042068"/>
      <trkpt lat="51.5757616" lon="7.3042317"/>
      <trkpt lat="51.5757666" lon="7.3042785"/>
      <trkpt lat="51.5757785" lon="7.3043219"/>
      <trkpt lat="51.5757964" lon="7.3043595"/>
      <trkpt lat="51.5758194" lon="7.3043890"/>
      <trkpt lat="51.5758462" lon="7.3044089"/>
      <trkpt lat="51.5758751" lon="7.3044179"/>
      <trkpt lat="51.5759045" lon="7.3044154"/>
      <trkpt lat="51.5759292" lon="7.3044041"/>
      <trkpt lat="51.5759519" lon="7.3043847"/>
      <trkpt lat="51.5759716" lon="7.3043581"/>
      <trkpt lat="51.5759873" lon="7.3043255"/>
      <trkpt lat="51.5759985" lon="7.3042883"/>
      <trkpt lat="51.5760046" lon="7.3042482"/>
      <trkpt lat="51.5760053" lon="7.3042068"/>
      <trkpt lat="51.5759963" lon="7.3041462"/>
      <trkpt lat="51.5759758" lon="7.3040931"/>
      <trkpt lat="51.5759461" lon="7.3040530"/>
      <trkpt lat="51.5759100" lon="7.3040300"/>
      <trkpt lat="51.5758877" lon="7.3040255"/>
      <trkpt lat="51.5758654" lon="7.3040276"/>
      <trkpt lat="51.5758436" lon="7.3040362"/>
      <trkpt lat="51.5758232" lon="7.3040511"/>
      <trkpt lat="51.5758048" lon="7.3040718"/>
      <trkpt lat="51.5757890" lon="7.3040975"/>
      <trkpt lat="51.5757765" lon="7.3041274"/>
      <trkpt lat="51.5757676" lon="7.3041605"/>
      <trkpt lat="51.5757626" lon="7.3041957"/>
      <trkpt lat="51.5757616" lon="7.3042317"/>
      <trkpt lat="51.5756693" lon="7.3042392"/>
      <trkpt lat="51.5755671" lon="7.3042530"/>
      <trkpt lat="51.5755286" lon="7.3042644"/>
      <trkpt lat="51.5754871" lon="7.3042766"/>
      <trkpt lat="51.5753632" lon="7.3043100"/>
      <trkpt lat="51.5752130" lon="7.3043654"/>
      <trkpt lat="51.5750021" lon="7.3044486"/>
      <trkpt lat="51.5746749" lon="7.3045971"/>
      <trkpt lat="51.5745293" lon="7.3046667"/>
      <trkpt lat="51.5742710" lon="7.3047703"/>
      <trkpt lat="51.5738406" lon="7.3049592"/>
      <trkpt lat="51.5736126" lon="7.3050586"/>
      <trkpt lat="51.5735423" lon="7.3050928"/>
      <trkpt lat="51.5734124" lon="7.3051323"/>
      <trkpt lat="51.5733208" lon="7.3051722"/>
      <trkpt lat="51.5732939" lon="7.3051840"/>
      <trkpt lat="51.5732835" lon="7.3051883"/>
      <trkpt lat="51.5729972" lon="7.3053114"/>
      <trkpt lat="51.5727986" lon="7.3054100"/>
      <trkpt lat="51.5723227" lon="7.3055940"/>
      <trkpt lat="51.5721570" lon="7.3056570"/>
      <trkpt lat="51.5718536" lon="7.3057848"/>
      <trkpt lat="51.5717040" lon="7.3058438"/>
      <trkpt lat="51.5711689" lon="7.3060962"/>
      <trkpt lat="51.5711378" lon="7.3061087"/>
      <trkpt lat="51.5710234" lon="7.3061600"/>
      <trkpt lat="51.5709051" lon="7.3062107"/>
      <trkpt lat="51.5708025" lon="7.3062555"/>
      <trkpt lat="51.5702850" lon="7.3064871"/>
      <trkpt lat="51.5701979" lon="7.3065188"/>
      <trkpt lat="51.5699860" lon="7.3065922"/>
      <trkpt lat="51.5697241" lon="7.3066903"/>
      <trkpt lat="51.5695481" lon="7.3067690"/>
      <trkpt lat="51.5694124" lon="7.3068488"/>
      <trkpt lat="51.5690207" lon="7.3070186"/>
      <trkpt lat="51.5687465" lon="7.3071041"/>
      <trkpt lat="51.5685333" lon="7.3071993"/>
      <trkpt lat="51.5683960" lon="7.3072613"/>
      <trkpt lat="51.5683483" lon="7.3072828"/>
      <trkpt lat="51.5682005" lon="7.3073398"/>
      <trkpt lat="51.5681115" lon="7.3073758"/>
      <trkpt lat="51.5680526" lon="7.3073996"/>
      <trkpt lat="51.5677509" lon="7.3075225"/>
      <trkpt lat="51.5674637" lon="7.3076515"/>
      <trkpt lat="51.5674096" lon="7.3076758"/>
      <trkpt lat="51.5672115" lon="7.3077611"/>
      <trkpt lat="51.5671126" lon="7.3078032"/>
      <trkpt lat="51.5669581" lon="7.3078688"/>
      <trkpt lat="51.5668826" lon="7.3079009"/>
      <trkpt lat="51.5667992" lon="7.3079364"/>
      <trkpt lat="51.5666572" lon="7.3079967"/>
      <trkpt lat="51.5665969" lon="7.3080189"/>
      <trkpt lat="51.5665456" lon="7.3080392"/>
      <trkpt lat="51.5665268" lon="7.3080434"/>
      <trkpt lat="51.5664245" lon="7.3080729"/>
      <trkpt lat="51.5663393" lon="7.3081088"/>
      <trkpt lat="51.5662034" lon="7.3081660"/>
      <trkpt lat="51.5660662" lon="7.3082238"/>
      <trkpt lat="51.5659747" lon="7.3082624"/>
      <trkpt lat="51.5658225" lon="7.3083230"/>
      <trkpt lat="51.5656849" lon="7.3083321"/>
      <trkpt lat="51.5656268" lon="7.3083360"/>
      <trkpt lat="51.5655657" lon="7.3083095"/>
      <trkpt lat="51.5655270" lon="7.3082819"/>
      <trkpt lat="51.5655075" lon="7.3082763"/>
      <trkpt lat="51.5654876" lon="7.3082755"/>
      <trkpt lat="51.5654679" lon="7.3082796"/>
      <trkpt lat="51.5654488" lon="7.3082884"/>
      <trkpt lat="51.5654307" lon="7.3083019"/>
      <trkpt lat="51.5654141" lon="7.3083196"/>
      <trkpt lat="51.5654000" lon="7.3083403"/>
      <trkpt lat="51.5653879" lon="7.3083640"/>
      <trkpt lat="51.5653780" lon="7.3083904"/>
      <trkpt lat="51.5653707" lon="7.3084188"/>
      <trkpt lat="51.5653661" lon="7.3084486"/>
      <trkpt lat="51.5653642" lon="7.3084792"/>
      <trkpt lat="51.5652854" lon="7.3085172"/>
      <trkpt lat="51.5648350" lon="7.3087370"/>
      <trkpt lat="51.5647242" lon="7.3087997"/>
      <trkpt lat="51.5646520" lon="7.3088584"/>
      <trkpt lat="51.5644247" lon="7.3089598"/>
      <trkpt lat="51.5642856" lon="7.3090327"/>
      <trkpt lat="51.5642624" lon="7.3090394"/>
      <trkpt lat="51.5641811" lon="7.3090629"/>
      <trkpt lat="51.5639311" lon="7.3091874"/>
      <trkpt lat="51.5639342" lon="7.3092346"/>
      <trkpt lat="51.5639435" lon="7.3092797"/>
      <trkpt lat="51.5639653" lon="7.3093337"/>
      <trkpt lat="51.5639958" lon="7.3093754"/>
      <trkpt lat="51.5640325" lon="7.3094010"/>
      <trkpt lat="51.5640782" lon="7.3094081"/>
      <trkpt lat="51.5641228" lon="7.3093904"/>
      <trkpt lat="51.5641550" lon="7.3093589"/>
      <trkpt lat="51.5641806" lon="7.3093145"/>
      <trkpt lat="51.5641977" lon="7.3092607"/>
      <trkpt lat="51.5642051" lon="7.3092013"/>
      <trkpt lat="51.5642003" lon="7.3091289"/>
      <trkpt lat="51.5641811" lon="7.3090629"/>
      <trkpt lat="51.5641509" lon="7.3090122"/>
      <trkpt lat="51.5641123" lon="7.3089793"/>
      <trkpt lat="51.5641007" lon="7.3089761"/>
      <trkpt lat="51.5640693" lon="7.3089676"/>
      <trkpt lat="51.5640261" lon="7.3089782"/>
      <trkpt lat="51.5639873" lon="7.3090101"/>
      <trkpt lat="51.5639622" lon="7.3090482"/>
      <trkpt lat="51.5639439" lon="7.3090952"/>
      <trkpt lat="51.5639344" lon="7.3091402"/>
      <trkpt lat="51.5639311" lon="7.3091874"/>
      <trkpt lat="51.5639439" lon="7.3090952"/>
      <trkpt lat="51.5639134" lon="7.3091175"/>
      <trkpt lat="51.5638404" lon="7.3091405"/>
      <trkpt lat="51.5636350" lon="7.3092051"/>
      <trkpt lat="51.5632865" lon="7.3092742"/>
      <trkpt lat="51.5626236" lon="7.3094166"/>
      <trkpt lat="51.5624469" lon="7.3094439"/>
      <trkpt lat="51.5624119" lon="7.3094508"/>
      <trkpt lat="51.5623302" lon="7.3094669"/>
      <trkpt lat="51.5621916" lon="7.3094929"/>
      <trkpt lat="51.5620238" lon="7.3095325"/>
      <trkpt lat="51.5619025" lon="7.3095542"/>
      <trkpt lat="51.5616577" lon="7.3095941"/>
      <trkpt lat="51.5616218" lon="7.3096019"/>
      <trkpt lat="51.5615170" lon="7.3096218"/>
      <trkpt lat="51.5613670" lon="7.3096467"/>
      <trkpt lat="51.5612500" lon="7.3096662"/>
      <trkpt lat="51.5611662" lon="7.3096781"/>
      <trkpt lat="51.5611503" lon="7.3096806"/>
      <trkpt lat="51.5609859" lon="7.3097072"/>
      <trkpt lat="51.5604623" lon="7.3097914"/>
      <trkpt lat="51.5604392" lon="7.3097952"/>
      <trkpt lat="51.5604044" lon="7.3098006"/>
      <trkpt lat="51.5603541" lon="7.3098083"/>
      <trkpt lat="51.5602141" lon="7.3098423"/>
      <trkpt lat="51.5601405" lon="7.3098546"/>
      <trkpt lat="51.5597843" lon="7.3099432"/>
      <trkpt lat="51.5596382" lon="7.3099762"/>
      <trkpt lat="51.5594332" lon="7.3100194"/>
      <trkpt lat="51.5590879" lon="7.3100751"/>
      <trkpt lat="51.5589829" lon="7.3100981"/>
      <trkpt lat="51.5587868" lon="7.3101374"/>
      <trkpt lat="51.5587610" lon="7.3101419"/>
      <trkpt lat="51.5584745" lon="7.3101940"/>
      <trkpt lat="51.5584694" lon="7.3101947"/>
      <trkpt lat="51.5583849" lon="7.3101535"/>
      <trkpt lat="51.5582940" lon="7.3101489"/>
      <trkpt lat="51.5581818" lon="7.3101600"/>
      <trkpt lat="51.5580628" lon="7.3101828"/>
      <trkpt lat="51.5579862" lon="7.3101974"/>
      <trkpt lat="51.5577884" lon="7.3102352"/>
      <trkpt lat="51.5577661" lon="7.3102395"/>
      <trkpt lat="51.5576795" lon="7.3102561"/>
      <trkpt lat="51.5575950" lon="7.3103385"/>
      <trkpt lat="51.5572382" lon="7.3104326"/>
      <trkpt lat="51.5571427" lon="7.3104521"/>
      <trkpt lat="51.5570697" lon="7.3104669"/>
      <trkpt lat="51.5565228" lon="7.3105780"/>
      <trkpt lat="51.5563656" lon="7.3106100"/>
      <trkpt lat="51.5560681" lon="7.3106704"/>
      <trkpt lat="51.5559932" lon="7.3106857"/>
      <trkpt lat="51.5557517" lon="7.3107347"/>
      <trkpt lat="51.5555824" lon="7.3107691"/>
      <trkpt lat="51.5555167" lon="7.3107807"/>
      <trkpt lat="51.5552761" lon="7.3108314"/>
      <trkpt lat="51.5552056" lon="7.3108460"/>
      <trkpt lat="51.5550635" lon="7.3108746"/>
      <trkpt lat="51.5549884" lon="7.3108899"/>
      <trkpt lat="51.5549339" lon="7.3109009"/>
      <trkpt lat="51.5548687" lon="7.3108523"/>
      <trkpt lat="51.5547272" lon="7.3108790"/>
      <trkpt lat="51.5546982" lon="7.3108844"/>
      <trkpt lat="51.5546193" lon="7.3108972"/>
      <trkpt lat="51.5544330" lon="7.3109139"/>
      <trkpt lat="51.5543591" lon="7.3109126"/>
      <trkpt lat="51.5543200" lon="7.3109119"/>
      <trkpt lat="51.5542137" lon="7.3108991"/>
      <trkpt lat="51.5541019" lon="7.3108669"/>
      <trkpt lat="51.5539843" lon="7.3108160"/>
      <trkpt lat="51.5538378" lon="7.3107371"/>
      <trkpt lat="51.5537495" lon="7.3106743"/>
      <trkpt lat="51.5537164" lon="7.3106533"/>
      <trkpt lat="51.5534330" lon="7.3104364"/>
      <trkpt lat="51.5533138" lon="7.3103264"/>
      <trkpt lat="51.5531978" lon="7.3102026"/>
      <trkpt lat="51.5530222" lon="7.3099715"/>
      <trkpt lat="51.5529061" lon="7.3097665"/>
      <trkpt lat="51.5527495" lon="7.3094194"/>
      <trkpt lat="51.5526983" lon="7.3092802"/>
      <trkpt lat="51.5525522" lon="7.3087925"/>
      <trkpt lat="51.5524563" lon="7.3084773"/>
      <trkpt lat="51.5523716" lon="7.3082020"/>
      <trkpt lat="51.5523439" lon="7.3081184"/>
      <trkpt lat="51.5523288" lon="7.3080727"/>
      <trkpt lat="51.5522824" lon="7.3079326"/>
      <trkpt lat="51.5522555" lon="7.3078646"/>
      <trkpt lat="51.5522085" lon="7.3077543"/>
      <trkpt lat="51.5521495" lon="7.3076090"/>
      <trkpt lat="51.5521241" lon="7.3075409"/>
      <trkpt lat="51.5521017" lon="7.3074833"/>
      <trkpt lat="51.5519266" lon="7.3071234"/>
      <trkpt lat="51.5517708" lon="7.3068725"/>
      <trkpt lat="51.5516503" lon="7.3066932"/>
      <trkpt lat="51.5515537" lon="7.3065654"/>
      <trkpt lat="51.5513657" lon="7.3063446"/>
      <trkpt lat="51.5512634" lon="7.3062381"/>
      <trkpt lat="51.5511579" lon="7.3061362"/>
      <trkpt lat="51.5510706" lon="7.3060609"/>
      <trkpt lat="51.5509979" lon="7.3060020"/>
      <trkpt lat="51.5508139" lon="7.3058720"/>
      <trkpt lat="51.5506760" lon="7.3057870"/>
      <trkpt lat="51.5505224" lon="7.3057097"/>
      <trkpt lat="51.5504269" lon="7.3056675"/>
      <trkpt lat="51.5502535" lon="7.3056038"/>
      <trkpt lat="51.5500800" lon="7.3055615"/>
      <trkpt lat="51.5499437" lon="7.3055310"/>
      <trkpt lat="51.5497935" lon="7.3055220"/>
      <trkpt lat="51.5495219" lon="7.3055453"/>
      <trkpt lat="51.5494217" lon="7.3055291"/>
      <trkpt lat="51.5492966" lon="7.3055242"/>
      <trkpt lat="51.5492492" lon="7.3055009"/>
      <trkpt lat="51.5492112" lon="7.3054799"/>
      <trkpt lat="51.5491481" lon="7.3053808"/>
      <trkpt lat="51.5491076" lon="7.3052418"/>
      <trkpt lat="51.5491047" lon="7.3051451"/>
      <trkpt lat="51.5491166" lon="7.3050343"/>
      <trkpt lat="51.5491711" lon="7.3048217"/>
      <trkpt lat="51.5492356" lon="7.3047583"/>
      <trkpt lat="51.5492838" lon="7.3047216"/>
      <trkpt lat="51.5494052" lon="7.3046833"/>
      <trkpt lat="51.5495363" lon="7.3046552"/>
      <trkpt lat="51.5498658" lon="7.3046508"/>
      <trkpt lat="51.5501087" lon="7.3046653"/>
      <trkpt lat="51.5501131" lon="7.3049542"/>
      <trkpt lat="51.5501234" lon="7.3052619"/>
      <trkpt lat="51.5501419" lon="7.3055598"/>
      <trkpt lat="51.5501993" lon="7.3062938"/>
      <trkpt lat="51.5502437" lon="7.3066489"/>
      <trkpt lat="51.5502466" lon="7.3070324"/>
      <trkpt lat="51.5502152" lon="7.3071784"/>
      <trkpt lat="51.5501467" lon="7.3072658"/>
      <trkpt lat="51.5500901" lon="7.3072942"/>
      <trkpt lat="51.5500254" lon="7.3072845"/>
      <trkpt lat="51.5499163" lon="7.3072122"/>
      <trkpt lat="51.5498016" lon="7.3071831"/>
      <trkpt lat="51.5496826" lon="7.3071541"/>
      <trkpt lat="51.5495710" lon="7.3071774"/>
      <trkpt lat="51.5494223" lon="7.3072571"/>
      <trkpt lat="51.5493192" lon="7.3073629"/>
      <trkpt lat="51.5492617" lon="7.3074219"/>
      <trkpt lat="51.5489878" lon="7.3078004"/>
      <trkpt lat="51.5489946" lon="7.3079011"/>
      <trkpt lat="51.5490083" lon="7.3079799"/>
      <trkpt lat="51.5490292" lon="7.3080385"/>
      <trkpt lat="51.5490521" lon="7.3080833"/>
      <trkpt lat="51.5492523" lon="7.3084673"/>
      <trkpt lat="51.5494280" lon="7.3087826"/>
      <trkpt lat="51.5496004" lon="7.3090207"/>
      <trkpt lat="51.5497851" lon="7.3092433"/>
      <trkpt lat="51.5498172" lon="7.3092706"/>
      <trkpt lat="51.5498572" lon="7.3092758"/>
      <trkpt lat="51.5499216" lon="7.3092632"/>
      <trkpt lat="51.5500183" lon="7.3088689"/>
      <trkpt lat="51.5500861" lon="7.3085592"/>
      <trkpt lat="51.5501275" lon="7.3082457"/>
      <trkpt lat="51.5501405" lon="7.3081076"/>
      <trkpt lat="51.5501484" lon="7.3079655"/>
      <trkpt lat="51.5501501" lon="7.3078313"/>
      <trkpt lat="51.5501359" lon="7.3076939"/>
      <trkpt lat="51.5501097" lon="7.3075741"/>
      <trkpt lat="51.5500742" lon="7.3074833"/>
      <trkpt lat="51.5500296" lon="7.3074009"/>
      <trkpt lat="51.5500004" lon="7.3073519"/>
      <trkpt lat="51.5499362" lon="7.3072715"/>
      <trkpt lat="51.5498016" lon="7.3071831"/>
      <trkpt lat="51.5496826" lon="7.3071541"/>
      <trkpt lat="51.5495710" lon="7.3071774"/>
      <trkpt lat="51.5494223" lon="7.3072571"/>
      <trkpt lat="51.5493192" lon="7.3073629"/>
      <trkpt lat="51.5492617" lon="7.3074219"/>
      <trkpt lat="51.5489878" lon="7.3078004"/>
      <trkpt lat="51.5488302" lon="7.3079988"/>
      <trkpt lat="51.5486032" lon="7.3083351"/>
      <trkpt lat="51.5484041" lon="7.3086302"/>
      <trkpt lat="51.5483191" lon="7.3087551"/>
      <trkpt lat="51.5481937" lon="7.3089462"/>
      <trkpt lat="51.5481153" lon="7.3090587"/>
      <trkpt lat="51.5478953" lon="7.3093684"/>
      <trkpt lat="51.5478191" lon="7.3094521"/>
      <trkpt lat="51.5477714" lon="7.3095112"/>
      <trkpt lat="51.5476991" lon="7.3096055"/>
      <trkpt lat="51.5476578" lon="7.3096780"/>
      <trkpt lat="51.5475212" lon="7.3100626"/>
      <trkpt lat="51.5474194" lon="7.3103523"/>
      <trkpt lat="51.5473913" lon="7.3104341"/>
      <trkpt lat="51.5473235" lon="7.3106318"/>
      <trkpt lat="51.5472785" lon="7.3107833"/>
      <trkpt lat="51.5472610" lon="7.3109405"/>
      <trkpt lat="51.5472526" lon="7.3111102"/>
      <trkpt lat="51.5472502" lon="7.3111589"/>
      <trkpt lat="51.5472443" lon="7.3113088"/>
      <trkpt lat="51.5472422" lon="7.3113609"/>
      <trkpt lat="51.5472310" lon="7.3115380"/>
      <trkpt lat="51.5472252" lon="7.3116389"/>
      <trkpt lat="51.5472111" lon="7.3117066"/>
      <trkpt lat="51.5471837" lon="7.3117722"/>
      <trkpt lat="51.5471523" lon="7.3118012"/>
      <trkpt lat="51.5470995" lon="7.3118252"/>
      <trkpt lat="51.5470138" lon="7.3118364"/>
      <trkpt lat="51.5467637" lon="7.3118677"/>
      <trkpt lat="51.5467250" lon="7.3118812"/>
      <trkpt lat="51.5466882" lon="7.3118940"/>
      <trkpt lat="51.5466457" lon="7.3119177"/>
      <trkpt lat="51.5466174" lon="7.3119335"/>
      <trkpt lat="51.5465526" lon="7.3120034"/>
      <trkpt lat="51.5465042" lon="7.3120762"/>
      <trkpt lat="51.5462885" lon="7.3124136"/>
      <trkpt lat="51.5462795" lon="7.3124256"/>
      <trkpt lat="51.5462425" lon="7.3124724"/>
      <trkpt lat="51.5462055" lon="7.3125160"/>
      <trkpt lat="51.5459321" lon="7.3127515"/>
      <trkpt lat="51.5458196" lon="7.3128498"/>
      <trkpt lat="51.5456847" lon="7.3129596"/>
      <trkpt lat="51.5454617" lon="7.3131616"/>
      <trkpt lat="51.5453271" lon="7.3132682"/>
      <trkpt lat="51.5453258" lon="7.3132693"/>
      <trkpt lat="51.5451610" lon="7.3134077"/>
      <trkpt lat="51.5449436" lon="7.3135592"/>
      <trkpt lat="51.5448944" lon="7.3136035"/>
      <trkpt lat="51.5448521" lon="7.3136563"/>
      <trkpt lat="51.5448228" lon="7.3137143"/>
      <trkpt lat="51.5447840" lon="7.3138203"/>
      <trkpt lat="51.5447708" lon="7.3139012"/>
      <trkpt lat="51.5447658" lon="7.3139964"/>
      <trkpt lat="51.5447681" lon="7.3140718"/>
      <trkpt lat="51.5448048" lon="7.3142836"/>
      <trkpt lat="51.5448362" lon="7.3144509"/>
      <trkpt lat="51.5448669" lon="7.3146220"/>
      <trkpt lat="51.5449800" lon="7.3152514"/>
      <trkpt lat="51.5449872" lon="7.3152917"/>
      <trkpt lat="51.5449893" lon="7.3152973"/>
      <trkpt lat="51.5449793" lon="7.3154099"/>
      <trkpt lat="51.5449693" lon="7.3154941"/>
      <trkpt lat="51.5449493" lon="7.3155927"/>
      <trkpt lat="51.5449329" lon="7.3156775"/>
      <trkpt lat="51.5449334" lon="7.3159949"/>
      <trkpt lat="51.5452732" lon="7.3162522"/>
      <trkpt lat="51.5454385" lon="7.3163939"/>
      <trkpt lat="51.5455417" lon="7.3164996"/>
      <trkpt lat="51.5456299" lon="7.3166035"/>
      <trkpt lat="51.5457335" lon="7.3167433"/>
      <trkpt lat="51.5457915" lon="7.3168325"/>
      <trkpt lat="51.5458135" lon="7.3168663"/>
      <trkpt lat="51.5459586" lon="7.3171244"/>
      <trkpt lat="51.5464492" lon="7.3180998"/>
      <trkpt lat="51.5465730" lon="7.3182742"/>
      <trkpt lat="51.5467578" lon="7.3184681"/>
      <trkpt lat="51.5469501" lon="7.3185983"/>
      <trkpt lat="51.5470568" lon="7.3186513"/>
      <trkpt lat="51.5472962" lon="7.3187117"/>
      <trkpt lat="51.5475027" lon="7.3187524"/>
      <trkpt lat="51.5475320" lon="7.3187582"/>
      <trkpt lat="51.5476650" lon="7.3187714"/>
      <trkpt lat="51.5476510" lon="7.3190252"/>
      <trkpt lat="51.5477156" lon="7.3195222"/>
      <trkpt lat="51.5477470" lon="7.3197641"/>
      <trkpt lat="51.5477714" lon="7.3199910"/>
      <trkpt lat="51.5477749" lon="7.3201990"/>
      <trkpt lat="51.5477561" lon="7.3204980"/>
      <trkpt lat="51.5477504" lon="7.3206316"/>
      <trkpt lat="51.5476276" lon="7.3209971"/>
      <trkpt lat="51.5475039" lon="7.3213655"/>
      <trkpt lat="51.5471764" lon="7.3222955"/>
      <trkpt lat="51.5470007" lon="7.3228165"/>
      <trkpt lat="51.5466998" lon="7.3236862"/>
      <trkpt lat="51.5464071" lon="7.3245582"/>
      <trkpt lat="51.5463981" lon="7.3245953"/>
      <trkpt lat="51.5463323" lon="7.3247832"/>
      <trkpt lat="51.5461900" lon="7.3251441"/>
      <trkpt lat="51.5461102" lon="7.3253201"/>
      <trkpt lat="51.5460169" lon="7.3254897"/>
      <trkpt lat="51.5456548" lon="7.3261422"/>
      <trkpt lat="51.5453019" lon="7.3266956"/>
      <trkpt lat="51.5451520" lon="7.3269967"/>
      <trkpt lat="51.5450315" lon="7.3272978"/>
      <trkpt lat="51.5449888" lon="7.3274159"/>
      <trkpt lat="51.5448181" lon="7.3279108"/>
      <trkpt lat="51.5446461" lon="7.3283412"/>
      <trkpt lat="51.5445244" lon="7.3286001"/>
      <trkpt lat="51.5443713" lon="7.3288690"/>
      <trkpt lat="51.5442303" lon="7.3290814"/>
      <trkpt lat="51.5441656" lon="7.3291776"/>
      <trkpt lat="51.5438999" lon="7.3295297"/>
      <trkpt lat="51.5438610" lon="7.3295840"/>
      <trkpt lat="51.5436492" lon="7.3298673"/>
      <trkpt lat="51.5434373" lon="7.3301852"/>
      <trkpt lat="51.5431663" lon="7.3306147"/>
      <trkpt lat="51.5431131" lon="7.3307139"/>
      <trkpt lat="51.5429246" lon="7.3310653"/>
      <trkpt lat="51.5428133" lon="7.3312676"/>
      <trkpt lat="51.5427753" lon="7.3313473"/>
      <trkpt lat="51.5424707" lon="7.3319858"/>
      <trkpt lat="51.5423485" lon="7.3322894"/>
      <trkpt lat="51.5423104" lon="7.3323902"/>
      <trkpt lat="51.5422945" lon="7.3324399"/>
      <trkpt lat="51.5422697" lon="7.3325243"/>
      <trkpt lat="51.5422163" lon="7.3327016"/>
      <trkpt lat="51.5422053" lon="7.3327455"/>
      <trkpt lat="51.5421899" lon="7.3328510"/>
      <trkpt lat="51.5421888" lon="7.3329057"/>
      <trkpt lat="51.5421879" lon="7.3329532"/>
      <trkpt lat="51.5421380" lon="7.3329633"/>
      <trkpt lat="51.5421134" lon="7.3329819"/>
      <trkpt lat="51.5420919" lon="7.3330087"/>
      <trkpt lat="51.5420751" lon="7.3330412"/>
      <trkpt lat="51.5420629" lon="7.3330788"/>
      <trkpt lat="51.5420057" lon="7.3330402"/>
      <trkpt lat="51.5419915" lon="7.3330307"/>
      <trkpt lat="51.5419509" lon="7.3329992"/>
      <trkpt lat="51.5418697" lon="7.3328611"/>
      <trkpt lat="51.5416501" lon="7.3324933"/>
      <trkpt lat="51.5414340" lon="7.3321313"/>
      <trkpt lat="51.5413895" lon="7.3320608"/>
      <trkpt lat="51.5414397" lon="7.3319732"/>
      <trkpt lat="51.5414911" lon="7.3318909"/>
      <trkpt lat="51.5416391" lon="7.3315998"/>
      <trkpt lat="51.5417797" lon="7.3312750"/>
      <trkpt lat="51.5418128" lon="7.3310931"/>
      <trkpt lat="51.5418046" lon="7.3309308"/>
      <trkpt lat="51.5417515" lon="7.3307047"/>
      <trkpt lat="51.5416724" lon="7.3305087"/>
      <trkpt lat="51.5415946" lon="7.3303535"/>
      <trkpt lat="51.5413518" lon="7.3298675"/>
      <trkpt lat="51.5411438" lon="7.3295086"/>
      <trkpt lat="51.5410358" lon="7.3293153"/>
      <trkpt lat="51.5409321" lon="7.3291296"/>
      <trkpt lat="51.5406351" lon="7.3287526"/>
      <trkpt lat="51.5405944" lon="7.3287053"/>
      <trkpt lat="51.5404966" lon="7.3285916"/>
      <trkpt lat="51.5404021" lon="7.3284896"/>
      <trkpt lat="51.5399496" lon="7.3280267"/>
      <trkpt lat="51.5398287" lon="7.3278513"/>
      <trkpt lat="51.5397192" lon="7.3276161"/>
      <trkpt lat="51.5396140" lon="7.3272128"/>
      <trkpt lat="51.5395309" lon="7.3265862"/>
      <trkpt lat="51.5394580" lon="7.3259134"/>
      <trkpt lat="51.5394197" lon="7.3254876"/>
      <trkpt lat="51.5394102" lon="7.3253639"/>
      <trkpt lat="51.5393940" lon="7.3251311"/>
      <trkpt lat="51.5392813" lon="7.3251315"/>
      <trkpt lat="51.5387037" lon="7.3252577"/>
      <trkpt lat="51.5386563" lon="7.3252801"/>
      <trkpt lat="51.5385908" lon="7.3253281"/>
      <trkpt lat="51.5385406" lon="7.3253790"/>
      <trkpt lat="51.5384932" lon="7.3254354"/>
      <trkpt lat="51.5382082" lon="7.3258236"/>
      <trkpt lat="51.5381610" lon="7.3258783"/>
      <trkpt lat="51.5380926" lon="7.3259296"/>
      <trkpt lat="51.5380090" lon="7.3259745"/>
      <trkpt lat="51.5379131" lon="7.3260083"/>
      <trkpt lat="51.5377500" lon="7.3260231"/>
      <trkpt lat="51.5376316" lon="7.3259932"/>
      <trkpt lat="51.5373821" lon="7.3258778"/>
      <trkpt lat="51.5371067" lon="7.3258284"/>
      <trkpt lat="51.5375880" lon="7.3276810"/>
      <trkpt lat="51.5376504" lon="7.3279299"/>
    </trkseg>
  </trk>
</gpx>