<?xml version="1.0" encoding="UTF-8"?>
<gpx version="1.1" creator="Linienjagd Castrop-Rauxel" xmlns="http://www.topografix.com/GPX/1/1">
  <metadata><name>Linie 233 – komplette Linie</name><desc>Bus 233: Castrop-Rauxel, Henrichenburg Mitte =&gt; Recklinghausen Hauptbahnhof | 10.45 km | 24 Haltestellen</desc></metadata>
  <wpt lat="51.5998069" lon="7.3117148"><name>01 Henrichenburg Mitte</name><sym>Flag</sym></wpt>
  <wpt lat="51.5993845" lon="7.3059235"><name>02 Schöttelkamp</name><sym>Flag</sym></wpt>
  <wpt lat="51.6006811" lon="7.3001925"><name>03 Wartburg</name><sym>Flag</sym></wpt>
  <wpt lat="51.6017917" lon="7.2938026"><name>04 Emschertalweg</name><sym>Flag</sym></wpt>
  <wpt lat="51.6013215" lon="7.2841444"><name>05 Henrichenburger Straße Nr. 221</name><sym>Flag</sym></wpt>
  <wpt lat="51.6016801" lon="7.2788057"><name>06 Erlenweg</name><sym>Flag</sym></wpt>
  <wpt lat="51.6022917" lon="7.2735834"><name>07 Bladenhorster Straße</name><sym>Flag</sym></wpt>
  <wpt lat="51.6053709" lon="7.2729432"><name>08 Suderwich Bf</name><sym>Flag</sym></wpt>
  <wpt lat="51.6102027" lon="7.2703308"><name>09 Ickerottweg</name><sym>Flag</sym></wpt>
  <wpt lat="51.6096194" lon="7.2641778"><name>10 Lülfstraße</name><sym>Flag</sym></wpt>
  <wpt lat="51.6092477" lon="7.2619600"><name>11 Schulstraße</name><sym>Flag</sym></wpt>
  <wpt lat="51.6081360" lon="7.2552568"><name>12 Katharinenstraße</name><sym>Flag</sym></wpt>
  <wpt lat="51.6061258" lon="7.2459822"><name>13 Suderwichstraße Nr. 100</name><sym>Flag</sym></wpt>
  <wpt lat="51.6051546" lon="7.2413776"><name>14 Bergstraße</name><sym>Flag</sym></wpt>
  <wpt lat="51.6045660" lon="7.2378669"><name>15 Annastraße</name><sym>Flag</sym></wpt>
  <wpt lat="51.6034959" lon="7.2339781"><name>16 Suderwich-/Alte Grenzstraße</name><sym>Flag</sym></wpt>
  <wpt lat="51.6043655" lon="7.2284802"><name>17 Hoher Steinweg</name><sym>Flag</sym></wpt>
  <wpt lat="51.6033731" lon="7.2242239"><name>18 Nordseestraße</name><sym>Flag</sym></wpt>
  <wpt lat="51.6022005" lon="7.2172193"><name>19 Maybachstraße</name><sym>Flag</sym></wpt>
  <wpt lat="51.6040040" lon="7.2149407"><name>20 In den Heuwiesen</name><sym>Flag</sym></wpt>
  <wpt lat="51.6064263" lon="7.2127646"><name>21 Hubertusstraße</name><sym>Flag</sym></wpt>
  <wpt lat="51.6091589" lon="7.2102454"><name>22 Hillen</name><sym>Flag</sym></wpt>
  <wpt lat="51.6123814" lon="7.2061151"><name>23 Neue Philharmonie Westfalen</name><sym>Flag</sym></wpt>
  <wpt lat="51.6159812" lon="7.2021393"><name>24 Recklinghausen Hauptbahnhof</name><sym>Flag</sym></wpt>
  <trk><name>Linie 233 – komplette Linie</name>
    <trkseg>
      <trkpt lat="51.5998069" lon="7.3117148"/>
      <trkpt lat="51.5999239" lon="7.3117635"/>
      <trkpt lat="51.6001193" lon="7.3118449"/>
      <trkpt lat="51.6003510" lon="7.3119414"/>
      <trkpt lat="51.6003222" lon="7.3121119"/>
      <trkpt lat="51.6001474" lon="7.3131469"/>
      <trkpt lat="51.6001152" lon="7.3133029"/>
      <trkpt lat="51.6000110" lon="7.3132407"/>
      <trkpt lat="51.5998988" lon="7.3131726"/>
      <trkpt lat="51.5997267" lon="7.3130471"/>
      <trkpt lat="51.5996418" lon="7.3129721"/>
      <trkpt lat="51.5995850" lon="7.3129219"/>
      <trkpt lat="51.5993498" lon="7.3127142"/>
      <trkpt lat="51.5993000" lon="7.3125802"/>
      <trkpt lat="51.5992400" lon="7.3124877"/>
      <trkpt lat="51.5991821" lon="7.3123831"/>
      <trkpt lat="51.5991305" lon="7.3122583"/>
      <trkpt lat="51.5991196" lon="7.3122258"/>
      <trkpt lat="51.5990778" lon="7.3121609"/>
      <trkpt lat="51.5990638" lon="7.3120236"/>
      <trkpt lat="51.5990488" lon="7.3118801"/>
      <trkpt lat="51.5990380" lon="7.3117159"/>
      <trkpt lat="51.5990188" lon="7.3115719"/>
      <trkpt lat="51.5990196" lon="7.3114019"/>
      <trkpt lat="51.5990306" lon="7.3109514"/>
      <trkpt lat="51.5990332" lon="7.3108426"/>
      <trkpt lat="51.5990355" lon="7.3107481"/>
      <trkpt lat="51.5990417" lon="7.3104955"/>
      <trkpt lat="51.5990435" lon="7.3104183"/>
      <trkpt lat="51.5990480" lon="7.3102313"/>
      <trkpt lat="51.5990542" lon="7.3099785"/>
      <trkpt lat="51.5991066" lon="7.3093875"/>
      <trkpt lat="51.5991791" lon="7.3087863"/>
      <trkpt lat="51.5992513" lon="7.3082353"/>
      <trkpt lat="51.5992860" lon="7.3080386"/>
      <trkpt lat="51.5993222" lon="7.3078523"/>
      <trkpt lat="51.5993902" lon="7.3074386"/>
      <trkpt lat="51.5994011" lon="7.3071616"/>
      <trkpt lat="51.5993963" lon="7.3067426"/>
      <trkpt lat="51.5993919" lon="7.3063724"/>
      <trkpt lat="51.5993895" lon="7.3061645"/>
      <trkpt lat="51.5993845" lon="7.3059235"/>
      <trkpt lat="51.5993824" lon="7.3058328"/>
      <trkpt lat="51.5993808" lon="7.3057602"/>
      <trkpt lat="51.5993766" lon="7.3056244"/>
      <trkpt lat="51.5993591" lon="7.3052966"/>
      <trkpt lat="51.5993509" lon="7.3051320"/>
      <trkpt lat="51.5993188" lon="7.3048909"/>
      <trkpt lat="51.5992237" lon="7.3045514"/>
      <trkpt lat="51.5991443" lon="7.3043322"/>
      <trkpt lat="51.5990013" lon="7.3039449"/>
      <trkpt lat="51.5988152" lon="7.3034325"/>
      <trkpt lat="51.5987651" lon="7.3032375"/>
      <trkpt lat="51.5987177" lon="7.3026643"/>
      <trkpt lat="51.5987048" lon="7.3025438"/>
      <trkpt lat="51.5991441" lon="7.3024659"/>
      <trkpt lat="51.5992226" lon="7.3024290"/>
      <trkpt lat="51.5993130" lon="7.3023506"/>
      <trkpt lat="51.5994292" lon="7.3022101"/>
      <trkpt lat="51.5998511" lon="7.3016249"/>
      <trkpt lat="51.5999506" lon="7.3014754"/>
      <trkpt lat="51.6000083" lon="7.3013376"/>
      <trkpt lat="51.6000460" lon="7.3012069"/>
      <trkpt lat="51.6000631" lon="7.3011478"/>
      <trkpt lat="51.6001478" lon="7.3009431"/>
      <trkpt lat="51.6002566" lon="7.3007645"/>
      <trkpt lat="51.6003696" lon="7.3006187"/>
      <trkpt lat="51.6004463" lon="7.3005149"/>
      <trkpt lat="51.6005273" lon="7.3004011"/>
      <trkpt lat="51.6005347" lon="7.3003909"/>
      <trkpt lat="51.6005843" lon="7.3003218"/>
      <trkpt lat="51.6006811" lon="7.3001925"/>
      <trkpt lat="51.6009911" lon="7.2997588"/>
      <trkpt lat="51.6012450" lon="7.2994030"/>
      <trkpt lat="51.6014607" lon="7.2991123"/>
      <trkpt lat="51.6016828" lon="7.2988159"/>
      <trkpt lat="51.6020436" lon="7.2984879"/>
      <trkpt lat="51.6025505" lon="7.2981470"/>
      <trkpt lat="51.6029380" lon="7.2978840"/>
      <trkpt lat="51.6031091" lon="7.2977742"/>
      <trkpt lat="51.6032196" lon="7.2977126"/>
      <trkpt lat="51.6030368" lon="7.2970540"/>
      <trkpt lat="51.6028688" lon="7.2965702"/>
      <trkpt lat="51.6026394" lon="7.2959764"/>
      <trkpt lat="51.6018097" lon="7.2938507"/>
      <trkpt lat="51.6017917" lon="7.2938026"/>
      <trkpt lat="51.6016632" lon="7.2934752"/>
      <trkpt lat="51.6014844" lon="7.2930094"/>
      <trkpt lat="51.6013431" lon="7.2926414"/>
      <trkpt lat="51.6012459" lon="7.2923915"/>
      <trkpt lat="51.6011534" lon="7.2921253"/>
      <trkpt lat="51.6011064" lon="7.2919686"/>
      <trkpt lat="51.6010441" lon="7.2917610"/>
      <trkpt lat="51.6009911" lon="7.2915602"/>
      <trkpt lat="51.6009501" lon="7.2913691"/>
      <trkpt lat="51.6009143" lon="7.2911487"/>
      <trkpt lat="51.6009001" lon="7.2910412"/>
      <trkpt lat="51.6008897" lon="7.2908017"/>
      <trkpt lat="51.6009028" lon="7.2904441"/>
      <trkpt lat="51.6010121" lon="7.2887936"/>
      <trkpt lat="51.6011041" lon="7.2874034"/>
      <trkpt lat="51.6011368" lon="7.2869094"/>
      <trkpt lat="51.6011767" lon="7.2863160"/>
      <trkpt lat="51.6011871" lon="7.2861722"/>
      <trkpt lat="51.6012170" lon="7.2857203"/>
      <trkpt lat="51.6012190" lon="7.2856899"/>
      <trkpt lat="51.6012222" lon="7.2856424"/>
      <trkpt lat="51.6012836" lon="7.2847270"/>
      <trkpt lat="51.6013138" lon="7.2842550"/>
      <trkpt lat="51.6013215" lon="7.2841444"/>
      <trkpt lat="51.6014795" lon="7.2817082"/>
      <trkpt lat="51.6015629" lon="7.2805007"/>
      <trkpt lat="51.6015661" lon="7.2804438"/>
      <trkpt lat="51.6016015" lon="7.2798744"/>
      <trkpt lat="51.6016071" lon="7.2797983"/>
      <trkpt lat="51.6016478" lon="7.2792454"/>
      <trkpt lat="51.6016801" lon="7.2788057"/>
      <trkpt lat="51.6016839" lon="7.2787717"/>
      <trkpt lat="51.6016862" lon="7.2787345"/>
      <trkpt lat="51.6017250" lon="7.2781188"/>
      <trkpt lat="51.6017348" lon="7.2775169"/>
      <trkpt lat="51.6017380" lon="7.2770127"/>
      <trkpt lat="51.6017415" lon="7.2764624"/>
      <trkpt lat="51.6017520" lon="7.2744979"/>
      <trkpt lat="51.6017667" lon="7.2740213"/>
      <trkpt lat="51.6017806" lon="7.2738874"/>
      <trkpt lat="51.6018203" lon="7.2738859"/>
      <trkpt lat="51.6018567" lon="7.2738598"/>
      <trkpt lat="51.6018840" lon="7.2738133"/>
      <trkpt lat="51.6018982" lon="7.2737534"/>
      <trkpt lat="51.6018969" lon="7.2736894"/>
      <trkpt lat="51.6019741" lon="7.2736605"/>
      <trkpt lat="51.6020977" lon="7.2736131"/>
      <trkpt lat="51.6022256" lon="7.2735973"/>
      <trkpt lat="51.6022917" lon="7.2735834"/>
      <trkpt lat="51.6025990" lon="7.2735282"/>
      <trkpt lat="51.6028531" lon="7.2734744"/>
      <trkpt lat="51.6030760" lon="7.2734273"/>
      <trkpt lat="51.6035776" lon="7.2733233"/>
      <trkpt lat="51.6039580" lon="7.2732521"/>
      <trkpt lat="51.6045667" lon="7.2731134"/>
      <trkpt lat="51.6045981" lon="7.2731079"/>
      <trkpt lat="51.6051541" lon="7.2729876"/>
      <trkpt lat="51.6053709" lon="7.2729432"/>
      <trkpt lat="51.6055709" lon="7.2728982"/>
      <trkpt lat="51.6056435" lon="7.2728822"/>
      <trkpt lat="51.6057810" lon="7.2728551"/>
      <trkpt lat="51.6059841" lon="7.2728113"/>
      <trkpt lat="51.6060242" lon="7.2728035"/>
      <trkpt lat="51.6061849" lon="7.2727816"/>
      <trkpt lat="51.6062791" lon="7.2727691"/>
      <trkpt lat="51.6065554" lon="7.2727283"/>
      <trkpt lat="51.6066834" lon="7.2727085"/>
      <trkpt lat="51.6068639" lon="7.2727063"/>
      <trkpt lat="51.6071994" lon="7.2727219"/>
      <trkpt lat="51.6075260" lon="7.2726873"/>
      <trkpt lat="51.6077158" lon="7.2726046"/>
      <trkpt lat="51.6080637" lon="7.2724011"/>
      <trkpt lat="51.6083226" lon="7.2722472"/>
      <trkpt lat="51.6084372" lon="7.2721773"/>
      <trkpt lat="51.6084919" lon="7.2721465"/>
      <trkpt lat="51.6087333" lon="7.2720031"/>
      <trkpt lat="51.6091112" lon="7.2717243"/>
      <trkpt lat="51.6092587" lon="7.2715820"/>
      <trkpt lat="51.6093560" lon="7.2714838"/>
      <trkpt lat="51.6096202" lon="7.2711566"/>
      <trkpt lat="51.6098559" lon="7.2708114"/>
      <trkpt lat="51.6101329" lon="7.2704248"/>
      <trkpt lat="51.6102027" lon="7.2703308"/>
      <trkpt lat="51.6103274" lon="7.2701505"/>
      <trkpt lat="51.6104209" lon="7.2700182"/>
      <trkpt lat="51.6104991" lon="7.2699060"/>
      <trkpt lat="51.6105239" lon="7.2698380"/>
      <trkpt lat="51.6105362" lon="7.2697574"/>
      <trkpt lat="51.6105348" lon="7.2696855"/>
      <trkpt lat="51.6105301" lon="7.2696338"/>
      <trkpt lat="51.6105134" lon="7.2695324"/>
      <trkpt lat="51.6104107" lon="7.2689219"/>
      <trkpt lat="51.6104033" lon="7.2688779"/>
      <trkpt lat="51.6103217" lon="7.2683921"/>
      <trkpt lat="51.6102410" lon="7.2679127"/>
      <trkpt lat="51.6101157" lon="7.2671673"/>
      <trkpt lat="51.6101035" lon="7.2670887"/>
      <trkpt lat="51.6097474" lon="7.2649539"/>
      <trkpt lat="51.6097170" lon="7.2647723"/>
      <trkpt lat="51.6096914" lon="7.2646077"/>
      <trkpt lat="51.6096640" lon="7.2644441"/>
      <trkpt lat="51.6096194" lon="7.2641778"/>
      <trkpt lat="51.6095154" lon="7.2635574"/>
      <trkpt lat="51.6093747" lon="7.2627179"/>
      <trkpt lat="51.6093007" lon="7.2622763"/>
      <trkpt lat="51.6092614" lon="7.2620418"/>
      <trkpt lat="51.6092477" lon="7.2619600"/>
      <trkpt lat="51.6092099" lon="7.2617347"/>
      <trkpt lat="51.6091899" lon="7.2616154"/>
      <trkpt lat="51.6091635" lon="7.2614578"/>
      <trkpt lat="51.6091350" lon="7.2612725"/>
      <trkpt lat="51.6090788" lon="7.2609644"/>
      <trkpt lat="51.6090413" lon="7.2608337"/>
      <trkpt lat="51.6090018" lon="7.2606982"/>
      <trkpt lat="51.6090281" lon="7.2606579"/>
      <trkpt lat="51.6090440" lon="7.2606054"/>
      <trkpt lat="51.6090475" lon="7.2605472"/>
      <trkpt lat="51.6090381" lon="7.2604908"/>
      <trkpt lat="51.6090171" lon="7.2604431"/>
      <trkpt lat="51.6089871" lon="7.2604103"/>
      <trkpt lat="51.6089518" lon="7.2603964"/>
      <trkpt lat="51.6089593" lon="7.2602670"/>
      <trkpt lat="51.6089524" lon="7.2601669"/>
      <trkpt lat="51.6086789" lon="7.2585511"/>
      <trkpt lat="51.6084886" lon="7.2574242"/>
      <trkpt lat="51.6081704" lon="7.2554705"/>
      <trkpt lat="51.6081360" lon="7.2552568"/>
      <trkpt lat="51.6081240" lon="7.2551800"/>
      <trkpt lat="51.6080595" lon="7.2548109"/>
      <trkpt lat="51.6080069" lon="7.2545131"/>
      <trkpt lat="51.6079593" lon="7.2542422"/>
      <trkpt lat="51.6077481" lon="7.2530260"/>
      <trkpt lat="51.6073510" lon="7.2506266"/>
      <trkpt lat="51.6072734" lon="7.2501750"/>
      <trkpt lat="51.6072537" lon="7.2500537"/>
      <trkpt lat="51.6071497" lon="7.2494149"/>
      <trkpt lat="51.6070760" lon="7.2490877"/>
      <trkpt lat="51.6066990" lon="7.2478489"/>
      <trkpt lat="51.6065675" lon="7.2474235"/>
      <trkpt lat="51.6063147" lon="7.2466060"/>
      <trkpt lat="51.6062337" lon="7.2463385"/>
      <trkpt lat="51.6062245" lon="7.2463080"/>
      <trkpt lat="51.6061258" lon="7.2459822"/>
      <trkpt lat="51.6059629" lon="7.2454440"/>
      <trkpt lat="51.6059084" lon="7.2452491"/>
      <trkpt lat="51.6058356" lon="7.2449889"/>
      <trkpt lat="51.6057598" lon="7.2447177"/>
      <trkpt lat="51.6056470" lon="7.2441512"/>
      <trkpt lat="51.6054956" lon="7.2433668"/>
      <trkpt lat="51.6054622" lon="7.2431755"/>
      <trkpt lat="51.6054473" lon="7.2430881"/>
      <trkpt lat="51.6054317" lon="7.2430008"/>
      <trkpt lat="51.6051808" lon="7.2415274"/>
      <trkpt lat="51.6051546" lon="7.2413776"/>
      <trkpt lat="51.6050377" lon="7.2406812"/>
      <trkpt lat="51.6049742" lon="7.2402863"/>
      <trkpt lat="51.6046882" lon="7.2385663"/>
      <trkpt lat="51.6045935" lon="7.2380242"/>
      <trkpt lat="51.6045660" lon="7.2378669"/>
      <trkpt lat="51.6045099" lon="7.2375689"/>
      <trkpt lat="51.6044673" lon="7.2373924"/>
      <trkpt lat="51.6043607" lon="7.2369710"/>
      <trkpt lat="51.6042137" lon="7.2364303"/>
      <trkpt lat="51.6038947" lon="7.2351856"/>
      <trkpt lat="51.6038056" lon="7.2348586"/>
      <trkpt lat="51.6037037" lon="7.2345398"/>
      <trkpt lat="51.6036559" lon="7.2344116"/>
      <trkpt lat="51.6035717" lon="7.2341762"/>
      <trkpt lat="51.6035260" lon="7.2340514"/>
      <trkpt lat="51.6034959" lon="7.2339781"/>
      <trkpt lat="51.6034631" lon="7.2338979"/>
      <trkpt lat="51.6034042" lon="7.2337487"/>
      <trkpt lat="51.6033642" lon="7.2336393"/>
      <trkpt lat="51.6032773" lon="7.2333705"/>
      <trkpt lat="51.6032602" lon="7.2332363"/>
      <trkpt lat="51.6032421" lon="7.2330945"/>
      <trkpt lat="51.6032486" lon="7.2330413"/>
      <trkpt lat="51.6032697" lon="7.2328683"/>
      <trkpt lat="51.6033645" lon="7.2325928"/>
      <trkpt lat="51.6035426" lon="7.2322152"/>
      <trkpt lat="51.6037795" lon="7.2317129"/>
      <trkpt lat="51.6042008" lon="7.2308460"/>
      <trkpt lat="51.6043393" lon="7.2305324"/>
      <trkpt lat="51.6044266" lon="7.2301780"/>
      <trkpt lat="51.6044571" lon="7.2299713"/>
      <trkpt lat="51.6044732" lon="7.2297389"/>
      <trkpt lat="51.6044581" lon="7.2294181"/>
      <trkpt lat="51.6044561" lon="7.2293757"/>
      <trkpt lat="51.6044282" lon="7.2290009"/>
      <trkpt lat="51.6043655" lon="7.2284802"/>
      <trkpt lat="51.6043228" lon="7.2282163"/>
      <trkpt lat="51.6042426" lon="7.2277231"/>
      <trkpt lat="51.6041702" lon="7.2273965"/>
      <trkpt lat="51.6039420" lon="7.2265117"/>
      <trkpt lat="51.6038729" lon="7.2262557"/>
      <trkpt lat="51.6036201" lon="7.2253208"/>
      <trkpt lat="51.6035658" lon="7.2251197"/>
      <trkpt lat="51.6035093" lon="7.2249006"/>
      <trkpt lat="51.6034550" lon="7.2246567"/>
      <trkpt lat="51.6033731" lon="7.2242239"/>
      <trkpt lat="51.6031653" lon="7.2232094"/>
      <trkpt lat="51.6031361" lon="7.2230611"/>
      <trkpt lat="51.6029594" lon="7.2222120"/>
      <trkpt lat="51.6027328" lon="7.2215447"/>
      <trkpt lat="51.6021772" lon="7.2201023"/>
      <trkpt lat="51.6021116" lon="7.2199614"/>
      <trkpt lat="51.6020584" lon="7.2198436"/>
      <trkpt lat="51.6019215" lon="7.2194767"/>
      <trkpt lat="51.6018030" lon="7.2191096"/>
      <trkpt lat="51.6017408" lon="7.2188129"/>
      <trkpt lat="51.6016787" lon="7.2184726"/>
      <trkpt lat="51.6016631" lon="7.2183351"/>
      <trkpt lat="51.6016954" lon="7.2183212"/>
      <trkpt lat="51.6017237" lon="7.2182928"/>
      <trkpt lat="51.6017455" lon="7.2182522"/>
      <trkpt lat="51.6017591" lon="7.2182032"/>
      <trkpt lat="51.6017631" lon="7.2181498"/>
      <trkpt lat="51.6017573" lon="7.2180970"/>
      <trkpt lat="51.6017421" lon="7.2180492"/>
      <trkpt lat="51.6017188" lon="7.2180106"/>
      <trkpt lat="51.6017630" lon="7.2178935"/>
      <trkpt lat="51.6018684" lon="7.2176745"/>
      <trkpt lat="51.6019893" lon="7.2174672"/>
      <trkpt lat="51.6020190" lon="7.2174182"/>
      <trkpt lat="51.6022005" lon="7.2172193"/>
      <trkpt lat="51.6023710" lon="7.2170656"/>
      <trkpt lat="51.6024435" lon="7.2170026"/>
      <trkpt lat="51.6026517" lon="7.2168218"/>
      <trkpt lat="51.6030284" lon="7.2164682"/>
      <trkpt lat="51.6032538" lon="7.2161901"/>
      <trkpt lat="51.6032909" lon="7.2161329"/>
      <trkpt lat="51.6033194" lon="7.2160783"/>
      <trkpt lat="51.6036068" lon="7.2155957"/>
      <trkpt lat="51.6037959" lon="7.2152758"/>
      <trkpt lat="51.6039321" lon="7.2150583"/>
      <trkpt lat="51.6040040" lon="7.2149407"/>
      <trkpt lat="51.6042687" lon="7.2145335"/>
      <trkpt lat="51.6044832" lon="7.2142405"/>
      <trkpt lat="51.6046838" lon="7.2140018"/>
      <trkpt lat="51.6048723" lon="7.2138193"/>
      <trkpt lat="51.6050107" lon="7.2137349"/>
      <trkpt lat="51.6054852" lon="7.2134458"/>
      <trkpt lat="51.6056252" lon="7.2133624"/>
      <trkpt lat="51.6059785" lon="7.2131267"/>
      <trkpt lat="51.6060189" lon="7.2130976"/>
      <trkpt lat="51.6061695" lon="7.2129725"/>
      <trkpt lat="51.6064048" lon="7.2127833"/>
      <trkpt lat="51.6064263" lon="7.2127646"/>
      <trkpt lat="51.6064759" lon="7.2127191"/>
      <trkpt lat="51.6065450" lon="7.2126612"/>
      <trkpt lat="51.6066026" lon="7.2126130"/>
      <trkpt lat="51.6067923" lon="7.2124468"/>
      <trkpt lat="51.6068442" lon="7.2123992"/>
      <trkpt lat="51.6069968" lon="7.2122657"/>
      <trkpt lat="51.6071221" lon="7.2121442"/>
      <trkpt lat="51.6073373" lon="7.2118878"/>
      <trkpt lat="51.6074154" lon="7.2117828"/>
      <trkpt lat="51.6077257" lon="7.2113945"/>
      <trkpt lat="51.6079234" lon="7.2111688"/>
      <trkpt lat="51.6083821" lon="7.2106931"/>
      <trkpt lat="51.6086540" lon="7.2104886"/>
      <trkpt lat="51.6091033" lon="7.2102606"/>
      <trkpt lat="51.6091589" lon="7.2102454"/>
      <trkpt lat="51.6095557" lon="7.2101406"/>
      <trkpt lat="51.6097708" lon="7.2100884"/>
      <trkpt lat="51.6099281" lon="7.2100313"/>
      <trkpt lat="51.6100921" lon="7.2099210"/>
      <trkpt lat="51.6102055" lon="7.2097900"/>
      <trkpt lat="51.6103289" lon="7.2095497"/>
      <trkpt lat="51.6104366" lon="7.2093043"/>
      <trkpt lat="51.6106015" lon="7.2090184"/>
      <trkpt lat="51.6107141" lon="7.2088034"/>
      <trkpt lat="51.6107397" lon="7.2087563"/>
      <trkpt lat="51.6108082" lon="7.2086447"/>
      <trkpt lat="51.6108921" lon="7.2085137"/>
      <trkpt lat="51.6109751" lon="7.2083737"/>
      <trkpt lat="51.6111976" lon="7.2080271"/>
      <trkpt lat="51.6112546" lon="7.2078892"/>
      <trkpt lat="51.6115058" lon="7.2074699"/>
      <trkpt lat="51.6115431" lon="7.2074128"/>
      <trkpt lat="51.6115710" lon="7.2073668"/>
      <trkpt lat="51.6116259" lon="7.2072760"/>
      <trkpt lat="51.6119981" lon="7.2066939"/>
      <trkpt lat="51.6121192" lon="7.2065172"/>
      <trkpt lat="51.6123814" lon="7.2061151"/>
      <trkpt lat="51.6124303" lon="7.2060352"/>
      <trkpt lat="51.6127273" lon="7.2055353"/>
      <trkpt lat="51.6128105" lon="7.2053953"/>
      <trkpt lat="51.6128472" lon="7.2053335"/>
      <trkpt lat="51.6129340" lon="7.2051959"/>
      <trkpt lat="51.6130673" lon="7.2049844"/>
      <trkpt lat="51.6132208" lon="7.2047448"/>
      <trkpt lat="51.6132716" lon="7.2046656"/>
      <trkpt lat="51.6133818" lon="7.2045244"/>
      <trkpt lat="51.6135279" lon="7.2043629"/>
      <trkpt lat="51.6137474" lon="7.2041743"/>
      <trkpt lat="51.6141936" lon="7.2038294"/>
      <trkpt lat="51.6143631" lon="7.2036893"/>
      <trkpt lat="51.6144453" lon="7.2035689"/>
      <trkpt lat="51.6145114" lon="7.2034759"/>
      <trkpt lat="51.6145436" lon="7.2035067"/>
      <trkpt lat="51.6145808" lon="7.2035137"/>
      <trkpt lat="51.6146165" lon="7.2034958"/>
      <trkpt lat="51.6146446" lon="7.2034559"/>
      <trkpt lat="51.6146617" lon="7.2033884"/>
      <trkpt lat="51.6146561" lon="7.2033160"/>
      <trkpt lat="51.6146294" lon="7.2032572"/>
      <trkpt lat="51.6145882" lon="7.2032267"/>
      <trkpt lat="51.6146108" lon="7.2031222"/>
      <trkpt lat="51.6146297" lon="7.2029065"/>
      <trkpt lat="51.6146393" lon="7.2027434"/>
      <trkpt lat="51.6146514" lon="7.2026861"/>
      <trkpt lat="51.6147726" lon="7.2023264"/>
      <trkpt lat="51.6148318" lon="7.2021597"/>
      <trkpt lat="51.6148712" lon="7.2020478"/>
      <trkpt lat="51.6149262" lon="7.2019427"/>
      <trkpt lat="51.6150222" lon="7.2018513"/>
      <trkpt lat="51.6150727" lon="7.2018960"/>
      <trkpt lat="51.6152055" lon="7.2018608"/>
      <trkpt lat="51.6153037" lon="7.2018281"/>
      <trkpt lat="51.6154024" lon="7.2017629"/>
      <trkpt lat="51.6155089" lon="7.2016805"/>
      <trkpt lat="51.6156073" lon="7.2015657"/>
      <trkpt lat="51.6156317" lon="7.2015363"/>
      <trkpt lat="51.6156561" lon="7.2015068"/>
      <trkpt lat="51.6157821" lon="7.2013734"/>
      <trkpt lat="51.6158151" lon="7.2013268"/>
      <trkpt lat="51.6158525" lon="7.2012859"/>
      <trkpt lat="51.6158784" lon="7.2012576"/>
      <trkpt lat="51.6159151" lon="7.2012243"/>
      <trkpt lat="51.6159781" lon="7.2012111"/>
      <trkpt lat="51.6160278" lon="7.2012281"/>
      <trkpt lat="51.6160745" lon="7.2012652"/>
      <trkpt lat="51.6161176" lon="7.2013382"/>
      <trkpt lat="51.6161793" lon="7.2015128"/>
      <trkpt lat="51.6162586" lon="7.2017556"/>
      <trkpt lat="51.6162708" lon="7.2017909"/>
      <trkpt lat="51.6163702" lon="7.2020999"/>
      <trkpt lat="51.6164229" lon="7.2022566"/>
      <trkpt lat="51.6164294" lon="7.2022760"/>
      <trkpt lat="51.6164542" lon="7.2023758"/>
      <trkpt lat="51.6164563" lon="7.2025211"/>
      <trkpt lat="51.6164436" lon="7.2025711"/>
      <trkpt lat="51.6164347" lon="7.2026063"/>
      <trkpt lat="51.6163998" lon="7.2026595"/>
      <trkpt lat="51.6163810" lon="7.2026899"/>
      <trkpt lat="51.6163518" lon="7.2027092"/>
      <trkpt lat="51.6163018" lon="7.2027257"/>
      <trkpt lat="51.6162636" lon="7.2027299"/>
      <trkpt lat="51.6162584" lon="7.2027296"/>
      <trkpt lat="51.6162394" lon="7.2027285"/>
      <trkpt lat="51.6161779" lon="7.2026805"/>
      <trkpt lat="51.6161299" lon="7.2026033"/>
      <trkpt lat="51.6160770" lon="7.2024436"/>
      <trkpt lat="51.6160602" lon="7.2023923"/>
      <trkpt lat="51.6159812" lon="7.2021393"/>
    </trkseg>
  </trk>
</gpx>