<?xml version="1.0" encoding="UTF-8"?>
<gpx version="1.1" creator="Linienjagd Castrop-Rauxel" xmlns="http://www.topografix.com/GPX/1/1">
  <metadata><name>Linie 311 – komplette Linie</name><desc>Bus 311: Castrop-Rauxel Münsterplatz =&gt; Teutoburgia =&gt; Herne Bahnhof | 9.87 km | 21 Haltestellen</desc></metadata>
  <wpt lat="51.5493442" lon="7.3089234"><name>01 Castrop Münsterplatz</name><sym>Flag</sym></wpt>
  <wpt lat="51.5501421" lon="7.3018211"><name>02 Dammstraße</name><sym>Flag</sym></wpt>
  <wpt lat="51.5502192" lon="7.2967307"><name>03 Daimlerstraße</name><sym>Flag</sym></wpt>
  <wpt lat="51.5493414" lon="7.2846136"><name>04 Bruchstraße</name><sym>Flag</sym></wpt>
  <wpt lat="51.5486832" lon="7.2790732"><name>05 Holthausen Mitte</name><sym>Flag</sym></wpt>
  <wpt lat="51.5487842" lon="7.2753846"><name>06 Baarestraße</name><sym>Flag</sym></wpt>
  <wpt lat="51.5519328" lon="7.2728028"><name>07 Teutoburgia</name><sym>Flag</sym></wpt>
  <wpt lat="51.5525114" lon="7.2684899"><name>08 Schadeburgstraße/Börnig Bf</name><sym>Flag</sym></wpt>
  <wpt lat="51.5494542" lon="7.2662664"><name>09 Vellwigstraße</name><sym>Flag</sym></wpt>
  <wpt lat="51.5483602" lon="7.2621753"><name>10 An der Linde</name><sym>Flag</sym></wpt>
  <wpt lat="51.5440429" lon="7.2600267"><name>11 Widumer Straße</name><sym>Flag</sym></wpt>
  <wpt lat="51.5391914" lon="7.2570687"><name>12 Akademie Mont-Cenis</name><sym>Flag</sym></wpt>
  <wpt lat="51.5384294" lon="7.2538857"><name>13 Kantstraße</name><sym>Flag</sym></wpt>
  <wpt lat="51.5377435" lon="7.2491077"><name>14 Ostbachtal</name><sym>Flag</sym></wpt>
  <wpt lat="51.5397033" lon="7.2428079"><name>15 Granitstraße</name><sym>Flag</sym></wpt>
  <wpt lat="51.5410648" lon="7.2370103"><name>16 Am Stadtgarten</name><sym>Flag</sym></wpt>
  <wpt lat="51.5395870" lon="7.2325419"><name>17 Schillerstraße</name><sym>Flag</sym></wpt>
  <wpt lat="51.5357158" lon="7.2253523"><name>18 Archäologie-Museum/Kreuzkirche</name><sym>Flag</sym></wpt>
  <wpt lat="51.5382328" lon="7.2218703"><name>19 Sparkasse</name><sym>Flag</sym></wpt>
  <wpt lat="51.5409774" lon="7.2210059"><name>20 Herne Mitte</name><sym>Flag</sym></wpt>
  <wpt lat="51.5447778" lon="7.2178669"><name>21 Herne Bahnhof</name><sym>Flag</sym></wpt>
  <trk><name>Linie 311 – komplette Linie</name>
    <trkseg>
      <trkpt lat="51.5491719" lon="7.3085843"/>
      <trkpt lat="51.5492175" lon="7.3086793"/>
      <trkpt lat="51.5493265" lon="7.3088877"/>
      <trkpt lat="51.5493442" lon="7.3089234"/>
      <trkpt lat="51.5493716" lon="7.3089642"/>
      <trkpt lat="51.5494510" lon="7.3090787"/>
      <trkpt lat="51.5495623" lon="7.3092147"/>
      <trkpt lat="51.5497556" lon="7.3093970"/>
      <trkpt lat="51.5497782" lon="7.3094102"/>
      <trkpt lat="51.5498277" lon="7.3094217"/>
      <trkpt lat="51.5498778" lon="7.3094213"/>
      <trkpt lat="51.5499216" lon="7.3092632"/>
      <trkpt lat="51.5500183" lon="7.3088689"/>
      <trkpt lat="51.5500861" lon="7.3085592"/>
      <trkpt lat="51.5501360" lon="7.3083809"/>
      <trkpt lat="51.5502664" lon="7.3076791"/>
      <trkpt lat="51.5502938" lon="7.3074757"/>
      <trkpt lat="51.5503145" lon="7.3072911"/>
      <trkpt lat="51.5503156" lon="7.3071179"/>
      <trkpt lat="51.5503013" lon="7.3069551"/>
      <trkpt lat="51.5502437" lon="7.3066489"/>
      <trkpt lat="51.5501993" lon="7.3062938"/>
      <trkpt lat="51.5501419" lon="7.3055598"/>
      <trkpt lat="51.5501234" lon="7.3052619"/>
      <trkpt lat="51.5501131" lon="7.3049542"/>
      <trkpt lat="51.5501087" lon="7.3046653"/>
      <trkpt lat="51.5501104" lon="7.3040843"/>
      <trkpt lat="51.5501269" lon="7.3035107"/>
      <trkpt lat="51.5501339" lon="7.3033578"/>
      <trkpt lat="51.5501449" lon="7.3031478"/>
      <trkpt lat="51.5501535" lon="7.3029778"/>
      <trkpt lat="51.5501629" lon="7.3027468"/>
      <trkpt lat="51.5501667" lon="7.3026596"/>
      <trkpt lat="51.5501668" lon="7.3024374"/>
      <trkpt lat="51.5501622" lon="7.3023610"/>
      <trkpt lat="51.5501516" lon="7.3021774"/>
      <trkpt lat="51.5501421" lon="7.3018211"/>
      <trkpt lat="51.5501312" lon="7.3016156"/>
      <trkpt lat="51.5501274" lon="7.3014372"/>
      <trkpt lat="51.5501261" lon="7.3013229"/>
      <trkpt lat="51.5501387" lon="7.3010359"/>
      <trkpt lat="51.5501587" lon="7.3007312"/>
      <trkpt lat="51.5501738" lon="7.3006099"/>
      <trkpt lat="51.5501909" lon="7.3004728"/>
      <trkpt lat="51.5501994" lon="7.3004051"/>
      <trkpt lat="51.5502312" lon="7.3001659"/>
      <trkpt lat="51.5502378" lon="7.3001065"/>
      <trkpt lat="51.5503061" lon="7.2994975"/>
      <trkpt lat="51.5503110" lon="7.2994534"/>
      <trkpt lat="51.5503197" lon="7.2992928"/>
      <trkpt lat="51.5503234" lon="7.2992235"/>
      <trkpt lat="51.5503279" lon="7.2991390"/>
      <trkpt lat="51.5503301" lon="7.2990069"/>
      <trkpt lat="51.5503340" lon="7.2987665"/>
      <trkpt lat="51.5503172" lon="7.2984085"/>
      <trkpt lat="51.5503056" lon="7.2982091"/>
      <trkpt lat="51.5502727" lon="7.2977507"/>
      <trkpt lat="51.5502385" lon="7.2971907"/>
      <trkpt lat="51.5502208" lon="7.2967698"/>
      <trkpt lat="51.5502192" lon="7.2967307"/>
      <trkpt lat="51.5502165" lon="7.2966656"/>
      <trkpt lat="51.5502105" lon="7.2965231"/>
      <trkpt lat="51.5502094" lon="7.2964682"/>
      <trkpt lat="51.5502015" lon="7.2960681"/>
      <trkpt lat="51.5501976" lon="7.2958682"/>
      <trkpt lat="51.5501905" lon="7.2953234"/>
      <trkpt lat="51.5501679" lon="7.2947010"/>
      <trkpt lat="51.5501634" lon="7.2945446"/>
      <trkpt lat="51.5501587" lon="7.2944148"/>
      <trkpt lat="51.5501832" lon="7.2944084"/>
      <trkpt lat="51.5502065" lon="7.2943947"/>
      <trkpt lat="51.5502319" lon="7.2943693"/>
      <trkpt lat="51.5502531" lon="7.2943354"/>
      <trkpt lat="51.5502648" lon="7.2943076"/>
      <trkpt lat="51.5502736" lon="7.2942772"/>
      <trkpt lat="51.5502799" lon="7.2942402"/>
      <trkpt lat="51.5502820" lon="7.2942021"/>
      <trkpt lat="51.5502796" lon="7.2941622"/>
      <trkpt lat="51.5502725" lon="7.2941237"/>
      <trkpt lat="51.5502624" lon="7.2940913"/>
      <trkpt lat="51.5502490" lon="7.2940622"/>
      <trkpt lat="51.5502263" lon="7.2940294"/>
      <trkpt lat="51.5501996" lon="7.2940059"/>
      <trkpt lat="51.5501797" lon="7.2939957"/>
      <trkpt lat="51.5501591" lon="7.2939907"/>
      <trkpt lat="51.5501648" lon="7.2938695"/>
      <trkpt lat="51.5501849" lon="7.2934858"/>
      <trkpt lat="51.5501997" lon="7.2930517"/>
      <trkpt lat="51.5502074" lon="7.2926516"/>
      <trkpt lat="51.5502081" lon="7.2925673"/>
      <trkpt lat="51.5502090" lon="7.2923825"/>
      <trkpt lat="51.5502065" lon="7.2921376"/>
      <trkpt lat="51.5502089" lon="7.2919540"/>
      <trkpt lat="51.5502077" lon="7.2919169"/>
      <trkpt lat="51.5502029" lon="7.2917713"/>
      <trkpt lat="51.5501835" lon="7.2914113"/>
      <trkpt lat="51.5501669" lon="7.2911607"/>
      <trkpt lat="51.5501399" lon="7.2908643"/>
      <trkpt lat="51.5501088" lon="7.2905636"/>
      <trkpt lat="51.5500740" lon="7.2902805"/>
      <trkpt lat="51.5495493" lon="7.2861191"/>
      <trkpt lat="51.5495157" lon="7.2858538"/>
      <trkpt lat="51.5495086" lon="7.2858026"/>
      <trkpt lat="51.5494314" lon="7.2852443"/>
      <trkpt lat="51.5493952" lon="7.2849911"/>
      <trkpt lat="51.5493414" lon="7.2846136"/>
      <trkpt lat="51.5493319" lon="7.2845467"/>
      <trkpt lat="51.5493239" lon="7.2844907"/>
      <trkpt lat="51.5493061" lon="7.2843657"/>
      <trkpt lat="51.5492103" lon="7.2836931"/>
      <trkpt lat="51.5490508" lon="7.2825717"/>
      <trkpt lat="51.5490181" lon="7.2823421"/>
      <trkpt lat="51.5489444" lon="7.2818246"/>
      <trkpt lat="51.5489068" lon="7.2815601"/>
      <trkpt lat="51.5488438" lon="7.2811174"/>
      <trkpt lat="51.5488367" lon="7.2810675"/>
      <trkpt lat="51.5488180" lon="7.2809360"/>
      <trkpt lat="51.5488024" lon="7.2808264"/>
      <trkpt lat="51.5487462" lon="7.2804314"/>
      <trkpt lat="51.5487393" lon="7.2803678"/>
      <trkpt lat="51.5487316" lon="7.2801702"/>
      <trkpt lat="51.5487265" lon="7.2799879"/>
      <trkpt lat="51.5487207" lon="7.2798367"/>
      <trkpt lat="51.5487104" lon="7.2795663"/>
      <trkpt lat="51.5487084" lon="7.2795143"/>
      <trkpt lat="51.5487038" lon="7.2793937"/>
      <trkpt lat="51.5486832" lon="7.2790732"/>
      <trkpt lat="51.5486793" lon="7.2790269"/>
      <trkpt lat="51.5486584" lon="7.2787755"/>
      <trkpt lat="51.5486494" lon="7.2786752"/>
      <trkpt lat="51.5486331" lon="7.2784920"/>
      <trkpt lat="51.5486090" lon="7.2782513"/>
      <trkpt lat="51.5485656" lon="7.2779378"/>
      <trkpt lat="51.5485381" lon="7.2777707"/>
      <trkpt lat="51.5485200" lon="7.2776760"/>
      <trkpt lat="51.5485108" lon="7.2776276"/>
      <trkpt lat="51.5484869" lon="7.2775263"/>
      <trkpt lat="51.5484611" lon="7.2774435"/>
      <trkpt lat="51.5484080" lon="7.2772729"/>
      <trkpt lat="51.5483401" lon="7.2769742"/>
      <trkpt lat="51.5483168" lon="7.2768340"/>
      <trkpt lat="51.5483002" lon="7.2767005"/>
      <trkpt lat="51.5482902" lon="7.2765588"/>
      <trkpt lat="51.5482837" lon="7.2763491"/>
      <trkpt lat="51.5482864" lon="7.2761551"/>
      <trkpt lat="51.5482942" lon="7.2759438"/>
      <trkpt lat="51.5483200" lon="7.2755027"/>
      <trkpt lat="51.5483231" lon="7.2754333"/>
      <trkpt lat="51.5483304" lon="7.2752633"/>
      <trkpt lat="51.5483733" lon="7.2752995"/>
      <trkpt lat="51.5484232" lon="7.2753302"/>
      <trkpt lat="51.5487842" lon="7.2753846"/>
      <trkpt lat="51.5488564" lon="7.2753957"/>
      <trkpt lat="51.5499715" lon="7.2755485"/>
      <trkpt lat="51.5500917" lon="7.2755589"/>
      <trkpt lat="51.5508532" lon="7.2757092"/>
      <trkpt lat="51.5509752" lon="7.2757521"/>
      <trkpt lat="51.5511025" lon="7.2757967"/>
      <trkpt lat="51.5516209" lon="7.2759788"/>
      <trkpt lat="51.5517254" lon="7.2751729"/>
      <trkpt lat="51.5517391" lon="7.2750319"/>
      <trkpt lat="51.5517637" lon="7.2747490"/>
      <trkpt lat="51.5518699" lon="7.2734932"/>
      <trkpt lat="51.5519328" lon="7.2728028"/>
      <trkpt lat="51.5520216" lon="7.2718390"/>
      <trkpt lat="51.5520608" lon="7.2714811"/>
      <trkpt lat="51.5521517" lon="7.2708541"/>
      <trkpt lat="51.5523034" lon="7.2698570"/>
      <trkpt lat="51.5523107" lon="7.2698088"/>
      <trkpt lat="51.5523671" lon="7.2694387"/>
      <trkpt lat="51.5524396" lon="7.2689620"/>
      <trkpt lat="51.5525114" lon="7.2684899"/>
      <trkpt lat="51.5525450" lon="7.2682692"/>
      <trkpt lat="51.5525540" lon="7.2682101"/>
      <trkpt lat="51.5525851" lon="7.2681096"/>
      <trkpt lat="51.5526149" lon="7.2679545"/>
      <trkpt lat="51.5526305" lon="7.2678658"/>
      <trkpt lat="51.5526532" lon="7.2677177"/>
      <trkpt lat="51.5526612" lon="7.2676678"/>
      <trkpt lat="51.5526727" lon="7.2675482"/>
      <trkpt lat="51.5526760" lon="7.2674492"/>
      <trkpt lat="51.5526750" lon="7.2673471"/>
      <trkpt lat="51.5526651" lon="7.2672710"/>
      <trkpt lat="51.5526244" lon="7.2671206"/>
      <trkpt lat="51.5525827" lon="7.2670160"/>
      <trkpt lat="51.5525298" lon="7.2669541"/>
      <trkpt lat="51.5524706" lon="7.2669129"/>
      <trkpt lat="51.5524084" lon="7.2669074"/>
      <trkpt lat="51.5520460" lon="7.2667319"/>
      <trkpt lat="51.5516048" lon="7.2663155"/>
      <trkpt lat="51.5513451" lon="7.2660805"/>
      <trkpt lat="51.5512813" lon="7.2660486"/>
      <trkpt lat="51.5512292" lon="7.2660479"/>
      <trkpt lat="51.5511654" lon="7.2660613"/>
      <trkpt lat="51.5508446" lon="7.2662273"/>
      <trkpt lat="51.5506948" lon="7.2662951"/>
      <trkpt lat="51.5506444" lon="7.2663154"/>
      <trkpt lat="51.5505793" lon="7.2663175"/>
      <trkpt lat="51.5505378" lon="7.2663329"/>
      <trkpt lat="51.5505168" lon="7.2663413"/>
      <trkpt lat="51.5504513" lon="7.2663604"/>
      <trkpt lat="51.5504123" lon="7.2663671"/>
      <trkpt lat="51.5503700" lon="7.2663738"/>
      <trkpt lat="51.5503166" lon="7.2664335"/>
      <trkpt lat="51.5502339" lon="7.2664349"/>
      <trkpt lat="51.5501421" lon="7.2664227"/>
      <trkpt lat="51.5499701" lon="7.2663841"/>
      <trkpt lat="51.5497246" lon="7.2663289"/>
      <trkpt lat="51.5494542" lon="7.2662664"/>
      <trkpt lat="51.5491378" lon="7.2661709"/>
      <trkpt lat="51.5490528" lon="7.2661436"/>
      <trkpt lat="51.5488157" lon="7.2660676"/>
      <trkpt lat="51.5484431" lon="7.2659482"/>
      <trkpt lat="51.5484106" lon="7.2659423"/>
      <trkpt lat="51.5483803" lon="7.2659390"/>
      <trkpt lat="51.5483216" lon="7.2659509"/>
      <trkpt lat="51.5483386" lon="7.2657565"/>
      <trkpt lat="51.5483466" lon="7.2655772"/>
      <trkpt lat="51.5483633" lon="7.2652025"/>
      <trkpt lat="51.5483650" lon="7.2651633"/>
      <trkpt lat="51.5483673" lon="7.2651131"/>
      <trkpt lat="51.5483699" lon="7.2650562"/>
      <trkpt lat="51.5483851" lon="7.2649021"/>
      <trkpt lat="51.5483984" lon="7.2647671"/>
      <trkpt lat="51.5484354" lon="7.2644795"/>
      <trkpt lat="51.5484825" lon="7.2642059"/>
      <trkpt lat="51.5485395" lon="7.2639013"/>
      <trkpt lat="51.5486314" lon="7.2634079"/>
      <trkpt lat="51.5486490" lon="7.2633227"/>
      <trkpt lat="51.5487420" lon="7.2628589"/>
      <trkpt lat="51.5487436" lon="7.2628510"/>
      <trkpt lat="51.5487869" lon="7.2626385"/>
      <trkpt lat="51.5488098" lon="7.2625247"/>
      <trkpt lat="51.5488472" lon="7.2623263"/>
      <trkpt lat="51.5487440" lon="7.2622980"/>
      <trkpt lat="51.5486758" lon="7.2622793"/>
      <trkpt lat="51.5485332" lon="7.2622400"/>
      <trkpt lat="51.5484137" lon="7.2621901"/>
      <trkpt lat="51.5483602" lon="7.2621753"/>
      <trkpt lat="51.5479204" lon="7.2620540"/>
      <trkpt lat="51.5476913" lon="7.2619907"/>
      <trkpt lat="51.5475982" lon="7.2619534"/>
      <trkpt lat="51.5474926" lon="7.2619063"/>
      <trkpt lat="51.5474424" lon="7.2618384"/>
      <trkpt lat="51.5473676" lon="7.2617965"/>
      <trkpt lat="51.5471133" lon="7.2616540"/>
      <trkpt lat="51.5469253" lon="7.2615487"/>
      <trkpt lat="51.5468734" lon="7.2615197"/>
      <trkpt lat="51.5467897" lon="7.2615083"/>
      <trkpt lat="51.5467598" lon="7.2614920"/>
      <trkpt lat="51.5462961" lon="7.2612398"/>
      <trkpt lat="51.5462257" lon="7.2612011"/>
      <trkpt lat="51.5458272" lon="7.2609817"/>
      <trkpt lat="51.5457606" lon="7.2609450"/>
      <trkpt lat="51.5456148" lon="7.2608466"/>
      <trkpt lat="51.5455058" lon="7.2607885"/>
      <trkpt lat="51.5453195" lon="7.2606892"/>
      <trkpt lat="51.5451209" lon="7.2605832"/>
      <trkpt lat="51.5450613" lon="7.2605515"/>
      <trkpt lat="51.5449537" lon="7.2604994"/>
      <trkpt lat="51.5448983" lon="7.2604935"/>
      <trkpt lat="51.5448738" lon="7.2604800"/>
      <trkpt lat="51.5447234" lon="7.2603966"/>
      <trkpt lat="51.5445890" lon="7.2603221"/>
      <trkpt lat="51.5442381" lon="7.2601277"/>
      <trkpt lat="51.5440429" lon="7.2600267"/>
      <trkpt lat="51.5438881" lon="7.2599476"/>
      <trkpt lat="51.5436246" lon="7.2597983"/>
      <trkpt lat="51.5435293" lon="7.2597454"/>
      <trkpt lat="51.5433869" lon="7.2596659"/>
      <trkpt lat="51.5431192" lon="7.2595224"/>
      <trkpt lat="51.5431088" lon="7.2595164"/>
      <trkpt lat="51.5430773" lon="7.2594590"/>
      <trkpt lat="51.5430466" lon="7.2594356"/>
      <trkpt lat="51.5429330" lon="7.2593591"/>
      <trkpt lat="51.5428855" lon="7.2593424"/>
      <trkpt lat="51.5428492" lon="7.2593511"/>
      <trkpt lat="51.5427639" lon="7.2592927"/>
      <trkpt lat="51.5425775" lon="7.2591660"/>
      <trkpt lat="51.5422721" lon="7.2589506"/>
      <trkpt lat="51.5420928" lon="7.2588289"/>
      <trkpt lat="51.5420546" lon="7.2588030"/>
      <trkpt lat="51.5419987" lon="7.2587651"/>
      <trkpt lat="51.5418369" lon="7.2586478"/>
      <trkpt lat="51.5417192" lon="7.2585631"/>
      <trkpt lat="51.5416037" lon="7.2584976"/>
      <trkpt lat="51.5415302" lon="7.2584709"/>
      <trkpt lat="51.5414729" lon="7.2584596"/>
      <trkpt lat="51.5413774" lon="7.2584536"/>
      <trkpt lat="51.5412894" lon="7.2584546"/>
      <trkpt lat="51.5411910" lon="7.2584670"/>
      <trkpt lat="51.5411045" lon="7.2584857"/>
      <trkpt lat="51.5405420" lon="7.2586551"/>
      <trkpt lat="51.5402061" lon="7.2587780"/>
      <trkpt lat="51.5398332" lon="7.2591525"/>
      <trkpt lat="51.5396007" lon="7.2593861"/>
      <trkpt lat="51.5395132" lon="7.2594778"/>
      <trkpt lat="51.5393929" lon="7.2595942"/>
      <trkpt lat="51.5392998" lon="7.2596945"/>
      <trkpt lat="51.5392621" lon="7.2594735"/>
      <trkpt lat="51.5392496" lon="7.2593826"/>
      <trkpt lat="51.5392386" lon="7.2592947"/>
      <trkpt lat="51.5391978" lon="7.2590341"/>
      <trkpt lat="51.5391923" lon="7.2589323"/>
      <trkpt lat="51.5391766" lon="7.2582356"/>
      <trkpt lat="51.5391842" lon="7.2580431"/>
      <trkpt lat="51.5391838" lon="7.2579521"/>
      <trkpt lat="51.5392149" lon="7.2578846"/>
      <trkpt lat="51.5392107" lon="7.2577407"/>
      <trkpt lat="51.5392068" lon="7.2576045"/>
      <trkpt lat="51.5391951" lon="7.2571973"/>
      <trkpt lat="51.5391914" lon="7.2570687"/>
      <trkpt lat="51.5391880" lon="7.2569496"/>
      <trkpt lat="51.5391776" lon="7.2565888"/>
      <trkpt lat="51.5391685" lon="7.2562655"/>
      <trkpt lat="51.5391631" lon="7.2560872"/>
      <trkpt lat="51.5391604" lon="7.2559914"/>
      <trkpt lat="51.5391250" lon="7.2559145"/>
      <trkpt lat="51.5391195" lon="7.2558510"/>
      <trkpt lat="51.5391044" lon="7.2557691"/>
      <trkpt lat="51.5390739" lon="7.2556557"/>
      <trkpt lat="51.5390291" lon="7.2555286"/>
      <trkpt lat="51.5389486" lon="7.2553430"/>
      <trkpt lat="51.5388771" lon="7.2551779"/>
      <trkpt lat="51.5388578" lon="7.2551334"/>
      <trkpt lat="51.5386907" lon="7.2547479"/>
      <trkpt lat="51.5386082" lon="7.2544831"/>
      <trkpt lat="51.5385398" lon="7.2542545"/>
      <trkpt lat="51.5384771" lon="7.2540451"/>
      <trkpt lat="51.5384294" lon="7.2538857"/>
      <trkpt lat="51.5383390" lon="7.2535835"/>
      <trkpt lat="51.5383221" lon="7.2535092"/>
      <trkpt lat="51.5383103" lon="7.2534268"/>
      <trkpt lat="51.5382753" lon="7.2529941"/>
      <trkpt lat="51.5382534" lon="7.2527236"/>
      <trkpt lat="51.5382359" lon="7.2525072"/>
      <trkpt lat="51.5382335" lon="7.2524770"/>
      <trkpt lat="51.5382148" lon="7.2522451"/>
      <trkpt lat="51.5382047" lon="7.2521210"/>
      <trkpt lat="51.5381790" lon="7.2518026"/>
      <trkpt lat="51.5381606" lon="7.2515751"/>
      <trkpt lat="51.5381477" lon="7.2514154"/>
      <trkpt lat="51.5381365" lon="7.2512772"/>
      <trkpt lat="51.5381337" lon="7.2511713"/>
      <trkpt lat="51.5381518" lon="7.2510349"/>
      <trkpt lat="51.5381504" lon="7.2508385"/>
      <trkpt lat="51.5381424" lon="7.2505997"/>
      <trkpt lat="51.5381305" lon="7.2504662"/>
      <trkpt lat="51.5381168" lon="7.2503811"/>
      <trkpt lat="51.5380745" lon="7.2501623"/>
      <trkpt lat="51.5380205" lon="7.2499863"/>
      <trkpt lat="51.5379770" lon="7.2499495"/>
      <trkpt lat="51.5379667" lon="7.2499156"/>
      <trkpt lat="51.5379499" lon="7.2498608"/>
      <trkpt lat="51.5378971" lon="7.2496737"/>
      <trkpt lat="51.5378421" lon="7.2494704"/>
      <trkpt lat="51.5378129" lon="7.2493568"/>
      <trkpt lat="51.5377979" lon="7.2492986"/>
      <trkpt lat="51.5377435" lon="7.2491077"/>
      <trkpt lat="51.5376856" lon="7.2488945"/>
      <trkpt lat="51.5376747" lon="7.2488509"/>
      <trkpt lat="51.5375999" lon="7.2485832"/>
      <trkpt lat="51.5377193" lon="7.2484884"/>
      <trkpt lat="51.5377704" lon="7.2484599"/>
      <trkpt lat="51.5378163" lon="7.2484354"/>
      <trkpt lat="51.5378376" lon="7.2484238"/>
      <trkpt lat="51.5379476" lon="7.2483647"/>
      <trkpt lat="51.5385121" lon="7.2480613"/>
      <trkpt lat="51.5386122" lon="7.2480075"/>
      <trkpt lat="51.5386335" lon="7.2479928"/>
      <trkpt lat="51.5386791" lon="7.2480016"/>
      <trkpt lat="51.5387053" lon="7.2479843"/>
      <trkpt lat="51.5387306" lon="7.2479512"/>
      <trkpt lat="51.5387463" lon="7.2479127"/>
      <trkpt lat="51.5387671" lon="7.2478192"/>
      <trkpt lat="51.5387723" lon="7.2477629"/>
      <trkpt lat="51.5387530" lon="7.2476846"/>
      <trkpt lat="51.5387830" lon="7.2475159"/>
      <trkpt lat="51.5388188" lon="7.2473152"/>
      <trkpt lat="51.5388323" lon="7.2472399"/>
      <trkpt lat="51.5389289" lon="7.2466981"/>
      <trkpt lat="51.5389771" lon="7.2464360"/>
      <trkpt lat="51.5390068" lon="7.2462856"/>
      <trkpt lat="51.5390235" lon="7.2461982"/>
      <trkpt lat="51.5390465" lon="7.2460807"/>
      <trkpt lat="51.5391003" lon="7.2458033"/>
      <trkpt lat="51.5391178" lon="7.2457131"/>
      <trkpt lat="51.5391374" lon="7.2456119"/>
      <trkpt lat="51.5391634" lon="7.2454735"/>
      <trkpt lat="51.5392529" lon="7.2449962"/>
      <trkpt lat="51.5392644" lon="7.2449351"/>
      <trkpt lat="51.5392692" lon="7.2449094"/>
      <trkpt lat="51.5393116" lon="7.2446845"/>
      <trkpt lat="51.5393428" lon="7.2445190"/>
      <trkpt lat="51.5393866" lon="7.2442865"/>
      <trkpt lat="51.5394158" lon="7.2441311"/>
      <trkpt lat="51.5394620" lon="7.2438857"/>
      <trkpt lat="51.5394834" lon="7.2437719"/>
      <trkpt lat="51.5395333" lon="7.2435068"/>
      <trkpt lat="51.5395591" lon="7.2433950"/>
      <trkpt lat="51.5395683" lon="7.2433547"/>
      <trkpt lat="51.5396155" lon="7.2432863"/>
      <trkpt lat="51.5396528" lon="7.2430902"/>
      <trkpt lat="51.5397033" lon="7.2428079"/>
      <trkpt lat="51.5397034" lon="7.2426041"/>
      <trkpt lat="51.5397144" lon="7.2425501"/>
      <trkpt lat="51.5397646" lon="7.2423419"/>
      <trkpt lat="51.5397793" lon="7.2422810"/>
      <trkpt lat="51.5399821" lon="7.2415299"/>
      <trkpt lat="51.5401091" lon="7.2410562"/>
      <trkpt lat="51.5402159" lon="7.2406680"/>
      <trkpt lat="51.5402552" lon="7.2405360"/>
      <trkpt lat="51.5403143" lon="7.2403333"/>
      <trkpt lat="51.5403230" lon="7.2403035"/>
      <trkpt lat="51.5403535" lon="7.2401988"/>
      <trkpt lat="51.5404086" lon="7.2400124"/>
      <trkpt lat="51.5404251" lon="7.2399533"/>
      <trkpt lat="51.5404858" lon="7.2397445"/>
      <trkpt lat="51.5405518" lon="7.2395177"/>
      <trkpt lat="51.5405650" lon="7.2394746"/>
      <trkpt lat="51.5405995" lon="7.2393561"/>
      <trkpt lat="51.5407107" lon="7.2389769"/>
      <trkpt lat="51.5407248" lon="7.2389286"/>
      <trkpt lat="51.5407642" lon="7.2387983"/>
      <trkpt lat="51.5408011" lon="7.2386780"/>
      <trkpt lat="51.5408288" lon="7.2385710"/>
      <trkpt lat="51.5408525" lon="7.2384444"/>
      <trkpt lat="51.5409268" lon="7.2379422"/>
      <trkpt lat="51.5410023" lon="7.2374323"/>
      <trkpt lat="51.5410648" lon="7.2370103"/>
      <trkpt lat="51.5410741" lon="7.2369474"/>
      <trkpt lat="51.5410870" lon="7.2368420"/>
      <trkpt lat="51.5411026" lon="7.2366957"/>
      <trkpt lat="51.5411433" lon="7.2362776"/>
      <trkpt lat="51.5411530" lon="7.2361427"/>
      <trkpt lat="51.5411516" lon="7.2360333"/>
      <trkpt lat="51.5411459" lon="7.2359545"/>
      <trkpt lat="51.5411281" lon="7.2358495"/>
      <trkpt lat="51.5411038" lon="7.2357460"/>
      <trkpt lat="51.5410712" lon="7.2356551"/>
      <trkpt lat="51.5410351" lon="7.2355743"/>
      <trkpt lat="51.5409144" lon="7.2353219"/>
      <trkpt lat="51.5407867" lon="7.2350547"/>
      <trkpt lat="51.5406802" lon="7.2348322"/>
      <trkpt lat="51.5406409" lon="7.2347495"/>
      <trkpt lat="51.5406032" lon="7.2346696"/>
      <trkpt lat="51.5401538" lon="7.2337298"/>
      <trkpt lat="51.5398319" lon="7.2330563"/>
      <trkpt lat="51.5397863" lon="7.2329604"/>
      <trkpt lat="51.5397140" lon="7.2328072"/>
      <trkpt lat="51.5396295" lon="7.2326286"/>
      <trkpt lat="51.5395870" lon="7.2325419"/>
      <trkpt lat="51.5395436" lon="7.2324492"/>
      <trkpt lat="51.5393669" lon="7.2320807"/>
      <trkpt lat="51.5392245" lon="7.2317674"/>
      <trkpt lat="51.5390931" lon="7.2314724"/>
      <trkpt lat="51.5390582" lon="7.2313950"/>
      <trkpt lat="51.5390015" lon="7.2312666"/>
      <trkpt lat="51.5388382" lon="7.2308990"/>
      <trkpt lat="51.5387952" lon="7.2307978"/>
      <trkpt lat="51.5386862" lon="7.2305470"/>
      <trkpt lat="51.5386071" lon="7.2303649"/>
      <trkpt lat="51.5385744" lon="7.2302894"/>
      <trkpt lat="51.5385418" lon="7.2302057"/>
      <trkpt lat="51.5384746" lon="7.2300384"/>
      <trkpt lat="51.5384467" lon="7.2299179"/>
      <trkpt lat="51.5383521" lon="7.2293548"/>
      <trkpt lat="51.5382983" lon="7.2290350"/>
      <trkpt lat="51.5382975" lon="7.2290301"/>
      <trkpt lat="51.5382703" lon="7.2288705"/>
      <trkpt lat="51.5382453" lon="7.2287227"/>
      <trkpt lat="51.5381709" lon="7.2287534"/>
      <trkpt lat="51.5380726" lon="7.2287940"/>
      <trkpt lat="51.5379538" lon="7.2288430"/>
      <trkpt lat="51.5376726" lon="7.2289590"/>
      <trkpt lat="51.5375012" lon="7.2290187"/>
      <trkpt lat="51.5369997" lon="7.2291420"/>
      <trkpt lat="51.5368058" lon="7.2291443"/>
      <trkpt lat="51.5367437" lon="7.2291394"/>
      <trkpt lat="51.5366677" lon="7.2291237"/>
      <trkpt lat="51.5366299" lon="7.2291097"/>
      <trkpt lat="51.5366116" lon="7.2291021"/>
      <trkpt lat="51.5365883" lon="7.2290912"/>
      <trkpt lat="51.5365665" lon="7.2290797"/>
      <trkpt lat="51.5365352" lon="7.2290562"/>
      <trkpt lat="51.5365132" lon="7.2290375"/>
      <trkpt lat="51.5364914" lon="7.2290156"/>
      <trkpt lat="51.5364691" lon="7.2289917"/>
      <trkpt lat="51.5364510" lon="7.2289693"/>
      <trkpt lat="51.5364327" lon="7.2289452"/>
      <trkpt lat="51.5364186" lon="7.2289243"/>
      <trkpt lat="51.5364048" lon="7.2289040"/>
      <trkpt lat="51.5363804" lon="7.2288665"/>
      <trkpt lat="51.5363572" lon="7.2288235"/>
      <trkpt lat="51.5363346" lon="7.2287772"/>
      <trkpt lat="51.5363120" lon="7.2287262"/>
      <trkpt lat="51.5362010" lon="7.2281175"/>
      <trkpt lat="51.5361059" lon="7.2275964"/>
      <trkpt lat="51.5360612" lon="7.2273513"/>
      <trkpt lat="51.5359048" lon="7.2264395"/>
      <trkpt lat="51.5358966" lon="7.2263913"/>
      <trkpt lat="51.5358781" lon="7.2262838"/>
      <trkpt lat="51.5358561" lon="7.2261555"/>
      <trkpt lat="51.5358393" lon="7.2260576"/>
      <trkpt lat="51.5357783" lon="7.2256873"/>
      <trkpt lat="51.5357158" lon="7.2253523"/>
      <trkpt lat="51.5356833" lon="7.2251874"/>
      <trkpt lat="51.5356569" lon="7.2250527"/>
      <trkpt lat="51.5355514" lon="7.2246183"/>
      <trkpt lat="51.5355054" lon="7.2244530"/>
      <trkpt lat="51.5354690" lon="7.2243265"/>
      <trkpt lat="51.5354107" lon="7.2241253"/>
      <trkpt lat="51.5355348" lon="7.2240370"/>
      <trkpt lat="51.5355816" lon="7.2240037"/>
      <trkpt lat="51.5357011" lon="7.2239187"/>
      <trkpt lat="51.5358235" lon="7.2238317"/>
      <trkpt lat="51.5359643" lon="7.2237316"/>
      <trkpt lat="51.5360473" lon="7.2237570"/>
      <trkpt lat="51.5361805" lon="7.2236599"/>
      <trkpt lat="51.5362014" lon="7.2236447"/>
      <trkpt lat="51.5362425" lon="7.2236147"/>
      <trkpt lat="51.5362686" lon="7.2235958"/>
      <trkpt lat="51.5363070" lon="7.2234960"/>
      <trkpt lat="51.5363376" lon="7.2234693"/>
      <trkpt lat="51.5365141" lon="7.2233152"/>
      <trkpt lat="51.5365586" lon="7.2232763"/>
      <trkpt lat="51.5365928" lon="7.2232465"/>
      <trkpt lat="51.5367850" lon="7.2230787"/>
      <trkpt lat="51.5369263" lon="7.2229552"/>
      <trkpt lat="51.5370330" lon="7.2228620"/>
      <trkpt lat="51.5370984" lon="7.2228049"/>
      <trkpt lat="51.5373822" lon="7.2225539"/>
      <trkpt lat="51.5374554" lon="7.2224924"/>
      <trkpt lat="51.5375141" lon="7.2224396"/>
      <trkpt lat="51.5375713" lon="7.2223895"/>
      <trkpt lat="51.5376233" lon="7.2223454"/>
      <trkpt lat="51.5377461" lon="7.2222470"/>
      <trkpt lat="51.5378914" lon="7.2221415"/>
      <trkpt lat="51.5379349" lon="7.2221106"/>
      <trkpt lat="51.5382328" lon="7.2218703"/>
      <trkpt lat="51.5383509" lon="7.2217776"/>
      <trkpt lat="51.5384702" lon="7.2216827"/>
      <trkpt lat="51.5385433" lon="7.2216246"/>
      <trkpt lat="51.5385797" lon="7.2215936"/>
      <trkpt lat="51.5386090" lon="7.2215667"/>
      <trkpt lat="51.5386544" lon="7.2215087"/>
      <trkpt lat="51.5386904" lon="7.2214573"/>
      <trkpt lat="51.5387177" lon="7.2214117"/>
      <trkpt lat="51.5387452" lon="7.2213574"/>
      <trkpt lat="51.5388026" lon="7.2212171"/>
      <trkpt lat="51.5388640" lon="7.2210173"/>
      <trkpt lat="51.5388968" lon="7.2209281"/>
      <trkpt lat="51.5389654" lon="7.2207149"/>
      <trkpt lat="51.5390261" lon="7.2204996"/>
      <trkpt lat="51.5390945" lon="7.2202860"/>
      <trkpt lat="51.5391293" lon="7.2201796"/>
      <trkpt lat="51.5391311" lon="7.2201740"/>
      <trkpt lat="51.5391579" lon="7.2201577"/>
      <trkpt lat="51.5391808" lon="7.2201308"/>
      <trkpt lat="51.5392083" lon="7.2201033"/>
      <trkpt lat="51.5392352" lon="7.2200906"/>
      <trkpt lat="51.5392736" lon="7.2200885"/>
      <trkpt lat="51.5393105" lon="7.2201074"/>
      <trkpt lat="51.5393655" lon="7.2201487"/>
      <trkpt lat="51.5394258" lon="7.2201955"/>
      <trkpt lat="51.5394648" lon="7.2202091"/>
      <trkpt lat="51.5395037" lon="7.2202132"/>
      <trkpt lat="51.5396636" lon="7.2203740"/>
      <trkpt lat="51.5397121" lon="7.2204228"/>
      <trkpt lat="51.5397739" lon="7.2204849"/>
      <trkpt lat="51.5398355" lon="7.2205469"/>
      <trkpt lat="51.5399370" lon="7.2206471"/>
      <trkpt lat="51.5401341" lon="7.2208417"/>
      <trkpt lat="51.5402017" lon="7.2209031"/>
      <trkpt lat="51.5403300" lon="7.2209885"/>
      <trkpt lat="51.5403604" lon="7.2210173"/>
      <trkpt lat="51.5403821" lon="7.2210307"/>
      <trkpt lat="51.5404215" lon="7.2210398"/>
      <trkpt lat="51.5404356" lon="7.2210389"/>
      <trkpt lat="51.5409774" lon="7.2210059"/>
      <trkpt lat="51.5410922" lon="7.2209989"/>
      <trkpt lat="51.5411326" lon="7.2209964"/>
      <trkpt lat="51.5412244" lon="7.2209696"/>
      <trkpt lat="51.5412743" lon="7.2209491"/>
      <trkpt lat="51.5413260" lon="7.2209173"/>
      <trkpt lat="51.5413767" lon="7.2208748"/>
      <trkpt lat="51.5414221" lon="7.2208336"/>
      <trkpt lat="51.5414538" lon="7.2207953"/>
      <trkpt lat="51.5414982" lon="7.2207280"/>
      <trkpt lat="51.5415230" lon="7.2206797"/>
      <trkpt lat="51.5415353" lon="7.2206005"/>
      <trkpt lat="51.5415536" lon="7.2205613"/>
      <trkpt lat="51.5415674" lon="7.2205231"/>
      <trkpt lat="51.5415785" lon="7.2204852"/>
      <trkpt lat="51.5415883" lon="7.2204416"/>
      <trkpt lat="51.5415962" lon="7.2204031"/>
      <trkpt lat="51.5416016" lon="7.2203605"/>
      <trkpt lat="51.5416066" lon="7.2203174"/>
      <trkpt lat="51.5416108" lon="7.2202743"/>
      <trkpt lat="51.5416140" lon="7.2202300"/>
      <trkpt lat="51.5416166" lon="7.2201870"/>
      <trkpt lat="51.5416187" lon="7.2201434"/>
      <trkpt lat="51.5416677" lon="7.2191672"/>
      <trkpt lat="51.5416717" lon="7.2191024"/>
      <trkpt lat="51.5416867" lon="7.2188637"/>
      <trkpt lat="51.5417013" lon="7.2186296"/>
      <trkpt lat="51.5417050" lon="7.2185698"/>
      <trkpt lat="51.5417171" lon="7.2183991"/>
      <trkpt lat="51.5417331" lon="7.2182357"/>
      <trkpt lat="51.5417413" lon="7.2181535"/>
      <trkpt lat="51.5417520" lon="7.2180481"/>
      <trkpt lat="51.5417568" lon="7.2180058"/>
      <trkpt lat="51.5418047" lon="7.2177960"/>
      <trkpt lat="51.5418307" lon="7.2176213"/>
      <trkpt lat="51.5418963" lon="7.2173498"/>
      <trkpt lat="51.5419187" lon="7.2172679"/>
      <trkpt lat="51.5419746" lon="7.2170693"/>
      <trkpt lat="51.5420340" lon="7.2170346"/>
      <trkpt lat="51.5422756" lon="7.2169084"/>
      <trkpt lat="51.5424066" lon="7.2168374"/>
      <trkpt lat="51.5424693" lon="7.2167932"/>
      <trkpt lat="51.5425309" lon="7.2167464"/>
      <trkpt lat="51.5435528" lon="7.2162067"/>
      <trkpt lat="51.5438004" lon="7.2160957"/>
      <trkpt lat="51.5439909" lon="7.2159885"/>
      <trkpt lat="51.5440282" lon="7.2159664"/>
      <trkpt lat="51.5440800" lon="7.2159375"/>
      <trkpt lat="51.5441877" lon="7.2158742"/>
      <trkpt lat="51.5442913" lon="7.2160135"/>
      <trkpt lat="51.5443746" lon="7.2161347"/>
      <trkpt lat="51.5443921" lon="7.2162639"/>
      <trkpt lat="51.5444059" lon="7.2163655"/>
      <trkpt lat="51.5444383" lon="7.2165254"/>
      <trkpt lat="51.5445155" lon="7.2168276"/>
      <trkpt lat="51.5445948" lon="7.2171437"/>
      <trkpt lat="51.5446295" lon="7.2172810"/>
      <trkpt lat="51.5446856" lon="7.2175025"/>
      <trkpt lat="51.5447008" lon="7.2175625"/>
      <trkpt lat="51.5447778" lon="7.2178669"/>
    </trkseg>
  </trk>
</gpx>