<?xml version="1.0" encoding="UTF-8"?>
<gpx version="1.1" creator="Linienjagd Castrop-Rauxel" xmlns="http://www.topografix.com/GPX/1/1">
  <metadata><name>Linie 324 – komplette Linie</name><desc>Bus 324: Castrop-Rauxel Münsterplatz =&gt; Herne Bahnhof | 11.09 km | 23 Haltestellen</desc></metadata>
  <wpt lat="51.5492523" lon="7.3084673"><name>01 Castrop Münsterplatz</name><sym>Flag</sym></wpt>
  <wpt lat="51.5453558" lon="7.3048113"><name>02 Am Wiedehagen / Erin-Park</name><sym>Flag</sym></wpt>
  <wpt lat="51.5437541" lon="7.2992007"><name>03 Karlstraße 77</name><sym>Flag</sym></wpt>
  <wpt lat="51.5425184" lon="7.2935641"><name>04 Stadtgrenze Herne - Castrop</name><sym>Flag</sym></wpt>
  <wpt lat="51.5409998" lon="7.2887955"><name>05 Holthauser Straße</name><sym>Flag</sym></wpt>
  <wpt lat="51.5425406" lon="7.2851367"><name>06 Lange Straße</name><sym>Flag</sym></wpt>
  <wpt lat="51.5429716" lon="7.2772963"><name>07 Friedhofstraße</name><sym>Flag</sym></wpt>
  <wpt lat="51.5428083" lon="7.2727042"><name>08 Auf&#x27;m Kolm</name><sym>Flag</sym></wpt>
  <wpt lat="51.5410596" lon="7.2659079"><name>09 Am Volkspark</name><sym>Flag</sym></wpt>
  <wpt lat="51.5400851" lon="7.2624116"><name>10 Ringstraße</name><sym>Flag</sym></wpt>
  <wpt lat="51.5391914" lon="7.2570687"><name>11 Akademie Mont-Cenis</name><sym>Flag</sym></wpt>
  <wpt lat="51.5389401" lon="7.2587393"><name>12 Max-Wiethoff-Straße</name><sym>Flag</sym></wpt>
  <wpt lat="51.5388413" lon="7.2598994"><name>13 Von-Gluck-Straße</name><sym>Flag</sym></wpt>
  <wpt lat="51.5346698" lon="7.2616923"><name>14 Gysenbergpark/LAGO</name><sym>Flag</sym></wpt>
  <wpt lat="51.5325848" lon="7.2529291"><name>15 Gysenberghalle</name><sym>Flag</sym></wpt>
  <wpt lat="51.5349306" lon="7.2500441"><name>16 Auf dem Stennert</name><sym>Flag</sym></wpt>
  <wpt lat="51.5373859" lon="7.2478300"><name>17 Ostbachtal</name><sym>Flag</sym></wpt>
  <wpt lat="51.5368864" lon="7.2361872"><name>18 Sehrbruchskamp</name><sym>Flag</sym></wpt>
  <wpt lat="51.5370980" lon="7.2323028"><name>19 Feuerwache Sodinger Straße</name><sym>Flag</sym></wpt>
  <wpt lat="51.5357158" lon="7.2253523"><name>20 Archäologie-Museum/Kreuzkirche</name><sym>Flag</sym></wpt>
  <wpt lat="51.5382328" lon="7.2218703"><name>21 Sparkasse</name><sym>Flag</sym></wpt>
  <wpt lat="51.5409774" lon="7.2210059"><name>22 Herne Mitte</name><sym>Flag</sym></wpt>
  <wpt lat="51.5443368" lon="7.2172108"><name>23 Herne Bahnhof</name><sym>Flag</sym></wpt>
  <trk><name>Linie 324 – komplette Linie</name>
    <trkseg>
      <trkpt lat="51.5492523" lon="7.3084673"/>
      <trkpt lat="51.5494280" lon="7.3087826"/>
      <trkpt lat="51.5496004" lon="7.3090207"/>
      <trkpt lat="51.5497851" lon="7.3092433"/>
      <trkpt lat="51.5498172" lon="7.3092706"/>
      <trkpt lat="51.5498572" lon="7.3092758"/>
      <trkpt lat="51.5499216" lon="7.3092632"/>
      <trkpt lat="51.5500183" lon="7.3088689"/>
      <trkpt lat="51.5500861" lon="7.3085592"/>
      <trkpt lat="51.5501360" lon="7.3083809"/>
      <trkpt lat="51.5502664" lon="7.3076791"/>
      <trkpt lat="51.5502938" lon="7.3074757"/>
      <trkpt lat="51.5503145" lon="7.3072911"/>
      <trkpt lat="51.5503156" lon="7.3071179"/>
      <trkpt lat="51.5503013" lon="7.3069551"/>
      <trkpt lat="51.5502437" lon="7.3066489"/>
      <trkpt lat="51.5501993" lon="7.3062938"/>
      <trkpt lat="51.5501419" lon="7.3055598"/>
      <trkpt lat="51.5501234" lon="7.3052619"/>
      <trkpt lat="51.5501131" lon="7.3049542"/>
      <trkpt lat="51.5501087" lon="7.3046653"/>
      <trkpt lat="51.5498658" lon="7.3046508"/>
      <trkpt lat="51.5495363" lon="7.3046552"/>
      <trkpt lat="51.5494052" lon="7.3046833"/>
      <trkpt lat="51.5492838" lon="7.3047216"/>
      <trkpt lat="51.5492356" lon="7.3047583"/>
      <trkpt lat="51.5491711" lon="7.3048217"/>
      <trkpt lat="51.5490956" lon="7.3048797"/>
      <trkpt lat="51.5490002" lon="7.3050434"/>
      <trkpt lat="51.5489538" lon="7.3051670"/>
      <trkpt lat="51.5489201" lon="7.3052859"/>
      <trkpt lat="51.5488931" lon="7.3053812"/>
      <trkpt lat="51.5488222" lon="7.3056223"/>
      <trkpt lat="51.5488045" lon="7.3056633"/>
      <trkpt lat="51.5487665" lon="7.3057126"/>
      <trkpt lat="51.5486009" lon="7.3058688"/>
      <trkpt lat="51.5482864" lon="7.3061023"/>
      <trkpt lat="51.5482228" lon="7.3061624"/>
      <trkpt lat="51.5480948" lon="7.3062877"/>
      <trkpt lat="51.5478632" lon="7.3065390"/>
      <trkpt lat="51.5477358" lon="7.3066890"/>
      <trkpt lat="51.5475742" lon="7.3068699"/>
      <trkpt lat="51.5474654" lon="7.3069884"/>
      <trkpt lat="51.5473321" lon="7.3071094"/>
      <trkpt lat="51.5471943" lon="7.3071932"/>
      <trkpt lat="51.5470577" lon="7.3072518"/>
      <trkpt lat="51.5470194" lon="7.3072591"/>
      <trkpt lat="51.5469212" lon="7.3072667"/>
      <trkpt lat="51.5468397" lon="7.3072709"/>
      <trkpt lat="51.5467421" lon="7.3072600"/>
      <trkpt lat="51.5466859" lon="7.3072524"/>
      <trkpt lat="51.5466089" lon="7.3072304"/>
      <trkpt lat="51.5465046" lon="7.3071837"/>
      <trkpt lat="51.5464709" lon="7.3071690"/>
      <trkpt lat="51.5463737" lon="7.3071083"/>
      <trkpt lat="51.5462744" lon="7.3070115"/>
      <trkpt lat="51.5461717" lon="7.3068928"/>
      <trkpt lat="51.5460962" lon="7.3067834"/>
      <trkpt lat="51.5460286" lon="7.3066554"/>
      <trkpt lat="51.5460083" lon="7.3066140"/>
      <trkpt lat="51.5459018" lon="7.3063692"/>
      <trkpt lat="51.5458658" lon="7.3062657"/>
      <trkpt lat="51.5457975" lon="7.3060730"/>
      <trkpt lat="51.5456766" lon="7.3057198"/>
      <trkpt lat="51.5456307" lon="7.3056386"/>
      <trkpt lat="51.5455436" lon="7.3053786"/>
      <trkpt lat="51.5454161" lon="7.3049927"/>
      <trkpt lat="51.5453558" lon="7.3048113"/>
      <trkpt lat="51.5452032" lon="7.3043588"/>
      <trkpt lat="51.5450569" lon="7.3039419"/>
      <trkpt lat="51.5449445" lon="7.3036127"/>
      <trkpt lat="51.5448616" lon="7.3033654"/>
      <trkpt lat="51.5447293" lon="7.3029619"/>
      <trkpt lat="51.5446348" lon="7.3026836"/>
      <trkpt lat="51.5445339" lon="7.3023848"/>
      <trkpt lat="51.5444276" lon="7.3020733"/>
      <trkpt lat="51.5440974" lon="7.3010753"/>
      <trkpt lat="51.5439380" lon="7.3005947"/>
      <trkpt lat="51.5439080" lon="7.3004908"/>
      <trkpt lat="51.5438813" lon="7.3003808"/>
      <trkpt lat="51.5438626" lon="7.3002722"/>
      <trkpt lat="51.5438469" lon="7.3001559"/>
      <trkpt lat="51.5438029" lon="7.2997029"/>
      <trkpt lat="51.5437675" lon="7.2993381"/>
      <trkpt lat="51.5437541" lon="7.2992007"/>
      <trkpt lat="51.5436898" lon="7.2985380"/>
      <trkpt lat="51.5436251" lon="7.2979831"/>
      <trkpt lat="51.5435810" lon="7.2976430"/>
      <trkpt lat="51.5434761" lon="7.2967934"/>
      <trkpt lat="51.5433892" lon="7.2960698"/>
      <trkpt lat="51.5433558" lon="7.2957944"/>
      <trkpt lat="51.5433410" lon="7.2957074"/>
      <trkpt lat="51.5433095" lon="7.2955269"/>
      <trkpt lat="51.5432777" lon="7.2953598"/>
      <trkpt lat="51.5432189" lon="7.2950917"/>
      <trkpt lat="51.5431825" lon="7.2949698"/>
      <trkpt lat="51.5431406" lon="7.2948441"/>
      <trkpt lat="51.5430683" lon="7.2946707"/>
      <trkpt lat="51.5429994" lon="7.2945156"/>
      <trkpt lat="51.5428449" lon="7.2942054"/>
      <trkpt lat="51.5425603" lon="7.2936513"/>
      <trkpt lat="51.5425184" lon="7.2935641"/>
      <trkpt lat="51.5422419" lon="7.2929858"/>
      <trkpt lat="51.5420779" lon="7.2926542"/>
      <trkpt lat="51.5418815" lon="7.2922478"/>
      <trkpt lat="51.5416492" lon="7.2917764"/>
      <trkpt lat="51.5410235" lon="7.2905081"/>
      <trkpt lat="51.5408058" lon="7.2900664"/>
      <trkpt lat="51.5406853" lon="7.2898219"/>
      <trkpt lat="51.5406640" lon="7.2897647"/>
      <trkpt lat="51.5406467" lon="7.2897090"/>
      <trkpt lat="51.5406345" lon="7.2896512"/>
      <trkpt lat="51.5406274" lon="7.2895808"/>
      <trkpt lat="51.5406267" lon="7.2895170"/>
      <trkpt lat="51.5406348" lon="7.2894514"/>
      <trkpt lat="51.5406501" lon="7.2894001"/>
      <trkpt lat="51.5406756" lon="7.2893379"/>
      <trkpt lat="51.5407104" lon="7.2892764"/>
      <trkpt lat="51.5407893" lon="7.2891425"/>
      <trkpt lat="51.5409316" lon="7.2889065"/>
      <trkpt lat="51.5409659" lon="7.2888525"/>
      <trkpt lat="51.5409998" lon="7.2887955"/>
      <trkpt lat="51.5410585" lon="7.2886802"/>
      <trkpt lat="51.5411383" lon="7.2885035"/>
      <trkpt lat="51.5412106" lon="7.2883286"/>
      <trkpt lat="51.5412170" lon="7.2883114"/>
      <trkpt lat="51.5412766" lon="7.2881507"/>
      <trkpt lat="51.5414085" lon="7.2877503"/>
      <trkpt lat="51.5415317" lon="7.2873699"/>
      <trkpt lat="51.5416720" lon="7.2869905"/>
      <trkpt lat="51.5418436" lon="7.2865998"/>
      <trkpt lat="51.5419083" lon="7.2864599"/>
      <trkpt lat="51.5420853" lon="7.2860777"/>
      <trkpt lat="51.5422519" lon="7.2857082"/>
      <trkpt lat="51.5422992" lon="7.2856074"/>
      <trkpt lat="51.5424042" lon="7.2853838"/>
      <trkpt lat="51.5424240" lon="7.2853506"/>
      <trkpt lat="51.5424878" lon="7.2852336"/>
      <trkpt lat="51.5425058" lon="7.2852009"/>
      <trkpt lat="51.5425406" lon="7.2851367"/>
      <trkpt lat="51.5425887" lon="7.2850514"/>
      <trkpt lat="51.5426259" lon="7.2849754"/>
      <trkpt lat="51.5426539" lon="7.2848947"/>
      <trkpt lat="51.5426692" lon="7.2848249"/>
      <trkpt lat="51.5426781" lon="7.2847420"/>
      <trkpt lat="51.5426781" lon="7.2846640"/>
      <trkpt lat="51.5426661" lon="7.2845876"/>
      <trkpt lat="51.5426467" lon="7.2845092"/>
      <trkpt lat="51.5426401" lon="7.2844959"/>
      <trkpt lat="51.5425422" lon="7.2841498"/>
      <trkpt lat="51.5424506" lon="7.2838307"/>
      <trkpt lat="51.5422514" lon="7.2831368"/>
      <trkpt lat="51.5420771" lon="7.2825303"/>
      <trkpt lat="51.5420067" lon="7.2822850"/>
      <trkpt lat="51.5419798" lon="7.2821889"/>
      <trkpt lat="51.5419592" lon="7.2820938"/>
      <trkpt lat="51.5419473" lon="7.2820086"/>
      <trkpt lat="51.5419416" lon="7.2818999"/>
      <trkpt lat="51.5419446" lon="7.2817968"/>
      <trkpt lat="51.5419526" lon="7.2817151"/>
      <trkpt lat="51.5419639" lon="7.2816424"/>
      <trkpt lat="51.5419772" lon="7.2815848"/>
      <trkpt lat="51.5420128" lon="7.2814307"/>
      <trkpt lat="51.5422154" lon="7.2805518"/>
      <trkpt lat="51.5424064" lon="7.2797333"/>
      <trkpt lat="51.5425467" lon="7.2791353"/>
      <trkpt lat="51.5429298" lon="7.2774813"/>
      <trkpt lat="51.5429716" lon="7.2772963"/>
      <trkpt lat="51.5429980" lon="7.2771806"/>
      <trkpt lat="51.5430264" lon="7.2770562"/>
      <trkpt lat="51.5430769" lon="7.2768314"/>
      <trkpt lat="51.5431121" lon="7.2766453"/>
      <trkpt lat="51.5431355" lon="7.2765186"/>
      <trkpt lat="51.5431501" lon="7.2764180"/>
      <trkpt lat="51.5431726" lon="7.2762222"/>
      <trkpt lat="51.5431857" lon="7.2760274"/>
      <trkpt lat="51.5431916" lon="7.2758936"/>
      <trkpt lat="51.5431928" lon="7.2756861"/>
      <trkpt lat="51.5431880" lon="7.2755251"/>
      <trkpt lat="51.5431795" lon="7.2754068"/>
      <trkpt lat="51.5431597" lon="7.2752566"/>
      <trkpt lat="51.5431469" lon="7.2751620"/>
      <trkpt lat="51.5430601" lon="7.2745202"/>
      <trkpt lat="51.5429781" lon="7.2739135"/>
      <trkpt lat="51.5429021" lon="7.2733512"/>
      <trkpt lat="51.5428655" lon="7.2731363"/>
      <trkpt lat="51.5428458" lon="7.2730223"/>
      <trkpt lat="51.5428320" lon="7.2729258"/>
      <trkpt lat="51.5428282" lon="7.2728924"/>
      <trkpt lat="51.5428083" lon="7.2727042"/>
      <trkpt lat="51.5427946" lon="7.2725620"/>
      <trkpt lat="51.5427646" lon="7.2723352"/>
      <trkpt lat="51.5426906" lon="7.2717751"/>
      <trkpt lat="51.5426595" lon="7.2716058"/>
      <trkpt lat="51.5426046" lon="7.2714019"/>
      <trkpt lat="51.5421118" lon="7.2696610"/>
      <trkpt lat="51.5419069" lon="7.2689066"/>
      <trkpt lat="51.5418851" lon="7.2688316"/>
      <trkpt lat="51.5418655" lon="7.2687635"/>
      <trkpt lat="51.5415494" lon="7.2676662"/>
      <trkpt lat="51.5414729" lon="7.2673918"/>
      <trkpt lat="51.5413358" lon="7.2668949"/>
      <trkpt lat="51.5412033" lon="7.2664325"/>
      <trkpt lat="51.5411475" lon="7.2662179"/>
      <trkpt lat="51.5410733" lon="7.2659645"/>
      <trkpt lat="51.5410596" lon="7.2659079"/>
      <trkpt lat="51.5409971" lon="7.2656587"/>
      <trkpt lat="51.5408626" lon="7.2651630"/>
      <trkpt lat="51.5408369" lon="7.2650629"/>
      <trkpt lat="51.5407948" lon="7.2649163"/>
      <trkpt lat="51.5407494" lon="7.2647848"/>
      <trkpt lat="51.5407238" lon="7.2647039"/>
      <trkpt lat="51.5407287" lon="7.2646216"/>
      <trkpt lat="51.5407181" lon="7.2645787"/>
      <trkpt lat="51.5405829" lon="7.2640845"/>
      <trkpt lat="51.5405500" lon="7.2639162"/>
      <trkpt lat="51.5405090" lon="7.2637694"/>
      <trkpt lat="51.5404921" lon="7.2637055"/>
      <trkpt lat="51.5404402" lon="7.2636400"/>
      <trkpt lat="51.5404248" lon="7.2635978"/>
      <trkpt lat="51.5403671" lon="7.2634260"/>
      <trkpt lat="51.5402871" lon="7.2631311"/>
      <trkpt lat="51.5402335" lon="7.2629335"/>
      <trkpt lat="51.5401618" lon="7.2626812"/>
      <trkpt lat="51.5400851" lon="7.2624116"/>
      <trkpt lat="51.5400257" lon="7.2622027"/>
      <trkpt lat="51.5399535" lon="7.2619490"/>
      <trkpt lat="51.5396809" lon="7.2609909"/>
      <trkpt lat="51.5394502" lon="7.2601798"/>
      <trkpt lat="51.5394063" lon="7.2600536"/>
      <trkpt lat="51.5393781" lon="7.2599700"/>
      <trkpt lat="51.5393560" lon="7.2598972"/>
      <trkpt lat="51.5392998" lon="7.2596945"/>
      <trkpt lat="51.5392621" lon="7.2594735"/>
      <trkpt lat="51.5392496" lon="7.2593826"/>
      <trkpt lat="51.5392386" lon="7.2592947"/>
      <trkpt lat="51.5391978" lon="7.2590341"/>
      <trkpt lat="51.5391923" lon="7.2589323"/>
      <trkpt lat="51.5391766" lon="7.2582356"/>
      <trkpt lat="51.5391842" lon="7.2580431"/>
      <trkpt lat="51.5391838" lon="7.2579521"/>
      <trkpt lat="51.5392149" lon="7.2578846"/>
      <trkpt lat="51.5392107" lon="7.2577407"/>
      <trkpt lat="51.5392068" lon="7.2576045"/>
      <trkpt lat="51.5391951" lon="7.2571973"/>
      <trkpt lat="51.5391914" lon="7.2570687"/>
      <trkpt lat="51.5391880" lon="7.2569496"/>
      <trkpt lat="51.5391776" lon="7.2565888"/>
      <trkpt lat="51.5391685" lon="7.2562655"/>
      <trkpt lat="51.5391055" lon="7.2562718"/>
      <trkpt lat="51.5390571" lon="7.2562974"/>
      <trkpt lat="51.5388782" lon="7.2565022"/>
      <trkpt lat="51.5388315" lon="7.2565530"/>
      <trkpt lat="51.5388047" lon="7.2565821"/>
      <trkpt lat="51.5382806" lon="7.2571523"/>
      <trkpt lat="51.5382008" lon="7.2572459"/>
      <trkpt lat="51.5381038" lon="7.2573524"/>
      <trkpt lat="51.5380759" lon="7.2573906"/>
      <trkpt lat="51.5380469" lon="7.2574374"/>
      <trkpt lat="51.5381034" lon="7.2575172"/>
      <trkpt lat="51.5381622" lon="7.2576174"/>
      <trkpt lat="51.5382069" lon="7.2576935"/>
      <trkpt lat="51.5382504" lon="7.2577568"/>
      <trkpt lat="51.5382992" lon="7.2578277"/>
      <trkpt lat="51.5383485" lon="7.2578995"/>
      <trkpt lat="51.5384860" lon="7.2580995"/>
      <trkpt lat="51.5387665" lon="7.2584947"/>
      <trkpt lat="51.5389401" lon="7.2587393"/>
      <trkpt lat="51.5390750" lon="7.2589336"/>
      <trkpt lat="51.5391310" lon="7.2590143"/>
      <trkpt lat="51.5391570" lon="7.2590269"/>
      <trkpt lat="51.5391978" lon="7.2590341"/>
      <trkpt lat="51.5392386" lon="7.2592947"/>
      <trkpt lat="51.5392496" lon="7.2593826"/>
      <trkpt lat="51.5392621" lon="7.2594735"/>
      <trkpt lat="51.5392998" lon="7.2596945"/>
      <trkpt lat="51.5392142" lon="7.2597575"/>
      <trkpt lat="51.5390936" lon="7.2598024"/>
      <trkpt lat="51.5390818" lon="7.2598064"/>
      <trkpt lat="51.5389545" lon="7.2598564"/>
      <trkpt lat="51.5388413" lon="7.2598994"/>
      <trkpt lat="51.5387839" lon="7.2599235"/>
      <trkpt lat="51.5386627" lon="7.2599973"/>
      <trkpt lat="51.5386110" lon="7.2600514"/>
      <trkpt lat="51.5385451" lon="7.2601410"/>
      <trkpt lat="51.5384951" lon="7.2602473"/>
      <trkpt lat="51.5384176" lon="7.2604123"/>
      <trkpt lat="51.5383374" lon="7.2606254"/>
      <trkpt lat="51.5382641" lon="7.2608116"/>
      <trkpt lat="51.5382318" lon="7.2608959"/>
      <trkpt lat="51.5382043" lon="7.2609676"/>
      <trkpt lat="51.5378866" lon="7.2618088"/>
      <trkpt lat="51.5378091" lon="7.2620139"/>
      <trkpt lat="51.5377256" lon="7.2622162"/>
      <trkpt lat="51.5376365" lon="7.2624343"/>
      <trkpt lat="51.5374654" lon="7.2628528"/>
      <trkpt lat="51.5374237" lon="7.2629533"/>
      <trkpt lat="51.5374078" lon="7.2629937"/>
      <trkpt lat="51.5372994" lon="7.2632587"/>
      <trkpt lat="51.5372402" lon="7.2634029"/>
      <trkpt lat="51.5371853" lon="7.2635376"/>
      <trkpt lat="51.5371684" lon="7.2635790"/>
      <trkpt lat="51.5370874" lon="7.2637773"/>
      <trkpt lat="51.5369170" lon="7.2636513"/>
      <trkpt lat="51.5368666" lon="7.2636139"/>
      <trkpt lat="51.5367359" lon="7.2635169"/>
      <trkpt lat="51.5366168" lon="7.2634299"/>
      <trkpt lat="51.5362332" lon="7.2630335"/>
      <trkpt lat="51.5361073" lon="7.2628721"/>
      <trkpt lat="51.5360868" lon="7.2628401"/>
      <trkpt lat="51.5359721" lon="7.2626613"/>
      <trkpt lat="51.5358631" lon="7.2624602"/>
      <trkpt lat="51.5357077" lon="7.2621553"/>
      <trkpt lat="51.5356776" lon="7.2620928"/>
      <trkpt lat="51.5355764" lon="7.2618892"/>
      <trkpt lat="51.5354800" lon="7.2616853"/>
      <trkpt lat="51.5352955" lon="7.2612978"/>
      <trkpt lat="51.5351920" lon="7.2610598"/>
      <trkpt lat="51.5350903" lon="7.2608200"/>
      <trkpt lat="51.5348078" lon="7.2601161"/>
      <trkpt lat="51.5347285" lon="7.2601882"/>
      <trkpt lat="51.5346391" lon="7.2602695"/>
      <trkpt lat="51.5345396" lon="7.2603599"/>
      <trkpt lat="51.5344406" lon="7.2604499"/>
      <trkpt lat="51.5343490" lon="7.2605331"/>
      <trkpt lat="51.5342266" lon="7.2606445"/>
      <trkpt lat="51.5343145" lon="7.2608475"/>
      <trkpt lat="51.5344480" lon="7.2611648"/>
      <trkpt lat="51.5346698" lon="7.2616923"/>
      <trkpt lat="51.5348393" lon="7.2620953"/>
      <trkpt lat="51.5348931" lon="7.2622232"/>
      <trkpt lat="51.5350223" lon="7.2621726"/>
      <trkpt lat="51.5351399" lon="7.2621393"/>
      <trkpt lat="51.5352234" lon="7.2621322"/>
      <trkpt lat="51.5353534" lon="7.2621046"/>
      <trkpt lat="51.5354109" lon="7.2620657"/>
      <trkpt lat="51.5354212" lon="7.2620588"/>
      <trkpt lat="51.5354584" lon="7.2620319"/>
      <trkpt lat="51.5354797" lon="7.2620096"/>
      <trkpt lat="51.5355764" lon="7.2618892"/>
      <trkpt lat="51.5354800" lon="7.2616853"/>
      <trkpt lat="51.5352955" lon="7.2612978"/>
      <trkpt lat="51.5351920" lon="7.2610598"/>
      <trkpt lat="51.5350903" lon="7.2608200"/>
      <trkpt lat="51.5348078" lon="7.2601161"/>
      <trkpt lat="51.5346738" lon="7.2597360"/>
      <trkpt lat="51.5345784" lon="7.2594328"/>
      <trkpt lat="51.5344751" lon="7.2590289"/>
      <trkpt lat="51.5344464" lon="7.2588893"/>
      <trkpt lat="51.5343844" lon="7.2585685"/>
      <trkpt lat="51.5343412" lon="7.2582518"/>
      <trkpt lat="51.5343179" lon="7.2578987"/>
      <trkpt lat="51.5343096" lon="7.2577180"/>
      <trkpt lat="51.5343070" lon="7.2574120"/>
      <trkpt lat="51.5343082" lon="7.2573679"/>
      <trkpt lat="51.5343108" lon="7.2572751"/>
      <trkpt lat="51.5343229" lon="7.2570626"/>
      <trkpt lat="51.5341898" lon="7.2570256"/>
      <trkpt lat="51.5341720" lon="7.2570202"/>
      <trkpt lat="51.5341325" lon="7.2570013"/>
      <trkpt lat="51.5339953" lon="7.2568951"/>
      <trkpt lat="51.5338830" lon="7.2567661"/>
      <trkpt lat="51.5337892" lon="7.2566178"/>
      <trkpt lat="51.5337224" lon="7.2564938"/>
      <trkpt lat="51.5336021" lon="7.2561742"/>
      <trkpt lat="51.5332955" lon="7.2553025"/>
      <trkpt lat="51.5332480" lon="7.2551675"/>
      <trkpt lat="51.5331787" lon="7.2549600"/>
      <trkpt lat="51.5331168" lon="7.2547432"/>
      <trkpt lat="51.5330716" lon="7.2545938"/>
      <trkpt lat="51.5328895" lon="7.2539708"/>
      <trkpt lat="51.5328653" lon="7.2538881"/>
      <trkpt lat="51.5328109" lon="7.2537022"/>
      <trkpt lat="51.5327549" lon="7.2535106"/>
      <trkpt lat="51.5326888" lon="7.2532848"/>
      <trkpt lat="51.5325848" lon="7.2529291"/>
      <trkpt lat="51.5325712" lon="7.2528823"/>
      <trkpt lat="51.5325086" lon="7.2526684"/>
      <trkpt lat="51.5324021" lon="7.2523042"/>
      <trkpt lat="51.5321833" lon="7.2515558"/>
      <trkpt lat="51.5321617" lon="7.2514821"/>
      <trkpt lat="51.5329146" lon="7.2510903"/>
      <trkpt lat="51.5332365" lon="7.2509233"/>
      <trkpt lat="51.5337004" lon="7.2506825"/>
      <trkpt lat="51.5347443" lon="7.2501408"/>
      <trkpt lat="51.5349306" lon="7.2500441"/>
      <trkpt lat="51.5349682" lon="7.2500178"/>
      <trkpt lat="51.5350043" lon="7.2500059"/>
      <trkpt lat="51.5352175" lon="7.2498952"/>
      <trkpt lat="51.5357086" lon="7.2496403"/>
      <trkpt lat="51.5362865" lon="7.2493404"/>
      <trkpt lat="51.5363997" lon="7.2492967"/>
      <trkpt lat="51.5364368" lon="7.2492829"/>
      <trkpt lat="51.5365897" lon="7.2492246"/>
      <trkpt lat="51.5367161" lon="7.2491788"/>
      <trkpt lat="51.5368421" lon="7.2491315"/>
      <trkpt lat="51.5369092" lon="7.2490960"/>
      <trkpt lat="51.5371113" lon="7.2489563"/>
      <trkpt lat="51.5373715" lon="7.2487523"/>
      <trkpt lat="51.5374310" lon="7.2487075"/>
      <trkpt lat="51.5375041" lon="7.2486524"/>
      <trkpt lat="51.5375999" lon="7.2485832"/>
      <trkpt lat="51.5375507" lon="7.2484098"/>
      <trkpt lat="51.5375327" lon="7.2483465"/>
      <trkpt lat="51.5375010" lon="7.2482350"/>
      <trkpt lat="51.5374683" lon="7.2481198"/>
      <trkpt lat="51.5374621" lon="7.2480983"/>
      <trkpt lat="51.5374204" lon="7.2479513"/>
      <trkpt lat="51.5373859" lon="7.2478300"/>
      <trkpt lat="51.5373794" lon="7.2478068"/>
      <trkpt lat="51.5373152" lon="7.2475811"/>
      <trkpt lat="51.5372620" lon="7.2473970"/>
      <trkpt lat="51.5371909" lon="7.2471537"/>
      <trkpt lat="51.5371296" lon="7.2469886"/>
      <trkpt lat="51.5370391" lon="7.2467977"/>
      <trkpt lat="51.5369692" lon="7.2466813"/>
      <trkpt lat="51.5369396" lon="7.2466349"/>
      <trkpt lat="51.5368222" lon="7.2464195"/>
      <trkpt lat="51.5368062" lon="7.2463879"/>
      <trkpt lat="51.5367848" lon="7.2463464"/>
      <trkpt lat="51.5367374" lon="7.2461967"/>
      <trkpt lat="51.5367388" lon="7.2461499"/>
      <trkpt lat="51.5367421" lon="7.2459115"/>
      <trkpt lat="51.5367442" lon="7.2456976"/>
      <trkpt lat="51.5367402" lon="7.2454717"/>
      <trkpt lat="51.5367298" lon="7.2452236"/>
      <trkpt lat="51.5367171" lon="7.2450418"/>
      <trkpt lat="51.5366858" lon="7.2446841"/>
      <trkpt lat="51.5366245" lon="7.2440752"/>
      <trkpt lat="51.5365949" lon="7.2435817"/>
      <trkpt lat="51.5365799" lon="7.2432028"/>
      <trkpt lat="51.5365799" lon="7.2428749"/>
      <trkpt lat="51.5365811" lon="7.2425698"/>
      <trkpt lat="51.5365978" lon="7.2421742"/>
      <trkpt lat="51.5366265" lon="7.2417095"/>
      <trkpt lat="51.5366483" lon="7.2414346"/>
      <trkpt lat="51.5366921" lon="7.2407822"/>
      <trkpt lat="51.5367083" lon="7.2402940"/>
      <trkpt lat="51.5367617" lon="7.2391547"/>
      <trkpt lat="51.5367978" lon="7.2386250"/>
      <trkpt lat="51.5368009" lon="7.2385678"/>
      <trkpt lat="51.5368126" lon="7.2383549"/>
      <trkpt lat="51.5368243" lon="7.2381511"/>
      <trkpt lat="51.5368286" lon="7.2380634"/>
      <trkpt lat="51.5368276" lon="7.2379025"/>
      <trkpt lat="51.5368111" lon="7.2376173"/>
      <trkpt lat="51.5368650" lon="7.2366050"/>
      <trkpt lat="51.5368819" lon="7.2362763"/>
      <trkpt lat="51.5368864" lon="7.2361872"/>
      <trkpt lat="51.5369764" lon="7.2344301"/>
      <trkpt lat="51.5370053" lon="7.2342671"/>
      <trkpt lat="51.5370374" lon="7.2338349"/>
      <trkpt lat="51.5370415" lon="7.2337795"/>
      <trkpt lat="51.5370584" lon="7.2335518"/>
      <trkpt lat="51.5370753" lon="7.2333338"/>
      <trkpt lat="51.5370796" lon="7.2332108"/>
      <trkpt lat="51.5371033" lon="7.2331356"/>
      <trkpt lat="51.5371210" lon="7.2330539"/>
      <trkpt lat="51.5371352" lon="7.2329718"/>
      <trkpt lat="51.5371508" lon="7.2328853"/>
      <trkpt lat="51.5371553" lon="7.2328148"/>
      <trkpt lat="51.5371546" lon="7.2327364"/>
      <trkpt lat="51.5371473" lon="7.2326492"/>
      <trkpt lat="51.5371378" lon="7.2325609"/>
      <trkpt lat="51.5370980" lon="7.2323028"/>
      <trkpt lat="51.5370849" lon="7.2322344"/>
      <trkpt lat="51.5370506" lon="7.2320742"/>
      <trkpt lat="51.5369918" lon="7.2318127"/>
      <trkpt lat="51.5369533" lon="7.2316403"/>
      <trkpt lat="51.5369281" lon="7.2315476"/>
      <trkpt lat="51.5369156" lon="7.2315124"/>
      <trkpt lat="51.5368971" lon="7.2314675"/>
      <trkpt lat="51.5368739" lon="7.2314223"/>
      <trkpt lat="51.5368464" lon="7.2313773"/>
      <trkpt lat="51.5368200" lon="7.2313444"/>
      <trkpt lat="51.5367719" lon="7.2312869"/>
      <trkpt lat="51.5367546" lon="7.2312025"/>
      <trkpt lat="51.5367040" lon="7.2309371"/>
      <trkpt lat="51.5366595" lon="7.2306997"/>
      <trkpt lat="51.5365095" lon="7.2299003"/>
      <trkpt lat="51.5364998" lon="7.2298447"/>
      <trkpt lat="51.5364549" lon="7.2295885"/>
      <trkpt lat="51.5364367" lon="7.2294846"/>
      <trkpt lat="51.5363983" lon="7.2292649"/>
      <trkpt lat="51.5363259" lon="7.2288691"/>
      <trkpt lat="51.5363120" lon="7.2287262"/>
      <trkpt lat="51.5362010" lon="7.2281175"/>
      <trkpt lat="51.5361059" lon="7.2275964"/>
      <trkpt lat="51.5360612" lon="7.2273513"/>
      <trkpt lat="51.5359048" lon="7.2264395"/>
      <trkpt lat="51.5358966" lon="7.2263913"/>
      <trkpt lat="51.5358781" lon="7.2262838"/>
      <trkpt lat="51.5358561" lon="7.2261555"/>
      <trkpt lat="51.5358393" lon="7.2260576"/>
      <trkpt lat="51.5357783" lon="7.2256873"/>
      <trkpt lat="51.5357158" lon="7.2253523"/>
      <trkpt lat="51.5356833" lon="7.2251874"/>
      <trkpt lat="51.5356569" lon="7.2250527"/>
      <trkpt lat="51.5355514" lon="7.2246183"/>
      <trkpt lat="51.5355054" lon="7.2244530"/>
      <trkpt lat="51.5354690" lon="7.2243265"/>
      <trkpt lat="51.5354107" lon="7.2241253"/>
      <trkpt lat="51.5355348" lon="7.2240370"/>
      <trkpt lat="51.5355816" lon="7.2240037"/>
      <trkpt lat="51.5357011" lon="7.2239187"/>
      <trkpt lat="51.5358235" lon="7.2238317"/>
      <trkpt lat="51.5359643" lon="7.2237316"/>
      <trkpt lat="51.5360473" lon="7.2237570"/>
      <trkpt lat="51.5361805" lon="7.2236599"/>
      <trkpt lat="51.5362014" lon="7.2236447"/>
      <trkpt lat="51.5362425" lon="7.2236147"/>
      <trkpt lat="51.5362686" lon="7.2235958"/>
      <trkpt lat="51.5363070" lon="7.2234960"/>
      <trkpt lat="51.5363376" lon="7.2234693"/>
      <trkpt lat="51.5365141" lon="7.2233152"/>
      <trkpt lat="51.5365586" lon="7.2232763"/>
      <trkpt lat="51.5365928" lon="7.2232465"/>
      <trkpt lat="51.5367850" lon="7.2230787"/>
      <trkpt lat="51.5369263" lon="7.2229552"/>
      <trkpt lat="51.5370330" lon="7.2228620"/>
      <trkpt lat="51.5370984" lon="7.2228049"/>
      <trkpt lat="51.5373822" lon="7.2225539"/>
      <trkpt lat="51.5374554" lon="7.2224924"/>
      <trkpt lat="51.5375141" lon="7.2224396"/>
      <trkpt lat="51.5375713" lon="7.2223895"/>
      <trkpt lat="51.5376233" lon="7.2223454"/>
      <trkpt lat="51.5377461" lon="7.2222470"/>
      <trkpt lat="51.5378914" lon="7.2221415"/>
      <trkpt lat="51.5379349" lon="7.2221106"/>
      <trkpt lat="51.5382328" lon="7.2218703"/>
      <trkpt lat="51.5383509" lon="7.2217776"/>
      <trkpt lat="51.5384702" lon="7.2216827"/>
      <trkpt lat="51.5385433" lon="7.2216246"/>
      <trkpt lat="51.5385797" lon="7.2215936"/>
      <trkpt lat="51.5386090" lon="7.2215667"/>
      <trkpt lat="51.5386544" lon="7.2215087"/>
      <trkpt lat="51.5386904" lon="7.2214573"/>
      <trkpt lat="51.5387177" lon="7.2214117"/>
      <trkpt lat="51.5387452" lon="7.2213574"/>
      <trkpt lat="51.5388026" lon="7.2212171"/>
      <trkpt lat="51.5388640" lon="7.2210173"/>
      <trkpt lat="51.5388968" lon="7.2209281"/>
      <trkpt lat="51.5389654" lon="7.2207149"/>
      <trkpt lat="51.5390261" lon="7.2204996"/>
      <trkpt lat="51.5390945" lon="7.2202860"/>
      <trkpt lat="51.5391293" lon="7.2201796"/>
      <trkpt lat="51.5391311" lon="7.2201740"/>
      <trkpt lat="51.5391579" lon="7.2201577"/>
      <trkpt lat="51.5391808" lon="7.2201308"/>
      <trkpt lat="51.5392083" lon="7.2201033"/>
      <trkpt lat="51.5392352" lon="7.2200906"/>
      <trkpt lat="51.5392736" lon="7.2200885"/>
      <trkpt lat="51.5393105" lon="7.2201074"/>
      <trkpt lat="51.5393655" lon="7.2201487"/>
      <trkpt lat="51.5394258" lon="7.2201955"/>
      <trkpt lat="51.5394648" lon="7.2202091"/>
      <trkpt lat="51.5395037" lon="7.2202132"/>
      <trkpt lat="51.5396636" lon="7.2203740"/>
      <trkpt lat="51.5397121" lon="7.2204228"/>
      <trkpt lat="51.5397739" lon="7.2204849"/>
      <trkpt lat="51.5398355" lon="7.2205469"/>
      <trkpt lat="51.5399370" lon="7.2206471"/>
      <trkpt lat="51.5401341" lon="7.2208417"/>
      <trkpt lat="51.5402017" lon="7.2209031"/>
      <trkpt lat="51.5403300" lon="7.2209885"/>
      <trkpt lat="51.5403604" lon="7.2210173"/>
      <trkpt lat="51.5403821" lon="7.2210307"/>
      <trkpt lat="51.5404215" lon="7.2210398"/>
      <trkpt lat="51.5404356" lon="7.2210389"/>
      <trkpt lat="51.5409774" lon="7.2210059"/>
      <trkpt lat="51.5410922" lon="7.2209989"/>
      <trkpt lat="51.5411326" lon="7.2209964"/>
      <trkpt lat="51.5412244" lon="7.2209696"/>
      <trkpt lat="51.5412743" lon="7.2209491"/>
      <trkpt lat="51.5413260" lon="7.2209173"/>
      <trkpt lat="51.5413767" lon="7.2208748"/>
      <trkpt lat="51.5414221" lon="7.2208336"/>
      <trkpt lat="51.5414538" lon="7.2207953"/>
      <trkpt lat="51.5414982" lon="7.2207280"/>
      <trkpt lat="51.5415230" lon="7.2206797"/>
      <trkpt lat="51.5415353" lon="7.2206005"/>
      <trkpt lat="51.5415536" lon="7.2205613"/>
      <trkpt lat="51.5415674" lon="7.2205231"/>
      <trkpt lat="51.5415785" lon="7.2204852"/>
      <trkpt lat="51.5415883" lon="7.2204416"/>
      <trkpt lat="51.5415962" lon="7.2204031"/>
      <trkpt lat="51.5416016" lon="7.2203605"/>
      <trkpt lat="51.5416066" lon="7.2203174"/>
      <trkpt lat="51.5416108" lon="7.2202743"/>
      <trkpt lat="51.5416140" lon="7.2202300"/>
      <trkpt lat="51.5416166" lon="7.2201870"/>
      <trkpt lat="51.5416187" lon="7.2201434"/>
      <trkpt lat="51.5416677" lon="7.2191672"/>
      <trkpt lat="51.5416717" lon="7.2191024"/>
      <trkpt lat="51.5416867" lon="7.2188637"/>
      <trkpt lat="51.5417013" lon="7.2186296"/>
      <trkpt lat="51.5417050" lon="7.2185698"/>
      <trkpt lat="51.5417171" lon="7.2183991"/>
      <trkpt lat="51.5417331" lon="7.2182357"/>
      <trkpt lat="51.5417413" lon="7.2181535"/>
      <trkpt lat="51.5417520" lon="7.2180481"/>
      <trkpt lat="51.5417568" lon="7.2180058"/>
      <trkpt lat="51.5418047" lon="7.2177960"/>
      <trkpt lat="51.5418307" lon="7.2176213"/>
      <trkpt lat="51.5418963" lon="7.2173498"/>
      <trkpt lat="51.5419187" lon="7.2172679"/>
      <trkpt lat="51.5419746" lon="7.2170693"/>
      <trkpt lat="51.5420340" lon="7.2170346"/>
      <trkpt lat="51.5422756" lon="7.2169084"/>
      <trkpt lat="51.5424066" lon="7.2168374"/>
      <trkpt lat="51.5424693" lon="7.2167932"/>
      <trkpt lat="51.5425309" lon="7.2167464"/>
      <trkpt lat="51.5435528" lon="7.2162067"/>
      <trkpt lat="51.5438004" lon="7.2160957"/>
      <trkpt lat="51.5439909" lon="7.2159885"/>
      <trkpt lat="51.5440282" lon="7.2159664"/>
      <trkpt lat="51.5440800" lon="7.2159375"/>
      <trkpt lat="51.5441877" lon="7.2158742"/>
      <trkpt lat="51.5442913" lon="7.2160135"/>
      <trkpt lat="51.5443746" lon="7.2161347"/>
      <trkpt lat="51.5443921" lon="7.2162639"/>
      <trkpt lat="51.5444059" lon="7.2163655"/>
      <trkpt lat="51.5444383" lon="7.2165254"/>
      <trkpt lat="51.5445155" lon="7.2168276"/>
      <trkpt lat="51.5445948" lon="7.2171437"/>
      <trkpt lat="51.5446295" lon="7.2172810"/>
      <trkpt lat="51.5446856" lon="7.2175025"/>
      <trkpt lat="51.5447008" lon="7.2175625"/>
      <trkpt lat="51.5447778" lon="7.2178669"/>
      <trkpt lat="51.5448161" lon="7.2180283"/>
      <trkpt lat="51.5448394" lon="7.2181188"/>
      <trkpt lat="51.5448478" lon="7.2181812"/>
      <trkpt lat="51.5448492" lon="7.2182422"/>
      <trkpt lat="51.5448451" lon="7.2183026"/>
      <trkpt lat="51.5448301" lon="7.2183569"/>
      <trkpt lat="51.5448148" lon="7.2183948"/>
      <trkpt lat="51.5447969" lon="7.2184176"/>
      <trkpt lat="51.5447786" lon="7.2184263"/>
      <trkpt lat="51.5447531" lon="7.2184306"/>
      <trkpt lat="51.5447250" lon="7.2184310"/>
      <trkpt lat="51.5446889" lon="7.2184273"/>
      <trkpt lat="51.5446509" lon="7.2184206"/>
      <trkpt lat="51.5445721" lon="7.2181507"/>
      <trkpt lat="51.5445120" lon="7.2179104"/>
      <trkpt lat="51.5445053" lon="7.2178839"/>
      <trkpt lat="51.5444185" lon="7.2175371"/>
      <trkpt lat="51.5444024" lon="7.2174726"/>
      <trkpt lat="51.5443935" lon="7.2174373"/>
      <trkpt lat="51.5443849" lon="7.2174028"/>
      <trkpt lat="51.5443368" lon="7.2172108"/>
    </trkseg>
  </trk>
</gpx>