<?xml version="1.0" encoding="UTF-8"?>
<gpx version="1.1" creator="Linienjagd Castrop-Rauxel" xmlns="http://www.topografix.com/GPX/1/1">
  <metadata><name>Linie 351 – komplette Linie</name><desc>Bus 351: Herne Mitte =&gt; Castrop-Rauxel Münsterplatz | 10.68 km | 23 Haltestellen</desc></metadata>
  <wpt lat="51.5409774" lon="7.2210059"><name>01 Herne Mitte</name><sym>Flag</sym></wpt>
  <wpt lat="51.5443368" lon="7.2172108"><name>02 Herne Bahnhof</name><sym>Flag</sym></wpt>
  <wpt lat="51.5445596" lon="7.2276543"><name>03 Beienweg</name><sym>Flag</sym></wpt>
  <wpt lat="51.5455040" lon="7.2317289"><name>04 Vinckestraße</name><sym>Flag</sym></wpt>
  <wpt lat="51.5472049" lon="7.2378736"><name>05 Am Trimbuschhof</name><sym>Flag</sym></wpt>
  <wpt lat="51.5474077" lon="7.2407615"><name>06 Florianweg</name><sym>Flag</sym></wpt>
  <wpt lat="51.5499868" lon="7.2470320"><name>07 Hunbergstraße</name><sym>Flag</sym></wpt>
  <wpt lat="51.5495836" lon="7.2502757"><name>08 Gewerkenstraße</name><sym>Flag</sym></wpt>
  <wpt lat="51.5496941" lon="7.2555152"><name>09 Voßnacken</name><sym>Flag</sym></wpt>
  <wpt lat="51.5486314" lon="7.2634079"><name>10 An der Linde</name><sym>Flag</sym></wpt>
  <wpt lat="51.5497246" lon="7.2663289"><name>11 Vellwigstraße</name><sym>Flag</sym></wpt>
  <wpt lat="51.5523671" lon="7.2694387"><name>12 Schadeburgstraße/Börnig Bf</name><sym>Flag</sym></wpt>
  <wpt lat="51.5518699" lon="7.2734932"><name>13 Teutoburgia</name><sym>Flag</sym></wpt>
  <wpt lat="51.5486606" lon="7.2751129"><name>14 Baarestraße</name><sym>Flag</sym></wpt>
  <wpt lat="51.5488180" lon="7.2809360"><name>15 Holthausen Mitte</name><sym>Flag</sym></wpt>
  <wpt lat="51.5493319" lon="7.2845467"><name>16 Bruchstraße</name><sym>Flag</sym></wpt>
  <wpt lat="51.5511191" lon="7.2940701"><name>17 Westring/Herner Straße</name><sym>Flag</sym></wpt>
  <wpt lat="51.5551594" lon="7.2937355"><name>18 Gewerbegebiet Westring</name><sym>Flag</sym></wpt>
  <wpt lat="51.5571003" lon="7.2945214"><name>19 Emschertalstraße</name><sym>Flag</sym></wpt>
  <wpt lat="51.5552861" lon="7.2967434"><name>20 Engellaustraße</name><sym>Flag</sym></wpt>
  <wpt lat="51.5538057" lon="7.2985491"><name>21 Sägewerk</name><sym>Flag</sym></wpt>
  <wpt lat="51.5518068" lon="7.3009944"><name>22 Bauhof</name><sym>Flag</sym></wpt>
  <wpt lat="51.5495623" lon="7.3092147"><name>23 Castrop Münsterplatz</name><sym>Flag</sym></wpt>
  <trk><name>Linie 351 – komplette Linie</name>
    <trkseg>
      <trkpt lat="51.5404215" lon="7.2210398"/>
      <trkpt lat="51.5404356" lon="7.2210389"/>
      <trkpt lat="51.5409774" lon="7.2210059"/>
      <trkpt lat="51.5410922" lon="7.2209989"/>
      <trkpt lat="51.5411326" lon="7.2209964"/>
      <trkpt lat="51.5412244" lon="7.2209696"/>
      <trkpt lat="51.5412743" lon="7.2209491"/>
      <trkpt lat="51.5413260" lon="7.2209173"/>
      <trkpt lat="51.5413767" lon="7.2208748"/>
      <trkpt lat="51.5414221" lon="7.2208336"/>
      <trkpt lat="51.5414538" lon="7.2207953"/>
      <trkpt lat="51.5414982" lon="7.2207280"/>
      <trkpt lat="51.5415230" lon="7.2206797"/>
      <trkpt lat="51.5415353" lon="7.2206005"/>
      <trkpt lat="51.5415536" lon="7.2205613"/>
      <trkpt lat="51.5415674" lon="7.2205231"/>
      <trkpt lat="51.5415785" lon="7.2204852"/>
      <trkpt lat="51.5415883" lon="7.2204416"/>
      <trkpt lat="51.5415962" lon="7.2204031"/>
      <trkpt lat="51.5416016" lon="7.2203605"/>
      <trkpt lat="51.5416066" lon="7.2203174"/>
      <trkpt lat="51.5416108" lon="7.2202743"/>
      <trkpt lat="51.5416140" lon="7.2202300"/>
      <trkpt lat="51.5416166" lon="7.2201870"/>
      <trkpt lat="51.5416187" lon="7.2201434"/>
      <trkpt lat="51.5416677" lon="7.2191672"/>
      <trkpt lat="51.5416717" lon="7.2191024"/>
      <trkpt lat="51.5416867" lon="7.2188637"/>
      <trkpt lat="51.5417013" lon="7.2186296"/>
      <trkpt lat="51.5417050" lon="7.2185698"/>
      <trkpt lat="51.5417171" lon="7.2183991"/>
      <trkpt lat="51.5417331" lon="7.2182357"/>
      <trkpt lat="51.5417413" lon="7.2181535"/>
      <trkpt lat="51.5417520" lon="7.2180481"/>
      <trkpt lat="51.5417568" lon="7.2180058"/>
      <trkpt lat="51.5418047" lon="7.2177960"/>
      <trkpt lat="51.5418307" lon="7.2176213"/>
      <trkpt lat="51.5418963" lon="7.2173498"/>
      <trkpt lat="51.5419187" lon="7.2172679"/>
      <trkpt lat="51.5419746" lon="7.2170693"/>
      <trkpt lat="51.5420340" lon="7.2170346"/>
      <trkpt lat="51.5422756" lon="7.2169084"/>
      <trkpt lat="51.5424066" lon="7.2168374"/>
      <trkpt lat="51.5424693" lon="7.2167932"/>
      <trkpt lat="51.5425309" lon="7.2167464"/>
      <trkpt lat="51.5435528" lon="7.2162067"/>
      <trkpt lat="51.5438004" lon="7.2160957"/>
      <trkpt lat="51.5439909" lon="7.2159885"/>
      <trkpt lat="51.5440282" lon="7.2159664"/>
      <trkpt lat="51.5440800" lon="7.2159375"/>
      <trkpt lat="51.5441877" lon="7.2158742"/>
      <trkpt lat="51.5442913" lon="7.2160135"/>
      <trkpt lat="51.5443746" lon="7.2161347"/>
      <trkpt lat="51.5443921" lon="7.2162639"/>
      <trkpt lat="51.5444059" lon="7.2163655"/>
      <trkpt lat="51.5444383" lon="7.2165254"/>
      <trkpt lat="51.5445155" lon="7.2168276"/>
      <trkpt lat="51.5445948" lon="7.2171437"/>
      <trkpt lat="51.5446295" lon="7.2172810"/>
      <trkpt lat="51.5446856" lon="7.2175025"/>
      <trkpt lat="51.5447008" lon="7.2175625"/>
      <trkpt lat="51.5447778" lon="7.2178669"/>
      <trkpt lat="51.5448161" lon="7.2180283"/>
      <trkpt lat="51.5448394" lon="7.2181188"/>
      <trkpt lat="51.5448478" lon="7.2181812"/>
      <trkpt lat="51.5448492" lon="7.2182422"/>
      <trkpt lat="51.5448451" lon="7.2183026"/>
      <trkpt lat="51.5448301" lon="7.2183569"/>
      <trkpt lat="51.5448148" lon="7.2183948"/>
      <trkpt lat="51.5447969" lon="7.2184176"/>
      <trkpt lat="51.5447786" lon="7.2184263"/>
      <trkpt lat="51.5447531" lon="7.2184306"/>
      <trkpt lat="51.5447250" lon="7.2184310"/>
      <trkpt lat="51.5446889" lon="7.2184273"/>
      <trkpt lat="51.5446509" lon="7.2184206"/>
      <trkpt lat="51.5445721" lon="7.2181507"/>
      <trkpt lat="51.5445120" lon="7.2179104"/>
      <trkpt lat="51.5445053" lon="7.2178839"/>
      <trkpt lat="51.5444185" lon="7.2175371"/>
      <trkpt lat="51.5444024" lon="7.2174726"/>
      <trkpt lat="51.5443935" lon="7.2174373"/>
      <trkpt lat="51.5443849" lon="7.2174028"/>
      <trkpt lat="51.5443368" lon="7.2172108"/>
      <trkpt lat="51.5442821" lon="7.2169920"/>
      <trkpt lat="51.5442527" lon="7.2168747"/>
      <trkpt lat="51.5442190" lon="7.2167402"/>
      <trkpt lat="51.5442123" lon="7.2166955"/>
      <trkpt lat="51.5442104" lon="7.2166607"/>
      <trkpt lat="51.5442114" lon="7.2166208"/>
      <trkpt lat="51.5442204" lon="7.2165813"/>
      <trkpt lat="51.5442316" lon="7.2165504"/>
      <trkpt lat="51.5442469" lon="7.2165236"/>
      <trkpt lat="51.5442631" lon="7.2165055"/>
      <trkpt lat="51.5442960" lon="7.2164806"/>
      <trkpt lat="51.5443138" lon="7.2164710"/>
      <trkpt lat="51.5443308" lon="7.2164711"/>
      <trkpt lat="51.5443540" lon="7.2164758"/>
      <trkpt lat="51.5443744" lon="7.2164833"/>
      <trkpt lat="51.5444027" lon="7.2164968"/>
      <trkpt lat="51.5444383" lon="7.2165254"/>
      <trkpt lat="51.5445155" lon="7.2168276"/>
      <trkpt lat="51.5445948" lon="7.2171437"/>
      <trkpt lat="51.5446295" lon="7.2172810"/>
      <trkpt lat="51.5446856" lon="7.2175025"/>
      <trkpt lat="51.5447189" lon="7.2175026"/>
      <trkpt lat="51.5447710" lon="7.2175160"/>
      <trkpt lat="51.5447961" lon="7.2175254"/>
      <trkpt lat="51.5448188" lon="7.2175355"/>
      <trkpt lat="51.5448399" lon="7.2175452"/>
      <trkpt lat="51.5448561" lon="7.2175582"/>
      <trkpt lat="51.5448713" lon="7.2175710"/>
      <trkpt lat="51.5448849" lon="7.2175874"/>
      <trkpt lat="51.5449073" lon="7.2176178"/>
      <trkpt lat="51.5449745" lon="7.2179308"/>
      <trkpt lat="51.5449957" lon="7.2180293"/>
      <trkpt lat="51.5450226" lon="7.2181883"/>
      <trkpt lat="51.5450126" lon="7.2182150"/>
      <trkpt lat="51.5450062" lon="7.2182355"/>
      <trkpt lat="51.5450016" lon="7.2182572"/>
      <trkpt lat="51.5449990" lon="7.2182798"/>
      <trkpt lat="51.5449984" lon="7.2183027"/>
      <trkpt lat="51.5449999" lon="7.2183256"/>
      <trkpt lat="51.5450071" lon="7.2183642"/>
      <trkpt lat="51.5450201" lon="7.2183987"/>
      <trkpt lat="51.5450380" lon="7.2184270"/>
      <trkpt lat="51.5450613" lon="7.2184486"/>
      <trkpt lat="51.5450874" lon="7.2184595"/>
      <trkpt lat="51.5451537" lon="7.2186352"/>
      <trkpt lat="51.5451984" lon="7.2187490"/>
      <trkpt lat="51.5452479" lon="7.2187601"/>
      <trkpt lat="51.5452580" lon="7.2187851"/>
      <trkpt lat="51.5453388" lon="7.2189651"/>
      <trkpt lat="51.5454632" lon="7.2192161"/>
      <trkpt lat="51.5455298" lon="7.2193443"/>
      <trkpt lat="51.5456295" lon="7.2195702"/>
      <trkpt lat="51.5458088" lon="7.2199808"/>
      <trkpt lat="51.5461774" lon="7.2208868"/>
      <trkpt lat="51.5462106" lon="7.2209684"/>
      <trkpt lat="51.5462749" lon="7.2211264"/>
      <trkpt lat="51.5461599" lon="7.2212347"/>
      <trkpt lat="51.5458026" lon="7.2216096"/>
      <trkpt lat="51.5456360" lon="7.2217800"/>
      <trkpt lat="51.5450015" lon="7.2224287"/>
      <trkpt lat="51.5444775" lon="7.2231305"/>
      <trkpt lat="51.5442520" lon="7.2234242"/>
      <trkpt lat="51.5440705" lon="7.2236891"/>
      <trkpt lat="51.5438522" lon="7.2240696"/>
      <trkpt lat="51.5436444" lon="7.2244054"/>
      <trkpt lat="51.5435882" lon="7.2244951"/>
      <trkpt lat="51.5435583" lon="7.2245376"/>
      <trkpt lat="51.5434686" lon="7.2246649"/>
      <trkpt lat="51.5435172" lon="7.2248568"/>
      <trkpt lat="51.5435344" lon="7.2249142"/>
      <trkpt lat="51.5435699" lon="7.2250129"/>
      <trkpt lat="51.5436667" lon="7.2252730"/>
      <trkpt lat="51.5437439" lon="7.2254803"/>
      <trkpt lat="51.5437847" lon="7.2255896"/>
      <trkpt lat="51.5438047" lon="7.2256422"/>
      <trkpt lat="51.5439798" lon="7.2261033"/>
      <trkpt lat="51.5439948" lon="7.2261428"/>
      <trkpt lat="51.5440342" lon="7.2262465"/>
      <trkpt lat="51.5442325" lon="7.2267687"/>
      <trkpt lat="51.5445596" lon="7.2276543"/>
      <trkpt lat="51.5445965" lon="7.2277729"/>
      <trkpt lat="51.5446349" lon="7.2279151"/>
      <trkpt lat="51.5446649" lon="7.2280424"/>
      <trkpt lat="51.5447145" lon="7.2283212"/>
      <trkpt lat="51.5447592" lon="7.2286317"/>
      <trkpt lat="51.5449825" lon="7.2301849"/>
      <trkpt lat="51.5450237" lon="7.2304709"/>
      <trkpt lat="51.5450411" lon="7.2305922"/>
      <trkpt lat="51.5451414" lon="7.2312901"/>
      <trkpt lat="51.5451494" lon="7.2313459"/>
      <trkpt lat="51.5451814" lon="7.2315687"/>
      <trkpt lat="51.5451944" lon="7.2316628"/>
      <trkpt lat="51.5453472" lon="7.2316954"/>
      <trkpt lat="51.5454811" lon="7.2317240"/>
      <trkpt lat="51.5455040" lon="7.2317289"/>
      <trkpt lat="51.5457150" lon="7.2317739"/>
      <trkpt lat="51.5459500" lon="7.2318204"/>
      <trkpt lat="51.5459874" lon="7.2318270"/>
      <trkpt lat="51.5466007" lon="7.2319607"/>
      <trkpt lat="51.5467329" lon="7.2319993"/>
      <trkpt lat="51.5468129" lon="7.2320261"/>
      <trkpt lat="51.5469048" lon="7.2320842"/>
      <trkpt lat="51.5469672" lon="7.2321374"/>
      <trkpt lat="51.5472137" lon="7.2323923"/>
      <trkpt lat="51.5473421" lon="7.2325344"/>
      <trkpt lat="51.5474034" lon="7.2326083"/>
      <trkpt lat="51.5473300" lon="7.2327409"/>
      <trkpt lat="51.5473078" lon="7.2328024"/>
      <trkpt lat="51.5472975" lon="7.2328849"/>
      <trkpt lat="51.5472863" lon="7.2334469"/>
      <trkpt lat="51.5472744" lon="7.2340441"/>
      <trkpt lat="51.5472492" lon="7.2353037"/>
      <trkpt lat="51.5472434" lon="7.2355979"/>
      <trkpt lat="51.5472297" lon="7.2362864"/>
      <trkpt lat="51.5472141" lon="7.2371384"/>
      <trkpt lat="51.5472111" lon="7.2372497"/>
      <trkpt lat="51.5472082" lon="7.2373563"/>
      <trkpt lat="51.5472070" lon="7.2374368"/>
      <trkpt lat="51.5472062" lon="7.2376285"/>
      <trkpt lat="51.5472049" lon="7.2378736"/>
      <trkpt lat="51.5472097" lon="7.2380561"/>
      <trkpt lat="51.5472492" lon="7.2385957"/>
      <trkpt lat="51.5472633" lon="7.2387879"/>
      <trkpt lat="51.5473126" lon="7.2394622"/>
      <trkpt lat="51.5473253" lon="7.2396353"/>
      <trkpt lat="51.5473339" lon="7.2397524"/>
      <trkpt lat="51.5473411" lon="7.2398513"/>
      <trkpt lat="51.5474077" lon="7.2407615"/>
      <trkpt lat="51.5474149" lon="7.2408593"/>
      <trkpt lat="51.5474219" lon="7.2409558"/>
      <trkpt lat="51.5474571" lon="7.2414362"/>
      <trkpt lat="51.5476015" lon="7.2413998"/>
      <trkpt lat="51.5476989" lon="7.2413682"/>
      <trkpt lat="51.5480792" lon="7.2412509"/>
      <trkpt lat="51.5483046" lon="7.2411654"/>
      <trkpt lat="51.5489517" lon="7.2409108"/>
      <trkpt lat="51.5491273" lon="7.2408613"/>
      <trkpt lat="51.5492098" lon="7.2409006"/>
      <trkpt lat="51.5492316" lon="7.2409167"/>
      <trkpt lat="51.5492746" lon="7.2409484"/>
      <trkpt lat="51.5493341" lon="7.2410252"/>
      <trkpt lat="51.5493885" lon="7.2411050"/>
      <trkpt lat="51.5494199" lon="7.2415225"/>
      <trkpt lat="51.5494224" lon="7.2415565"/>
      <trkpt lat="51.5494990" lon="7.2425808"/>
      <trkpt lat="51.5495471" lon="7.2429277"/>
      <trkpt lat="51.5496226" lon="7.2432865"/>
      <trkpt lat="51.5500114" lon="7.2444576"/>
      <trkpt lat="51.5500427" lon="7.2445750"/>
      <trkpt lat="51.5500687" lon="7.2447132"/>
      <trkpt lat="51.5500902" lon="7.2448616"/>
      <trkpt lat="51.5500978" lon="7.2449655"/>
      <trkpt lat="51.5501039" lon="7.2450664"/>
      <trkpt lat="51.5501047" lon="7.2452613"/>
      <trkpt lat="51.5500787" lon="7.2456619"/>
      <trkpt lat="51.5500219" lon="7.2465265"/>
      <trkpt lat="51.5499868" lon="7.2470320"/>
      <trkpt lat="51.5499444" lon="7.2475830"/>
      <trkpt lat="51.5499373" lon="7.2476738"/>
      <trkpt lat="51.5498876" lon="7.2481951"/>
      <trkpt lat="51.5498695" lon="7.2483854"/>
      <trkpt lat="51.5498655" lon="7.2484251"/>
      <trkpt lat="51.5498593" lon="7.2484905"/>
      <trkpt lat="51.5498063" lon="7.2490092"/>
      <trkpt lat="51.5497793" lon="7.2492837"/>
      <trkpt lat="51.5497616" lon="7.2494317"/>
      <trkpt lat="51.5497436" lon="7.2495522"/>
      <trkpt lat="51.5497236" lon="7.2496647"/>
      <trkpt lat="51.5496815" lon="7.2498679"/>
      <trkpt lat="51.5496803" lon="7.2498736"/>
      <trkpt lat="51.5495836" lon="7.2502757"/>
      <trkpt lat="51.5495661" lon="7.2503586"/>
      <trkpt lat="51.5495329" lon="7.2505166"/>
      <trkpt lat="51.5495026" lon="7.2506762"/>
      <trkpt lat="51.5494760" lon="7.2508478"/>
      <trkpt lat="51.5494545" lon="7.2510594"/>
      <trkpt lat="51.5494406" lon="7.2512637"/>
      <trkpt lat="51.5494401" lon="7.2514608"/>
      <trkpt lat="51.5494500" lon="7.2516527"/>
      <trkpt lat="51.5494590" lon="7.2518230"/>
      <trkpt lat="51.5494815" lon="7.2520542"/>
      <trkpt lat="51.5495567" lon="7.2527344"/>
      <trkpt lat="51.5495783" lon="7.2529862"/>
      <trkpt lat="51.5495915" lon="7.2532625"/>
      <trkpt lat="51.5496015" lon="7.2538482"/>
      <trkpt lat="51.5496078" lon="7.2543190"/>
      <trkpt lat="51.5496177" lon="7.2546157"/>
      <trkpt lat="51.5496288" lon="7.2548117"/>
      <trkpt lat="51.5496541" lon="7.2550997"/>
      <trkpt lat="51.5496755" lon="7.2553170"/>
      <trkpt lat="51.5496894" lon="7.2554651"/>
      <trkpt lat="51.5496941" lon="7.2555152"/>
      <trkpt lat="51.5497207" lon="7.2557978"/>
      <trkpt lat="51.5497281" lon="7.2558769"/>
      <trkpt lat="51.5497374" lon="7.2559758"/>
      <trkpt lat="51.5497514" lon="7.2561251"/>
      <trkpt lat="51.5497773" lon="7.2564000"/>
      <trkpt lat="51.5497944" lon="7.2565796"/>
      <trkpt lat="51.5498023" lon="7.2566860"/>
      <trkpt lat="51.5498154" lon="7.2570109"/>
      <trkpt lat="51.5498155" lon="7.2570687"/>
      <trkpt lat="51.5498150" lon="7.2573012"/>
      <trkpt lat="51.5498052" lon="7.2574994"/>
      <trkpt lat="51.5498008" lon="7.2575627"/>
      <trkpt lat="51.5497885" lon="7.2577391"/>
      <trkpt lat="51.5497727" lon="7.2579136"/>
      <trkpt lat="51.5497537" lon="7.2580552"/>
      <trkpt lat="51.5497258" lon="7.2582410"/>
      <trkpt lat="51.5496970" lon="7.2584006"/>
      <trkpt lat="51.5496572" lon="7.2585880"/>
      <trkpt lat="51.5496497" lon="7.2586240"/>
      <trkpt lat="51.5496083" lon="7.2588218"/>
      <trkpt lat="51.5495531" lon="7.2590766"/>
      <trkpt lat="51.5495193" lon="7.2592318"/>
      <trkpt lat="51.5494589" lon="7.2595088"/>
      <trkpt lat="51.5494462" lon="7.2595699"/>
      <trkpt lat="51.5493130" lon="7.2601849"/>
      <trkpt lat="51.5492436" lon="7.2605066"/>
      <trkpt lat="51.5491898" lon="7.2607553"/>
      <trkpt lat="51.5490673" lon="7.2613223"/>
      <trkpt lat="51.5490267" lon="7.2615088"/>
      <trkpt lat="51.5489680" lon="7.2617776"/>
      <trkpt lat="51.5489035" lon="7.2620728"/>
      <trkpt lat="51.5488891" lon="7.2621386"/>
      <trkpt lat="51.5488472" lon="7.2623263"/>
      <trkpt lat="51.5488098" lon="7.2625247"/>
      <trkpt lat="51.5487869" lon="7.2626385"/>
      <trkpt lat="51.5487436" lon="7.2628510"/>
      <trkpt lat="51.5487420" lon="7.2628589"/>
      <trkpt lat="51.5486490" lon="7.2633227"/>
      <trkpt lat="51.5486314" lon="7.2634079"/>
      <trkpt lat="51.5485395" lon="7.2639013"/>
      <trkpt lat="51.5484825" lon="7.2642059"/>
      <trkpt lat="51.5484354" lon="7.2644795"/>
      <trkpt lat="51.5483984" lon="7.2647671"/>
      <trkpt lat="51.5483851" lon="7.2649021"/>
      <trkpt lat="51.5483699" lon="7.2650562"/>
      <trkpt lat="51.5483673" lon="7.2651131"/>
      <trkpt lat="51.5483650" lon="7.2651633"/>
      <trkpt lat="51.5483633" lon="7.2652025"/>
      <trkpt lat="51.5483466" lon="7.2655772"/>
      <trkpt lat="51.5483386" lon="7.2657565"/>
      <trkpt lat="51.5483216" lon="7.2659509"/>
      <trkpt lat="51.5483803" lon="7.2659390"/>
      <trkpt lat="51.5484106" lon="7.2659423"/>
      <trkpt lat="51.5484431" lon="7.2659482"/>
      <trkpt lat="51.5488157" lon="7.2660676"/>
      <trkpt lat="51.5490528" lon="7.2661436"/>
      <trkpt lat="51.5491378" lon="7.2661709"/>
      <trkpt lat="51.5494542" lon="7.2662664"/>
      <trkpt lat="51.5497246" lon="7.2663289"/>
      <trkpt lat="51.5499701" lon="7.2663841"/>
      <trkpt lat="51.5501421" lon="7.2664227"/>
      <trkpt lat="51.5502339" lon="7.2664349"/>
      <trkpt lat="51.5503166" lon="7.2664335"/>
      <trkpt lat="51.5503706" lon="7.2664549"/>
      <trkpt lat="51.5504165" lon="7.2664489"/>
      <trkpt lat="51.5504528" lon="7.2664425"/>
      <trkpt lat="51.5505153" lon="7.2664261"/>
      <trkpt lat="51.5505476" lon="7.2664154"/>
      <trkpt lat="51.5505614" lon="7.2664107"/>
      <trkpt lat="51.5505923" lon="7.2663969"/>
      <trkpt lat="51.5506444" lon="7.2663154"/>
      <trkpt lat="51.5506948" lon="7.2662951"/>
      <trkpt lat="51.5508446" lon="7.2662273"/>
      <trkpt lat="51.5511654" lon="7.2660613"/>
      <trkpt lat="51.5512292" lon="7.2660479"/>
      <trkpt lat="51.5512813" lon="7.2660486"/>
      <trkpt lat="51.5513451" lon="7.2660805"/>
      <trkpt lat="51.5516048" lon="7.2663155"/>
      <trkpt lat="51.5520460" lon="7.2667319"/>
      <trkpt lat="51.5524084" lon="7.2669074"/>
      <trkpt lat="51.5524829" lon="7.2670246"/>
      <trkpt lat="51.5525175" lon="7.2671221"/>
      <trkpt lat="51.5525309" lon="7.2671697"/>
      <trkpt lat="51.5525522" lon="7.2672606"/>
      <trkpt lat="51.5525632" lon="7.2673517"/>
      <trkpt lat="51.5525658" lon="7.2674562"/>
      <trkpt lat="51.5525642" lon="7.2676446"/>
      <trkpt lat="51.5525592" lon="7.2679479"/>
      <trkpt lat="51.5525507" lon="7.2680937"/>
      <trkpt lat="51.5525540" lon="7.2682101"/>
      <trkpt lat="51.5525450" lon="7.2682692"/>
      <trkpt lat="51.5525114" lon="7.2684899"/>
      <trkpt lat="51.5524396" lon="7.2689620"/>
      <trkpt lat="51.5523671" lon="7.2694387"/>
      <trkpt lat="51.5523107" lon="7.2698088"/>
      <trkpt lat="51.5523034" lon="7.2698570"/>
      <trkpt lat="51.5521517" lon="7.2708541"/>
      <trkpt lat="51.5520608" lon="7.2714811"/>
      <trkpt lat="51.5520216" lon="7.2718390"/>
      <trkpt lat="51.5519328" lon="7.2728028"/>
      <trkpt lat="51.5518699" lon="7.2734932"/>
      <trkpt lat="51.5517637" lon="7.2747490"/>
      <trkpt lat="51.5517391" lon="7.2750319"/>
      <trkpt lat="51.5517254" lon="7.2751729"/>
      <trkpt lat="51.5516209" lon="7.2759788"/>
      <trkpt lat="51.5511025" lon="7.2757967"/>
      <trkpt lat="51.5509752" lon="7.2757521"/>
      <trkpt lat="51.5508532" lon="7.2757092"/>
      <trkpt lat="51.5500917" lon="7.2755589"/>
      <trkpt lat="51.5499807" lon="7.2753085"/>
      <trkpt lat="51.5488651" lon="7.2751447"/>
      <trkpt lat="51.5486606" lon="7.2751129"/>
      <trkpt lat="51.5484646" lon="7.2750802"/>
      <trkpt lat="51.5484341" lon="7.2750799"/>
      <trkpt lat="51.5483808" lon="7.2750896"/>
      <trkpt lat="51.5483370" lon="7.2751107"/>
      <trkpt lat="51.5483304" lon="7.2752633"/>
      <trkpt lat="51.5483231" lon="7.2754333"/>
      <trkpt lat="51.5483200" lon="7.2755027"/>
      <trkpt lat="51.5482942" lon="7.2759438"/>
      <trkpt lat="51.5482864" lon="7.2761551"/>
      <trkpt lat="51.5482837" lon="7.2763491"/>
      <trkpt lat="51.5482902" lon="7.2765588"/>
      <trkpt lat="51.5483002" lon="7.2767005"/>
      <trkpt lat="51.5483168" lon="7.2768340"/>
      <trkpt lat="51.5483401" lon="7.2769742"/>
      <trkpt lat="51.5484080" lon="7.2772729"/>
      <trkpt lat="51.5484611" lon="7.2774435"/>
      <trkpt lat="51.5484869" lon="7.2775263"/>
      <trkpt lat="51.5485108" lon="7.2776276"/>
      <trkpt lat="51.5485200" lon="7.2776760"/>
      <trkpt lat="51.5485381" lon="7.2777707"/>
      <trkpt lat="51.5485656" lon="7.2779378"/>
      <trkpt lat="51.5486090" lon="7.2782513"/>
      <trkpt lat="51.5486331" lon="7.2784920"/>
      <trkpt lat="51.5486494" lon="7.2786752"/>
      <trkpt lat="51.5486584" lon="7.2787755"/>
      <trkpt lat="51.5486793" lon="7.2790269"/>
      <trkpt lat="51.5486832" lon="7.2790732"/>
      <trkpt lat="51.5487038" lon="7.2793937"/>
      <trkpt lat="51.5487084" lon="7.2795143"/>
      <trkpt lat="51.5487104" lon="7.2795663"/>
      <trkpt lat="51.5487207" lon="7.2798367"/>
      <trkpt lat="51.5487265" lon="7.2799879"/>
      <trkpt lat="51.5487316" lon="7.2801702"/>
      <trkpt lat="51.5487393" lon="7.2803678"/>
      <trkpt lat="51.5487462" lon="7.2804314"/>
      <trkpt lat="51.5488024" lon="7.2808264"/>
      <trkpt lat="51.5488180" lon="7.2809360"/>
      <trkpt lat="51.5488367" lon="7.2810675"/>
      <trkpt lat="51.5488438" lon="7.2811174"/>
      <trkpt lat="51.5489068" lon="7.2815601"/>
      <trkpt lat="51.5489444" lon="7.2818246"/>
      <trkpt lat="51.5490181" lon="7.2823421"/>
      <trkpt lat="51.5490508" lon="7.2825717"/>
      <trkpt lat="51.5492103" lon="7.2836931"/>
      <trkpt lat="51.5493061" lon="7.2843657"/>
      <trkpt lat="51.5493239" lon="7.2844907"/>
      <trkpt lat="51.5493319" lon="7.2845467"/>
      <trkpt lat="51.5493414" lon="7.2846136"/>
      <trkpt lat="51.5493952" lon="7.2849911"/>
      <trkpt lat="51.5494314" lon="7.2852443"/>
      <trkpt lat="51.5495086" lon="7.2858026"/>
      <trkpt lat="51.5495157" lon="7.2858538"/>
      <trkpt lat="51.5495493" lon="7.2861191"/>
      <trkpt lat="51.5500740" lon="7.2902805"/>
      <trkpt lat="51.5501088" lon="7.2905636"/>
      <trkpt lat="51.5501399" lon="7.2908643"/>
      <trkpt lat="51.5501669" lon="7.2911607"/>
      <trkpt lat="51.5501835" lon="7.2914113"/>
      <trkpt lat="51.5502029" lon="7.2917713"/>
      <trkpt lat="51.5502077" lon="7.2919169"/>
      <trkpt lat="51.5502089" lon="7.2919540"/>
      <trkpt lat="51.5502065" lon="7.2921376"/>
      <trkpt lat="51.5502090" lon="7.2923825"/>
      <trkpt lat="51.5502081" lon="7.2925673"/>
      <trkpt lat="51.5502074" lon="7.2926516"/>
      <trkpt lat="51.5501997" lon="7.2930517"/>
      <trkpt lat="51.5501849" lon="7.2934858"/>
      <trkpt lat="51.5501648" lon="7.2938695"/>
      <trkpt lat="51.5501591" lon="7.2939907"/>
      <trkpt lat="51.5501367" lon="7.2939913"/>
      <trkpt lat="51.5501146" lon="7.2939979"/>
      <trkpt lat="51.5500967" lon="7.2940082"/>
      <trkpt lat="51.5500799" lon="7.2940225"/>
      <trkpt lat="51.5500606" lon="7.2940460"/>
      <trkpt lat="51.5500443" lon="7.2940748"/>
      <trkpt lat="51.5500336" lon="7.2941016"/>
      <trkpt lat="51.5500255" lon="7.2941307"/>
      <trkpt lat="51.5500194" lon="7.2941693"/>
      <trkpt lat="51.5500178" lon="7.2942091"/>
      <trkpt lat="51.5500190" lon="7.2942237"/>
      <trkpt lat="51.5500215" lon="7.2942536"/>
      <trkpt lat="51.5500310" lon="7.2942958"/>
      <trkpt lat="51.5500401" lon="7.2943211"/>
      <trkpt lat="51.5500513" lon="7.2943443"/>
      <trkpt lat="51.5500688" lon="7.2943706"/>
      <trkpt lat="51.5500889" lon="7.2943913"/>
      <trkpt lat="51.5501217" lon="7.2944104"/>
      <trkpt lat="51.5501401" lon="7.2944147"/>
      <trkpt lat="51.5501587" lon="7.2944148"/>
      <trkpt lat="51.5501832" lon="7.2944084"/>
      <trkpt lat="51.5502065" lon="7.2943947"/>
      <trkpt lat="51.5502319" lon="7.2943693"/>
      <trkpt lat="51.5502531" lon="7.2943354"/>
      <trkpt lat="51.5502648" lon="7.2943076"/>
      <trkpt lat="51.5502736" lon="7.2942772"/>
      <trkpt lat="51.5502799" lon="7.2942402"/>
      <trkpt lat="51.5502820" lon="7.2942021"/>
      <trkpt lat="51.5503196" lon="7.2941950"/>
      <trkpt lat="51.5503610" lon="7.2941867"/>
      <trkpt lat="51.5506111" lon="7.2941426"/>
      <trkpt lat="51.5507464" lon="7.2941245"/>
      <trkpt lat="51.5509940" lon="7.2940842"/>
      <trkpt lat="51.5511191" lon="7.2940701"/>
      <trkpt lat="51.5512893" lon="7.2940518"/>
      <trkpt lat="51.5513244" lon="7.2940504"/>
      <trkpt lat="51.5517039" lon="7.2940327"/>
      <trkpt lat="51.5518470" lon="7.2940246"/>
      <trkpt lat="51.5519819" lon="7.2940238"/>
      <trkpt lat="51.5521204" lon="7.2940210"/>
      <trkpt lat="51.5521896" lon="7.2940214"/>
      <trkpt lat="51.5524416" lon="7.2940163"/>
      <trkpt lat="51.5531787" lon="7.2940066"/>
      <trkpt lat="51.5532599" lon="7.2940055"/>
      <trkpt lat="51.5537064" lon="7.2939717"/>
      <trkpt lat="51.5538332" lon="7.2939547"/>
      <trkpt lat="51.5538748" lon="7.2939491"/>
      <trkpt lat="51.5542978" lon="7.2938842"/>
      <trkpt lat="51.5543750" lon="7.2938684"/>
      <trkpt lat="51.5543842" lon="7.2939221"/>
      <trkpt lat="51.5543973" lon="7.2939608"/>
      <trkpt lat="51.5544146" lon="7.2939935"/>
      <trkpt lat="51.5544356" lon="7.2940200"/>
      <trkpt lat="51.5544594" lon="7.2940392"/>
      <trkpt lat="51.5544942" lon="7.2940523"/>
      <trkpt lat="51.5545299" lon="7.2940500"/>
      <trkpt lat="51.5545573" lon="7.2940373"/>
      <trkpt lat="51.5545770" lon="7.2940211"/>
      <trkpt lat="51.5545948" lon="7.2939999"/>
      <trkpt lat="51.5546080" lon="7.2939783"/>
      <trkpt lat="51.5546192" lon="7.2939539"/>
      <trkpt lat="51.5546281" lon="7.2939275"/>
      <trkpt lat="51.5546346" lon="7.2938993"/>
      <trkpt lat="51.5546389" lon="7.2938649"/>
      <trkpt lat="51.5546398" lon="7.2938297"/>
      <trkpt lat="51.5547221" lon="7.2938148"/>
      <trkpt lat="51.5551594" lon="7.2937355"/>
      <trkpt lat="51.5552719" lon="7.2937151"/>
      <trkpt lat="51.5556778" lon="7.2936271"/>
      <trkpt lat="51.5559826" lon="7.2935578"/>
      <trkpt lat="51.5561681" lon="7.2935201"/>
      <trkpt lat="51.5562320" lon="7.2935092"/>
      <trkpt lat="51.5564164" lon="7.2934606"/>
      <trkpt lat="51.5567327" lon="7.2933729"/>
      <trkpt lat="51.5569727" lon="7.2933063"/>
      <trkpt lat="51.5570480" lon="7.2932821"/>
      <trkpt lat="51.5573221" lon="7.2931770"/>
      <trkpt lat="51.5576916" lon="7.2929977"/>
      <trkpt lat="51.5578131" lon="7.2929330"/>
      <trkpt lat="51.5578579" lon="7.2931483"/>
      <trkpt lat="51.5579004" lon="7.2932971"/>
      <trkpt lat="51.5579272" lon="7.2933680"/>
      <trkpt lat="51.5579605" lon="7.2933944"/>
      <trkpt lat="51.5579593" lon="7.2934376"/>
      <trkpt lat="51.5579492" lon="7.2934795"/>
      <trkpt lat="51.5579229" lon="7.2935302"/>
      <trkpt lat="51.5571920" lon="7.2944086"/>
      <trkpt lat="51.5571003" lon="7.2945214"/>
      <trkpt lat="51.5569178" lon="7.2947481"/>
      <trkpt lat="51.5562988" lon="7.2955146"/>
      <trkpt lat="51.5560615" lon="7.2958055"/>
      <trkpt lat="51.5554881" lon="7.2964945"/>
      <trkpt lat="51.5553593" lon="7.2966533"/>
      <trkpt lat="51.5552861" lon="7.2967434"/>
      <trkpt lat="51.5551673" lon="7.2968898"/>
      <trkpt lat="51.5543362" lon="7.2979015"/>
      <trkpt lat="51.5539012" lon="7.2984367"/>
      <trkpt lat="51.5538057" lon="7.2985491"/>
      <trkpt lat="51.5534727" lon="7.2989490"/>
      <trkpt lat="51.5533191" lon="7.2991407"/>
      <trkpt lat="51.5530747" lon="7.2994318"/>
      <trkpt lat="51.5530292" lon="7.2994924"/>
      <trkpt lat="51.5526443" lon="7.2999633"/>
      <trkpt lat="51.5522613" lon="7.3004315"/>
      <trkpt lat="51.5522084" lon="7.3004965"/>
      <trkpt lat="51.5521580" lon="7.3005582"/>
      <trkpt lat="51.5519263" lon="7.3008434"/>
      <trkpt lat="51.5518068" lon="7.3009944"/>
      <trkpt lat="51.5515168" lon="7.3013436"/>
      <trkpt lat="51.5503868" lon="7.3027032"/>
      <trkpt lat="51.5503191" lon="7.3027414"/>
      <trkpt lat="51.5501629" lon="7.3027468"/>
      <trkpt lat="51.5501535" lon="7.3029778"/>
      <trkpt lat="51.5501449" lon="7.3031478"/>
      <trkpt lat="51.5501339" lon="7.3033578"/>
      <trkpt lat="51.5501269" lon="7.3035107"/>
      <trkpt lat="51.5501104" lon="7.3040843"/>
      <trkpt lat="51.5501087" lon="7.3046653"/>
      <trkpt lat="51.5501131" lon="7.3049542"/>
      <trkpt lat="51.5501234" lon="7.3052619"/>
      <trkpt lat="51.5501419" lon="7.3055598"/>
      <trkpt lat="51.5501993" lon="7.3062938"/>
      <trkpt lat="51.5502437" lon="7.3066489"/>
      <trkpt lat="51.5502466" lon="7.3070324"/>
      <trkpt lat="51.5502152" lon="7.3071784"/>
      <trkpt lat="51.5501467" lon="7.3072658"/>
      <trkpt lat="51.5500901" lon="7.3072942"/>
      <trkpt lat="51.5500254" lon="7.3072845"/>
      <trkpt lat="51.5499163" lon="7.3072122"/>
      <trkpt lat="51.5498016" lon="7.3071831"/>
      <trkpt lat="51.5496826" lon="7.3071541"/>
      <trkpt lat="51.5495710" lon="7.3071774"/>
      <trkpt lat="51.5494223" lon="7.3072571"/>
      <trkpt lat="51.5493192" lon="7.3073629"/>
      <trkpt lat="51.5492617" lon="7.3074219"/>
      <trkpt lat="51.5489878" lon="7.3078004"/>
      <trkpt lat="51.5489809" lon="7.3078957"/>
      <trkpt lat="51.5489835" lon="7.3079770"/>
      <trkpt lat="51.5490498" lon="7.3082507"/>
      <trkpt lat="51.5491719" lon="7.3085843"/>
      <trkpt lat="51.5492175" lon="7.3086793"/>
      <trkpt lat="51.5493265" lon="7.3088877"/>
      <trkpt lat="51.5493442" lon="7.3089234"/>
      <trkpt lat="51.5493716" lon="7.3089642"/>
      <trkpt lat="51.5494510" lon="7.3090787"/>
      <trkpt lat="51.5495623" lon="7.3092147"/>
    </trkseg>
  </trk>
</gpx>