<?xml version="1.0" encoding="UTF-8"?>
<gpx version="1.1" creator="Linienjagd Castrop-Rauxel" xmlns="http://www.topografix.com/GPX/1/1">
  <metadata><name>Linie 353 – komplette Linie</name><desc>Bus 353: Blankensteiner Straße =&gt; Castrop Münsterplatz | 21.93 km | 56 Haltestellen</desc></metadata>
  <wpt lat="51.4431968" lon="7.1933075"><name>01 Blankensteiner Straße</name><sym>Flag</sym></wpt>
  <wpt lat="51.4417840" lon="7.1950613"><name>02 Heinrich-König-Straße</name><sym>Flag</sym></wpt>
  <wpt lat="51.4398843" lon="7.1999804"><name>03 Am Holtkamp</name><sym>Flag</sym></wpt>
  <wpt lat="51.4394437" lon="7.2017928"><name>04 Schule Neulingstraße</name><sym>Flag</sym></wpt>
  <wpt lat="51.4399695" lon="7.2045056"><name>05 Neulingstraße</name><sym>Flag</sym></wpt>
  <wpt lat="51.4415371" lon="7.2080922"><name>06 Natorpstraße</name><sym>Flag</sym></wpt>
  <wpt lat="51.4432354" lon="7.2048926"><name>07 Holtingstraße</name><sym>Flag</sym></wpt>
  <wpt lat="51.4465918" lon="7.2017517"><name>08 Am Kuhlenkamp</name><sym>Flag</sym></wpt>
  <wpt lat="51.4477308" lon="7.2089819"><name>09 Karl-Friedrich-Straße</name><sym>Flag</sym></wpt>
  <wpt lat="51.4487048" lon="7.2124292"><name>10 Kellermannsweg</name><sym>Flag</sym></wpt>
  <wpt lat="51.4494192" lon="7.2150114"><name>11 Prinz-Regent-Straße</name><sym>Flag</sym></wpt>
  <wpt lat="51.4507157" lon="7.2187379"><name>12 Knappenstraße/Zeche</name><sym>Flag</sym></wpt>
  <wpt lat="51.4517233" lon="7.2229477"><name>13 Berneckerstraße</name><sym>Flag</sym></wpt>
  <wpt lat="51.4580651" lon="7.2241970"><name>14 Knappschaft</name><sym>Flag</sym></wpt>
  <wpt lat="51.4612701" lon="7.2213743"><name>15 Werk Eickhoff</name><sym>Flag</sym></wpt>
  <wpt lat="51.4646153" lon="7.2197738"><name>16 Rechener Park</name><sym>Flag</sym></wpt>
  <wpt lat="51.4677870" lon="7.2185267"><name>17 Farnstraße</name><sym>Flag</sym></wpt>
  <wpt lat="51.4710290" lon="7.2172817"><name>18 Christstraße</name><sym>Flag</sym></wpt>
  <wpt lat="51.4730846" lon="7.2169567"><name>19 Schauspielhaus</name><sym>Flag</sym></wpt>
  <wpt lat="51.4736185" lon="7.2212508"><name>20 Knüwerweg</name><sym>Flag</sym></wpt>
  <wpt lat="51.4744283" lon="7.2255833"><name>21 Oskar-Hoffmann-Straße</name><sym>Flag</sym></wpt>
  <wpt lat="51.4775273" lon="7.2228895"><name>22 Hauptbahnhof/Buddenbergplatz</name><sym>Flag</sym></wpt>
  <wpt lat="51.4803522" lon="7.2221720"><name>23 Hauptbahnhof/Boulevard</name><sym>Flag</sym></wpt>
  <wpt lat="51.4816619" lon="7.2197589"><name>24 Bongardstraße</name><sym>Flag</sym></wpt>
  <wpt lat="51.4819303" lon="7.2167136"><name>25 Rathaus</name><sym>Flag</sym></wpt>
  <wpt lat="51.4851706" lon="7.2163465"><name>26 Brückstraße</name><sym>Flag</sym></wpt>
  <wpt lat="51.4852793" lon="7.2195595"><name>27 Nordring</name><sym>Flag</sym></wpt>
  <wpt lat="51.4880906" lon="7.2213972"><name>28 Kunstmuseum</name><sym>Flag</sym></wpt>
  <wpt lat="51.4926337" lon="7.2220780"><name>29 Neuer Park</name><sym>Flag</sym></wpt>
  <wpt lat="51.4953463" lon="7.2238227"><name>30 Gudrunstraße</name><sym>Flag</sym></wpt>
  <wpt lat="51.4986091" lon="7.2248182"><name>31 Vierhausstraße</name><sym>Flag</sym></wpt>
  <wpt lat="51.4998302" lon="7.2276827"><name>32 Tenthoffstraße</name><sym>Flag</sym></wpt>
  <wpt lat="51.5052713" lon="7.2333571"><name>33 Tippelsberg</name><sym>Flag</sym></wpt>
  <wpt lat="51.5064148" lon="7.2423887"><name>34 Kötterberg</name><sym>Flag</sym></wpt>
  <wpt lat="51.5097297" lon="7.2474187"><name>35 Düppe in der Wanne</name><sym>Flag</sym></wpt>
  <wpt lat="51.5125939" lon="7.2525854"><name>36 Eifelstraße</name><sym>Flag</sym></wpt>
  <wpt lat="51.5144611" lon="7.2524578"><name>37 Im Hagenacker</name><sym>Flag</sym></wpt>
  <wpt lat="51.5148038" lon="7.2582775"><name>38 Hiltrop Kirche</name><sym>Flag</sym></wpt>
  <wpt lat="51.5152930" lon="7.2612697"><name>39 Hiltroper Busch</name><sym>Flag</sym></wpt>
  <wpt lat="51.5152291" lon="7.2664934"><name>40 Paul-Müller-Straße</name><sym>Flag</sym></wpt>
  <wpt lat="51.5156662" lon="7.2715647"><name>41 Heinrichstraße</name><sym>Flag</sym></wpt>
  <wpt lat="51.5193824" lon="7.2754973"><name>42 Gerthe Mitte</name><sym>Flag</sym></wpt>
  <wpt lat="51.5219060" lon="7.2788198"><name>43 Holthauser Straße</name><sym>Flag</sym></wpt>
  <wpt lat="51.5236518" lon="7.2823532"><name>44 Schürbankstraße</name><sym>Flag</sym></wpt>
  <wpt lat="51.5251158" lon="7.2866278"><name>45 Cöppencastrop</name><sym>Flag</sym></wpt>
  <wpt lat="51.5288465" lon="7.2914637"><name>46 Mittelfeldschule</name><sym>Flag</sym></wpt>
  <wpt lat="51.5325159" lon="7.2972740"><name>47 Langeloh</name><sym>Flag</sym></wpt>
  <wpt lat="51.5348731" lon="7.2991041"><name>48 Kreuzstraße</name><sym>Flag</sym></wpt>
  <wpt lat="51.5378575" lon="7.3070535"><name>49 Breckenstraße</name><sym>Flag</sym></wpt>
  <wpt lat="51.5402138" lon="7.3088567"><name>50 Cottenburgstraße</name><sym>Flag</sym></wpt>
  <wpt lat="51.5421425" lon="7.3081156"><name>51 Stadtgarten</name><sym>Flag</sym></wpt>
  <wpt lat="51.5446632" lon="7.3079747"><name>52 Klothkamp</name><sym>Flag</sym></wpt>
  <wpt lat="51.5448048" lon="7.3142836"><name>53 Beethovenstraße</name><sym>Flag</sym></wpt>
  <wpt lat="51.5466058" lon="7.3144201"><name>54 Katholisches Krankenhaus</name><sym>Flag</sym></wpt>
  <wpt lat="51.5480418" lon="7.3130469"><name>55 Castrop Markt</name><sym>Flag</sym></wpt>
  <wpt lat="51.5497851" lon="7.3092433"><name>56 Castrop Münsterplatz</name><sym>Flag</sym></wpt>
  <trk><name>Linie 353 – komplette Linie</name>
    <trkseg>
      <trkpt lat="51.4431968" lon="7.1933075"/>
      <trkpt lat="51.4432792" lon="7.1934467"/>
      <trkpt lat="51.4433264" lon="7.1935250"/>
      <trkpt lat="51.4433434" lon="7.1935535"/>
      <trkpt lat="51.4433803" lon="7.1936103"/>
      <trkpt lat="51.4434541" lon="7.1937170"/>
      <trkpt lat="51.4435300" lon="7.1938155"/>
      <trkpt lat="51.4436168" lon="7.1939216"/>
      <trkpt lat="51.4437095" lon="7.1940168"/>
      <trkpt lat="51.4437402" lon="7.1940476"/>
      <trkpt lat="51.4437807" lon="7.1940853"/>
      <trkpt lat="51.4437818" lon="7.1941075"/>
      <trkpt lat="51.4437782" lon="7.1942249"/>
      <trkpt lat="51.4437689" lon="7.1942840"/>
      <trkpt lat="51.4437535" lon="7.1943432"/>
      <trkpt lat="51.4437254" lon="7.1943979"/>
      <trkpt lat="51.4436121" lon="7.1944406"/>
      <trkpt lat="51.4434850" lon="7.1944919"/>
      <trkpt lat="51.4433163" lon="7.1945617"/>
      <trkpt lat="51.4431709" lon="7.1946218"/>
      <trkpt lat="51.4431634" lon="7.1946250"/>
      <trkpt lat="51.4430282" lon="7.1946816"/>
      <trkpt lat="51.4429644" lon="7.1947076"/>
      <trkpt lat="51.4429132" lon="7.1947282"/>
      <trkpt lat="51.4427116" lon="7.1948092"/>
      <trkpt lat="51.4426482" lon="7.1948358"/>
      <trkpt lat="51.4425477" lon="7.1948780"/>
      <trkpt lat="51.4424960" lon="7.1949023"/>
      <trkpt lat="51.4424005" lon="7.1949473"/>
      <trkpt lat="51.4423004" lon="7.1949932"/>
      <trkpt lat="51.4422531" lon="7.1950106"/>
      <trkpt lat="51.4422266" lon="7.1950203"/>
      <trkpt lat="51.4421764" lon="7.1950332"/>
      <trkpt lat="51.4421194" lon="7.1950455"/>
      <trkpt lat="51.4419778" lon="7.1950521"/>
      <trkpt lat="51.4419538" lon="7.1950539"/>
      <trkpt lat="51.4417840" lon="7.1950613"/>
      <trkpt lat="51.4416990" lon="7.1950658"/>
      <trkpt lat="51.4416183" lon="7.1950701"/>
      <trkpt lat="51.4414060" lon="7.1950779"/>
      <trkpt lat="51.4413320" lon="7.1950724"/>
      <trkpt lat="51.4412421" lon="7.1950505"/>
      <trkpt lat="51.4411864" lon="7.1950367"/>
      <trkpt lat="51.4411651" lon="7.1950306"/>
      <trkpt lat="51.4411329" lon="7.1950009"/>
      <trkpt lat="51.4411301" lon="7.1950963"/>
      <trkpt lat="51.4411204" lon="7.1951909"/>
      <trkpt lat="51.4411049" lon="7.1952938"/>
      <trkpt lat="51.4410460" lon="7.1955327"/>
      <trkpt lat="51.4410347" lon="7.1955814"/>
      <trkpt lat="51.4409652" lon="7.1958485"/>
      <trkpt lat="51.4409122" lon="7.1960636"/>
      <trkpt lat="51.4409027" lon="7.1960981"/>
      <trkpt lat="51.4407328" lon="7.1967431"/>
      <trkpt lat="51.4407186" lon="7.1967946"/>
      <trkpt lat="51.4406515" lon="7.1970273"/>
      <trkpt lat="51.4405787" lon="7.1973249"/>
      <trkpt lat="51.4405043" lon="7.1976554"/>
      <trkpt lat="51.4404992" lon="7.1976752"/>
      <trkpt lat="51.4404454" lon="7.1978844"/>
      <trkpt lat="51.4403920" lon="7.1980909"/>
      <trkpt lat="51.4403190" lon="7.1983735"/>
      <trkpt lat="51.4401351" lon="7.1990865"/>
      <trkpt lat="51.4401078" lon="7.1991798"/>
      <trkpt lat="51.4400414" lon="7.1994010"/>
      <trkpt lat="51.4399882" lon="7.1995888"/>
      <trkpt lat="51.4399434" lon="7.1997698"/>
      <trkpt lat="51.4398843" lon="7.1999804"/>
      <trkpt lat="51.4398229" lon="7.2001887"/>
      <trkpt lat="51.4397837" lon="7.2002884"/>
      <trkpt lat="51.4397466" lon="7.2003702"/>
      <trkpt lat="51.4397211" lon="7.2004250"/>
      <trkpt lat="51.4396956" lon="7.2004798"/>
      <trkpt lat="51.4396473" lon="7.2005754"/>
      <trkpt lat="51.4395749" lon="7.2006783"/>
      <trkpt lat="51.4395067" lon="7.2007676"/>
      <trkpt lat="51.4394315" lon="7.2008374"/>
      <trkpt lat="51.4393463" lon="7.2009082"/>
      <trkpt lat="51.4392232" lon="7.2010042"/>
      <trkpt lat="51.4392689" lon="7.2011857"/>
      <trkpt lat="51.4392961" lon="7.2012806"/>
      <trkpt lat="51.4393444" lon="7.2014490"/>
      <trkpt lat="51.4393987" lon="7.2016385"/>
      <trkpt lat="51.4394437" lon="7.2017928"/>
      <trkpt lat="51.4394639" lon="7.2018609"/>
      <trkpt lat="51.4394909" lon="7.2019520"/>
      <trkpt lat="51.4395242" lon="7.2020732"/>
      <trkpt lat="51.4395724" lon="7.2022483"/>
      <trkpt lat="51.4396521" lon="7.2025306"/>
      <trkpt lat="51.4397501" lon="7.2029924"/>
      <trkpt lat="51.4398062" lon="7.2033694"/>
      <trkpt lat="51.4398261" lon="7.2035169"/>
      <trkpt lat="51.4399060" lon="7.2040327"/>
      <trkpt lat="51.4399695" lon="7.2045056"/>
      <trkpt lat="51.4399839" lon="7.2045987"/>
      <trkpt lat="51.4400488" lon="7.2050243"/>
      <trkpt lat="51.4401114" lon="7.2054735"/>
      <trkpt lat="51.4401722" lon="7.2058858"/>
      <trkpt lat="51.4401956" lon="7.2060214"/>
      <trkpt lat="51.4402051" lon="7.2060763"/>
      <trkpt lat="51.4403897" lon="7.2071101"/>
      <trkpt lat="51.4405016" lon="7.2077489"/>
      <trkpt lat="51.4405432" lon="7.2079859"/>
      <trkpt lat="51.4405866" lon="7.2082334"/>
      <trkpt lat="51.4406725" lon="7.2087239"/>
      <trkpt lat="51.4407088" lon="7.2088801"/>
      <trkpt lat="51.4407172" lon="7.2089035"/>
      <trkpt lat="51.4407448" lon="7.2089800"/>
      <trkpt lat="51.4407667" lon="7.2090407"/>
      <trkpt lat="51.4407844" lon="7.2090810"/>
      <trkpt lat="51.4408399" lon="7.2092074"/>
      <trkpt lat="51.4409401" lon="7.2090995"/>
      <trkpt lat="51.4409858" lon="7.2090503"/>
      <trkpt lat="51.4410438" lon="7.2089655"/>
      <trkpt lat="51.4411074" lon="7.2088726"/>
      <trkpt lat="51.4411788" lon="7.2087459"/>
      <trkpt lat="51.4412091" lon="7.2086907"/>
      <trkpt lat="51.4413264" lon="7.2084713"/>
      <trkpt lat="51.4414712" lon="7.2082234"/>
      <trkpt lat="51.4414945" lon="7.2081770"/>
      <trkpt lat="51.4415371" lon="7.2080922"/>
      <trkpt lat="51.4415651" lon="7.2080296"/>
      <trkpt lat="51.4416964" lon="7.2077817"/>
      <trkpt lat="51.4417852" lon="7.2076141"/>
      <trkpt lat="51.4418683" lon="7.2074572"/>
      <trkpt lat="51.4420049" lon="7.2071993"/>
      <trkpt lat="51.4421070" lon="7.2070065"/>
      <trkpt lat="51.4422352" lon="7.2067645"/>
      <trkpt lat="51.4423467" lon="7.2065541"/>
      <trkpt lat="51.4424212" lon="7.2064134"/>
      <trkpt lat="51.4424848" lon="7.2062934"/>
      <trkpt lat="51.4425228" lon="7.2062147"/>
      <trkpt lat="51.4426204" lon="7.2060315"/>
      <trkpt lat="51.4428361" lon="7.2056266"/>
      <trkpt lat="51.4430073" lon="7.2052975"/>
      <trkpt lat="51.4431196" lon="7.2050957"/>
      <trkpt lat="51.4431513" lon="7.2050387"/>
      <trkpt lat="51.4432354" lon="7.2048926"/>
      <trkpt lat="51.4434721" lon="7.2044741"/>
      <trkpt lat="51.4436216" lon="7.2041997"/>
      <trkpt lat="51.4436301" lon="7.2041846"/>
      <trkpt lat="51.4437576" lon="7.2039568"/>
      <trkpt lat="51.4439829" lon="7.2035577"/>
      <trkpt lat="51.4442004" lon="7.2031591"/>
      <trkpt lat="51.4442897" lon="7.2029786"/>
      <trkpt lat="51.4443334" lon="7.2028829"/>
      <trkpt lat="51.4443989" lon="7.2027533"/>
      <trkpt lat="51.4445178" lon="7.2025180"/>
      <trkpt lat="51.4445823" lon="7.2023904"/>
      <trkpt lat="51.4446390" lon="7.2022782"/>
      <trkpt lat="51.4446962" lon="7.2021912"/>
      <trkpt lat="51.4447239" lon="7.2021668"/>
      <trkpt lat="51.4449649" lon="7.2020460"/>
      <trkpt lat="51.4453347" lon="7.2018614"/>
      <trkpt lat="51.4457935" lon="7.2016317"/>
      <trkpt lat="51.4461980" lon="7.2014282"/>
      <trkpt lat="51.4462341" lon="7.2014100"/>
      <trkpt lat="51.4463652" lon="7.2013397"/>
      <trkpt lat="51.4464167" lon="7.2013107"/>
      <trkpt lat="51.4464230" lon="7.2013068"/>
      <trkpt lat="51.4464653" lon="7.2012799"/>
      <trkpt lat="51.4465103" lon="7.2014477"/>
      <trkpt lat="51.4465731" lon="7.2016819"/>
      <trkpt lat="51.4465829" lon="7.2017184"/>
      <trkpt lat="51.4465918" lon="7.2017517"/>
      <trkpt lat="51.4466600" lon="7.2020061"/>
      <trkpt lat="51.4468336" lon="7.2026376"/>
      <trkpt lat="51.4469453" lon="7.2030530"/>
      <trkpt lat="51.4470189" lon="7.2033303"/>
      <trkpt lat="51.4470987" lon="7.2036413"/>
      <trkpt lat="51.4471345" lon="7.2037575"/>
      <trkpt lat="51.4471758" lon="7.2038702"/>
      <trkpt lat="51.4471903" lon="7.2039098"/>
      <trkpt lat="51.4471980" lon="7.2039306"/>
      <trkpt lat="51.4473698" lon="7.2043592"/>
      <trkpt lat="51.4473911" lon="7.2044145"/>
      <trkpt lat="51.4475087" lon="7.2047197"/>
      <trkpt lat="51.4475271" lon="7.2047663"/>
      <trkpt lat="51.4476601" lon="7.2051022"/>
      <trkpt lat="51.4477093" lon="7.2052266"/>
      <trkpt lat="51.4477249" lon="7.2052675"/>
      <trkpt lat="51.4477623" lon="7.2053654"/>
      <trkpt lat="51.4478625" lon="7.2056167"/>
      <trkpt lat="51.4478827" lon="7.2056761"/>
      <trkpt lat="51.4478925" lon="7.2057196"/>
      <trkpt lat="51.4478968" lon="7.2057678"/>
      <trkpt lat="51.4478907" lon="7.2058727"/>
      <trkpt lat="51.4478650" lon="7.2060968"/>
      <trkpt lat="51.4478603" lon="7.2061278"/>
      <trkpt lat="51.4478453" lon="7.2062454"/>
      <trkpt lat="51.4478326" lon="7.2063452"/>
      <trkpt lat="51.4478095" lon="7.2065262"/>
      <trkpt lat="51.4477872" lon="7.2066217"/>
      <trkpt lat="51.4477561" lon="7.2067337"/>
      <trkpt lat="51.4476928" lon="7.2069172"/>
      <trkpt lat="51.4476762" lon="7.2069528"/>
      <trkpt lat="51.4476211" lon="7.2070712"/>
      <trkpt lat="51.4475875" lon="7.2071251"/>
      <trkpt lat="51.4475569" lon="7.2071742"/>
      <trkpt lat="51.4474868" lon="7.2072691"/>
      <trkpt lat="51.4474236" lon="7.2073474"/>
      <trkpt lat="51.4473976" lon="7.2073796"/>
      <trkpt lat="51.4472815" lon="7.2075065"/>
      <trkpt lat="51.4473126" lon="7.2076120"/>
      <trkpt lat="51.4474402" lon="7.2080449"/>
      <trkpt lat="51.4474834" lon="7.2081915"/>
      <trkpt lat="51.4475021" lon="7.2082449"/>
      <trkpt lat="51.4475162" lon="7.2082851"/>
      <trkpt lat="51.4475298" lon="7.2083239"/>
      <trkpt lat="51.4476298" lon="7.2086295"/>
      <trkpt lat="51.4477308" lon="7.2089819"/>
      <trkpt lat="51.4477427" lon="7.2090203"/>
      <trkpt lat="51.4477611" lon="7.2090791"/>
      <trkpt lat="51.4478672" lon="7.2094406"/>
      <trkpt lat="51.4479843" lon="7.2098696"/>
      <trkpt lat="51.4479962" lon="7.2099119"/>
      <trkpt lat="51.4480113" lon="7.2099664"/>
      <trkpt lat="51.4480452" lon="7.2100890"/>
      <trkpt lat="51.4480542" lon="7.2101199"/>
      <trkpt lat="51.4481630" lon="7.2104910"/>
      <trkpt lat="51.4481979" lon="7.2106093"/>
      <trkpt lat="51.4482747" lon="7.2108873"/>
      <trkpt lat="51.4483268" lon="7.2110746"/>
      <trkpt lat="51.4484382" lon="7.2114784"/>
      <trkpt lat="51.4484767" lon="7.2116178"/>
      <trkpt lat="51.4485859" lon="7.2119972"/>
      <trkpt lat="51.4486028" lon="7.2120612"/>
      <trkpt lat="51.4486285" lon="7.2121493"/>
      <trkpt lat="51.4486334" lon="7.2121673"/>
      <trkpt lat="51.4486948" lon="7.2123927"/>
      <trkpt lat="51.4487048" lon="7.2124292"/>
      <trkpt lat="51.4487515" lon="7.2125946"/>
      <trkpt lat="51.4487846" lon="7.2127142"/>
      <trkpt lat="51.4489381" lon="7.2132699"/>
      <trkpt lat="51.4489962" lon="7.2134789"/>
      <trkpt lat="51.4490653" lon="7.2137268"/>
      <trkpt lat="51.4491138" lon="7.2139011"/>
      <trkpt lat="51.4492829" lon="7.2145083"/>
      <trkpt lat="51.4494192" lon="7.2150114"/>
      <trkpt lat="51.4495188" lon="7.2153601"/>
      <trkpt lat="51.4495987" lon="7.2155741"/>
      <trkpt lat="51.4496781" lon="7.2157697"/>
      <trkpt lat="51.4497647" lon="7.2159827"/>
      <trkpt lat="51.4499056" lon="7.2163295"/>
      <trkpt lat="51.4500129" lon="7.2165933"/>
      <trkpt lat="51.4501422" lon="7.2169475"/>
      <trkpt lat="51.4502630" lon="7.2172847"/>
      <trkpt lat="51.4503837" lon="7.2176158"/>
      <trkpt lat="51.4505321" lon="7.2180810"/>
      <trkpt lat="51.4507051" lon="7.2186968"/>
      <trkpt lat="51.4507157" lon="7.2187379"/>
      <trkpt lat="51.4507766" lon="7.2189893"/>
      <trkpt lat="51.4508033" lon="7.2191193"/>
      <trkpt lat="51.4508637" lon="7.2194850"/>
      <trkpt lat="51.4508726" lon="7.2195388"/>
      <trkpt lat="51.4509080" lon="7.2197535"/>
      <trkpt lat="51.4510114" lon="7.2203618"/>
      <trkpt lat="51.4510890" lon="7.2207241"/>
      <trkpt lat="51.4512094" lon="7.2211799"/>
      <trkpt lat="51.4513923" lon="7.2217779"/>
      <trkpt lat="51.4514649" lon="7.2219968"/>
      <trkpt lat="51.4516272" lon="7.2225295"/>
      <trkpt lat="51.4516762" lon="7.2227219"/>
      <trkpt lat="51.4517233" lon="7.2229477"/>
      <trkpt lat="51.4517618" lon="7.2231433"/>
      <trkpt lat="51.4517825" lon="7.2232483"/>
      <trkpt lat="51.4518036" lon="7.2233555"/>
      <trkpt lat="51.4518458" lon="7.2236379"/>
      <trkpt lat="51.4518636" lon="7.2237713"/>
      <trkpt lat="51.4518750" lon="7.2239050"/>
      <trkpt lat="51.4518855" lon="7.2240594"/>
      <trkpt lat="51.4519431" lon="7.2245778"/>
      <trkpt lat="51.4519612" lon="7.2247308"/>
      <trkpt lat="51.4519748" lon="7.2248489"/>
      <trkpt lat="51.4519984" lon="7.2250638"/>
      <trkpt lat="51.4520050" lon="7.2251182"/>
      <trkpt lat="51.4520133" lon="7.2251895"/>
      <trkpt lat="51.4520356" lon="7.2253814"/>
      <trkpt lat="51.4520608" lon="7.2255990"/>
      <trkpt lat="51.4522003" lon="7.2256108"/>
      <trkpt lat="51.4526616" lon="7.2256394"/>
      <trkpt lat="51.4528778" lon="7.2256502"/>
      <trkpt lat="51.4534278" lon="7.2256808"/>
      <trkpt lat="51.4539668" lon="7.2257172"/>
      <trkpt lat="51.4542976" lon="7.2257360"/>
      <trkpt lat="51.4544701" lon="7.2257490"/>
      <trkpt lat="51.4545492" lon="7.2257525"/>
      <trkpt lat="51.4546858" lon="7.2257634"/>
      <trkpt lat="51.4547520" lon="7.2257641"/>
      <trkpt lat="51.4550133" lon="7.2257597"/>
      <trkpt lat="51.4551354" lon="7.2257537"/>
      <trkpt lat="51.4553014" lon="7.2257384"/>
      <trkpt lat="51.4553565" lon="7.2257304"/>
      <trkpt lat="51.4556953" lon="7.2256530"/>
      <trkpt lat="51.4558998" lon="7.2255859"/>
      <trkpt lat="51.4560986" lon="7.2255018"/>
      <trkpt lat="51.4561873" lon="7.2254616"/>
      <trkpt lat="51.4563275" lon="7.2253956"/>
      <trkpt lat="51.4565717" lon="7.2252571"/>
      <trkpt lat="51.4567836" lon="7.2251159"/>
      <trkpt lat="51.4571671" lon="7.2248695"/>
      <trkpt lat="51.4573640" lon="7.2247371"/>
      <trkpt lat="51.4575551" lon="7.2246059"/>
      <trkpt lat="51.4575851" lon="7.2245853"/>
      <trkpt lat="51.4577441" lon="7.2244748"/>
      <trkpt lat="51.4578145" lon="7.2244228"/>
      <trkpt lat="51.4579345" lon="7.2243336"/>
      <trkpt lat="51.4580651" lon="7.2241970"/>
      <trkpt lat="51.4581056" lon="7.2241504"/>
      <trkpt lat="51.4581927" lon="7.2240483"/>
      <trkpt lat="51.4583284" lon="7.2238930"/>
      <trkpt lat="51.4584569" lon="7.2237438"/>
      <trkpt lat="51.4591762" lon="7.2229082"/>
      <trkpt lat="51.4595266" lon="7.2224979"/>
      <trkpt lat="51.4596264" lon="7.2223985"/>
      <trkpt lat="51.4597795" lon="7.2222553"/>
      <trkpt lat="51.4598945" lon="7.2221597"/>
      <trkpt lat="51.4600442" lon="7.2220571"/>
      <trkpt lat="51.4601221" lon="7.2220133"/>
      <trkpt lat="51.4601976" lon="7.2219707"/>
      <trkpt lat="51.4604445" lon="7.2218419"/>
      <trkpt lat="51.4605609" lon="7.2217813"/>
      <trkpt lat="51.4606100" lon="7.2217571"/>
      <trkpt lat="51.4607411" lon="7.2216872"/>
      <trkpt lat="51.4608277" lon="7.2216368"/>
      <trkpt lat="51.4610397" lon="7.2215136"/>
      <trkpt lat="51.4612701" lon="7.2213743"/>
      <trkpt lat="51.4616392" lon="7.2211436"/>
      <trkpt lat="51.4620791" lon="7.2209040"/>
      <trkpt lat="51.4625186" lon="7.2206742"/>
      <trkpt lat="51.4628468" lon="7.2205159"/>
      <trkpt lat="51.4631814" lon="7.2203569"/>
      <trkpt lat="51.4635700" lon="7.2201902"/>
      <trkpt lat="51.4640031" lon="7.2200100"/>
      <trkpt lat="51.4640625" lon="7.2199853"/>
      <trkpt lat="51.4641812" lon="7.2199382"/>
      <trkpt lat="51.4643300" lon="7.2198804"/>
      <trkpt lat="51.4646153" lon="7.2197738"/>
      <trkpt lat="51.4646790" lon="7.2197476"/>
      <trkpt lat="51.4649498" lon="7.2196485"/>
      <trkpt lat="51.4656790" lon="7.2193749"/>
      <trkpt lat="51.4659051" lon="7.2192915"/>
      <trkpt lat="51.4664169" lon="7.2191028"/>
      <trkpt lat="51.4664773" lon="7.2190804"/>
      <trkpt lat="51.4665410" lon="7.2190568"/>
      <trkpt lat="51.4665801" lon="7.2190432"/>
      <trkpt lat="51.4666318" lon="7.2190252"/>
      <trkpt lat="51.4669888" lon="7.2188803"/>
      <trkpt lat="51.4670739" lon="7.2188423"/>
      <trkpt lat="51.4672442" lon="7.2187671"/>
      <trkpt lat="51.4675486" lon="7.2186310"/>
      <trkpt lat="51.4676702" lon="7.2185794"/>
      <trkpt lat="51.4677870" lon="7.2185267"/>
      <trkpt lat="51.4682837" lon="7.2183327"/>
      <trkpt lat="51.4687589" lon="7.2181494"/>
      <trkpt lat="51.4688063" lon="7.2181330"/>
      <trkpt lat="51.4689306" lon="7.2180855"/>
      <trkpt lat="51.4690205" lon="7.2180515"/>
      <trkpt lat="51.4695657" lon="7.2178400"/>
      <trkpt lat="51.4700963" lon="7.2176365"/>
      <trkpt lat="51.4701780" lon="7.2176050"/>
      <trkpt lat="51.4702706" lon="7.2175700"/>
      <trkpt lat="51.4706903" lon="7.2174114"/>
      <trkpt lat="51.4707735" lon="7.2173799"/>
      <trkpt lat="51.4710290" lon="7.2172817"/>
      <trkpt lat="51.4711027" lon="7.2172537"/>
      <trkpt lat="51.4713348" lon="7.2171667"/>
      <trkpt lat="51.4715787" lon="7.2170774"/>
      <trkpt lat="51.4719676" lon="7.2169318"/>
      <trkpt lat="51.4719907" lon="7.2169230"/>
      <trkpt lat="51.4720430" lon="7.2169032"/>
      <trkpt lat="51.4722299" lon="7.2168323"/>
      <trkpt lat="51.4728553" lon="7.2165917"/>
      <trkpt lat="51.4728857" lon="7.2165797"/>
      <trkpt lat="51.4730332" lon="7.2165308"/>
      <trkpt lat="51.4730492" lon="7.2166794"/>
      <trkpt lat="51.4730846" lon="7.2169567"/>
      <trkpt lat="51.4731021" lon="7.2171072"/>
      <trkpt lat="51.4731160" lon="7.2171727"/>
      <trkpt lat="51.4731953" lon="7.2174458"/>
      <trkpt lat="51.4732187" lon="7.2176312"/>
      <trkpt lat="51.4732235" lon="7.2176688"/>
      <trkpt lat="51.4732546" lon="7.2179217"/>
      <trkpt lat="51.4732595" lon="7.2179606"/>
      <trkpt lat="51.4732685" lon="7.2180362"/>
      <trkpt lat="51.4732896" lon="7.2182108"/>
      <trkpt lat="51.4733769" lon="7.2189736"/>
      <trkpt lat="51.4733958" lon="7.2191299"/>
      <trkpt lat="51.4734039" lon="7.2192024"/>
      <trkpt lat="51.4734142" lon="7.2193003"/>
      <trkpt lat="51.4734320" lon="7.2194711"/>
      <trkpt lat="51.4734385" lon="7.2195328"/>
      <trkpt lat="51.4734535" lon="7.2196797"/>
      <trkpt lat="51.4734668" lon="7.2198026"/>
      <trkpt lat="51.4734837" lon="7.2199593"/>
      <trkpt lat="51.4734920" lon="7.2200439"/>
      <trkpt lat="51.4735020" lon="7.2201451"/>
      <trkpt lat="51.4735512" lon="7.2206083"/>
      <trkpt lat="51.4735726" lon="7.2208126"/>
      <trkpt lat="51.4735777" lon="7.2208608"/>
      <trkpt lat="51.4735845" lon="7.2209260"/>
      <trkpt lat="51.4736077" lon="7.2211480"/>
      <trkpt lat="51.4736185" lon="7.2212508"/>
      <trkpt lat="51.4736286" lon="7.2213476"/>
      <trkpt lat="51.4736883" lon="7.2219170"/>
      <trkpt lat="51.4737024" lon="7.2220516"/>
      <trkpt lat="51.4737250" lon="7.2222677"/>
      <trkpt lat="51.4738009" lon="7.2229917"/>
      <trkpt lat="51.4738455" lon="7.2234177"/>
      <trkpt lat="51.4738604" lon="7.2235601"/>
      <trkpt lat="51.4739001" lon="7.2239252"/>
      <trkpt lat="51.4739156" lon="7.2240672"/>
      <trkpt lat="51.4739323" lon="7.2242205"/>
      <trkpt lat="51.4739590" lon="7.2244297"/>
      <trkpt lat="51.4739717" lon="7.2245137"/>
      <trkpt lat="51.4740105" lon="7.2247708"/>
      <trkpt lat="51.4740408" lon="7.2249652"/>
      <trkpt lat="51.4740669" lon="7.2251191"/>
      <trkpt lat="51.4740831" lon="7.2252201"/>
      <trkpt lat="51.4740939" lon="7.2252975"/>
      <trkpt lat="51.4741068" lon="7.2254724"/>
      <trkpt lat="51.4741127" lon="7.2258544"/>
      <trkpt lat="51.4742283" lon="7.2257529"/>
      <trkpt lat="51.4744283" lon="7.2255833"/>
      <trkpt lat="51.4745309" lon="7.2254915"/>
      <trkpt lat="51.4746515" lon="7.2253889"/>
      <trkpt lat="51.4747982" lon="7.2252287"/>
      <trkpt lat="51.4749567" lon="7.2250632"/>
      <trkpt lat="51.4750306" lon="7.2249967"/>
      <trkpt lat="51.4750911" lon="7.2249401"/>
      <trkpt lat="51.4751884" lon="7.2248572"/>
      <trkpt lat="51.4752377" lon="7.2248195"/>
      <trkpt lat="51.4753864" lon="7.2246799"/>
      <trkpt lat="51.4755448" lon="7.2245537"/>
      <trkpt lat="51.4759659" lon="7.2242006"/>
      <trkpt lat="51.4761524" lon="7.2240415"/>
      <trkpt lat="51.4761908" lon="7.2240095"/>
      <trkpt lat="51.4762838" lon="7.2239347"/>
      <trkpt lat="51.4763768" lon="7.2238774"/>
      <trkpt lat="51.4764837" lon="7.2238005"/>
      <trkpt lat="51.4767176" lon="7.2236015"/>
      <trkpt lat="51.4767473" lon="7.2235766"/>
      <trkpt lat="51.4768737" lon="7.2234679"/>
      <trkpt lat="51.4770114" lon="7.2233532"/>
      <trkpt lat="51.4770364" lon="7.2233273"/>
      <trkpt lat="51.4771852" lon="7.2231946"/>
      <trkpt lat="51.4775273" lon="7.2228895"/>
      <trkpt lat="51.4776336" lon="7.2227826"/>
      <trkpt lat="51.4776855" lon="7.2227279"/>
      <trkpt lat="51.4776941" lon="7.2227183"/>
      <trkpt lat="51.4777946" lon="7.2226048"/>
      <trkpt lat="51.4779125" lon="7.2224796"/>
      <trkpt lat="51.4781421" lon="7.2221698"/>
      <trkpt lat="51.4783619" lon="7.2219252"/>
      <trkpt lat="51.4783810" lon="7.2218984"/>
      <trkpt lat="51.4784613" lon="7.2217884"/>
      <trkpt lat="51.4785959" lon="7.2217069"/>
      <trkpt lat="51.4787251" lon="7.2216281"/>
      <trkpt lat="51.4787749" lon="7.2216067"/>
      <trkpt lat="51.4788220" lon="7.2215976"/>
      <trkpt lat="51.4788701" lon="7.2216011"/>
      <trkpt lat="51.4789049" lon="7.2216155"/>
      <trkpt lat="51.4789308" lon="7.2216344"/>
      <trkpt lat="51.4790159" lon="7.2218007"/>
      <trkpt lat="51.4790752" lon="7.2219015"/>
      <trkpt lat="51.4791152" lon="7.2219655"/>
      <trkpt lat="51.4791491" lon="7.2220256"/>
      <trkpt lat="51.4792584" lon="7.2222576"/>
      <trkpt lat="51.4794261" lon="7.2226138"/>
      <trkpt lat="51.4794819" lon="7.2227323"/>
      <trkpt lat="51.4797435" lon="7.2232753"/>
      <trkpt lat="51.4797666" lon="7.2233256"/>
      <trkpt lat="51.4798431" lon="7.2233887"/>
      <trkpt lat="51.4798814" lon="7.2234118"/>
      <trkpt lat="51.4799306" lon="7.2234328"/>
      <trkpt lat="51.4799695" lon="7.2234309"/>
      <trkpt lat="51.4800084" lon="7.2234221"/>
      <trkpt lat="51.4800395" lon="7.2232912"/>
      <trkpt lat="51.4800965" lon="7.2230483"/>
      <trkpt lat="51.4801395" lon="7.2229688"/>
      <trkpt lat="51.4801771" lon="7.2228821"/>
      <trkpt lat="51.4802035" lon="7.2227969"/>
      <trkpt lat="51.4802386" lon="7.2226503"/>
      <trkpt lat="51.4802577" lon="7.2225647"/>
      <trkpt lat="51.4803522" lon="7.2221720"/>
      <trkpt lat="51.4803575" lon="7.2221227"/>
      <trkpt lat="51.4803581" lon="7.2220536"/>
      <trkpt lat="51.4803534" lon="7.2219849"/>
      <trkpt lat="51.4803429" lon="7.2219015"/>
      <trkpt lat="51.4803310" lon="7.2218218"/>
      <trkpt lat="51.4803408" lon="7.2217770"/>
      <trkpt lat="51.4803802" lon="7.2216153"/>
      <trkpt lat="51.4805642" lon="7.2208297"/>
      <trkpt lat="51.4805905" lon="7.2207136"/>
      <trkpt lat="51.4806125" lon="7.2206093"/>
      <trkpt lat="51.4806431" lon="7.2205221"/>
      <trkpt lat="51.4808040" lon="7.2202986"/>
      <trkpt lat="51.4808542" lon="7.2202666"/>
      <trkpt lat="51.4809270" lon="7.2202323"/>
      <trkpt lat="51.4812417" lon="7.2200627"/>
      <trkpt lat="51.4814172" lon="7.2199711"/>
      <trkpt lat="51.4815003" lon="7.2199105"/>
      <trkpt lat="51.4816619" lon="7.2197589"/>
      <trkpt lat="51.4817086" lon="7.2197051"/>
      <trkpt lat="51.4818184" lon="7.2195157"/>
      <trkpt lat="51.4818960" lon="7.2193817"/>
      <trkpt lat="51.4819895" lon="7.2190240"/>
      <trkpt lat="51.4820080" lon="7.2188067"/>
      <trkpt lat="51.4820177" lon="7.2187132"/>
      <trkpt lat="51.4820275" lon="7.2186055"/>
      <trkpt lat="51.4820266" lon="7.2181923"/>
      <trkpt lat="51.4820101" lon="7.2178897"/>
      <trkpt lat="51.4819962" lon="7.2176985"/>
      <trkpt lat="51.4819658" lon="7.2172625"/>
      <trkpt lat="51.4819493" lon="7.2169890"/>
      <trkpt lat="51.4819436" lon="7.2168931"/>
      <trkpt lat="51.4819303" lon="7.2167136"/>
      <trkpt lat="51.4819084" lon="7.2163687"/>
      <trkpt lat="51.4819047" lon="7.2163078"/>
      <trkpt lat="51.4819040" lon="7.2162960"/>
      <trkpt lat="51.4818967" lon="7.2161922"/>
      <trkpt lat="51.4818902" lon="7.2161000"/>
      <trkpt lat="51.4818807" lon="7.2159874"/>
      <trkpt lat="51.4819871" lon="7.2160112"/>
      <trkpt lat="51.4820884" lon="7.2159936"/>
      <trkpt lat="51.4825229" lon="7.2159225"/>
      <trkpt lat="51.4825480" lon="7.2159142"/>
      <trkpt lat="51.4830378" lon="7.2157013"/>
      <trkpt lat="51.4831571" lon="7.2156495"/>
      <trkpt lat="51.4832763" lon="7.2156027"/>
      <trkpt lat="51.4833919" lon="7.2155760"/>
      <trkpt lat="51.4834469" lon="7.2155711"/>
      <trkpt lat="51.4834709" lon="7.2155689"/>
      <trkpt lat="51.4834807" lon="7.2155698"/>
      <trkpt lat="51.4835872" lon="7.2155795"/>
      <trkpt lat="51.4835909" lon="7.2155802"/>
      <trkpt lat="51.4836465" lon="7.2155907"/>
      <trkpt lat="51.4837081" lon="7.2156023"/>
      <trkpt lat="51.4837628" lon="7.2156249"/>
      <trkpt lat="51.4840238" lon="7.2157285"/>
      <trkpt lat="51.4841146" lon="7.2157640"/>
      <trkpt lat="51.4842026" lon="7.2157967"/>
      <trkpt lat="51.4843235" lon="7.2158389"/>
      <trkpt lat="51.4843767" lon="7.2158575"/>
      <trkpt lat="51.4844639" lon="7.2159219"/>
      <trkpt lat="51.4845419" lon="7.2159425"/>
      <trkpt lat="51.4845591" lon="7.2159457"/>
      <trkpt lat="51.4846041" lon="7.2159534"/>
      <trkpt lat="51.4847225" lon="7.2159755"/>
      <trkpt lat="51.4848629" lon="7.2160764"/>
      <trkpt lat="51.4849311" lon="7.2161375"/>
      <trkpt lat="51.4849872" lon="7.2161876"/>
      <trkpt lat="51.4851706" lon="7.2163465"/>
      <trkpt lat="51.4852685" lon="7.2164331"/>
      <trkpt lat="51.4853684" lon="7.2165375"/>
      <trkpt lat="51.4854419" lon="7.2166587"/>
      <trkpt lat="51.4854773" lon="7.2167397"/>
      <trkpt lat="51.4854947" lon="7.2167797"/>
      <trkpt lat="51.4855381" lon="7.2168636"/>
      <trkpt lat="51.4854234" lon="7.2169891"/>
      <trkpt lat="51.4853201" lon="7.2171708"/>
      <trkpt lat="51.4851882" lon="7.2174626"/>
      <trkpt lat="51.4851598" lon="7.2175256"/>
      <trkpt lat="51.4851329" lon="7.2175864"/>
      <trkpt lat="51.4849234" lon="7.2180589"/>
      <trkpt lat="51.4848423" lon="7.2182367"/>
      <trkpt lat="51.4846982" lon="7.2186020"/>
      <trkpt lat="51.4846780" lon="7.2186472"/>
      <trkpt lat="51.4845923" lon="7.2188574"/>
      <trkpt lat="51.4846750" lon="7.2189383"/>
      <trkpt lat="51.4847277" lon="7.2189900"/>
      <trkpt lat="51.4847633" lon="7.2190264"/>
      <trkpt lat="51.4850129" lon="7.2192823"/>
      <trkpt lat="51.4851018" lon="7.2193707"/>
      <trkpt lat="51.4851641" lon="7.2194369"/>
      <trkpt lat="51.4851923" lon="7.2194669"/>
      <trkpt lat="51.4852793" lon="7.2195595"/>
      <trkpt lat="51.4853385" lon="7.2196135"/>
      <trkpt lat="51.4854435" lon="7.2197179"/>
      <trkpt lat="51.4860066" lon="7.2202946"/>
      <trkpt lat="51.4866316" lon="7.2209360"/>
      <trkpt lat="51.4871579" lon="7.2214690"/>
      <trkpt lat="51.4872520" lon="7.2215647"/>
      <trkpt lat="51.4873336" lon="7.2216140"/>
      <trkpt lat="51.4874295" lon="7.2216128"/>
      <trkpt lat="51.4876547" lon="7.2215431"/>
      <trkpt lat="51.4877757" lon="7.2214956"/>
      <trkpt lat="51.4880246" lon="7.2214159"/>
      <trkpt lat="51.4880906" lon="7.2213972"/>
      <trkpt lat="51.4881342" lon="7.2213856"/>
      <trkpt lat="51.4881934" lon="7.2213698"/>
      <trkpt lat="51.4882707" lon="7.2213474"/>
      <trkpt lat="51.4883014" lon="7.2213444"/>
      <trkpt lat="51.4884712" lon="7.2213264"/>
      <trkpt lat="51.4887529" lon="7.2212999"/>
      <trkpt lat="51.4888296" lon="7.2212966"/>
      <trkpt lat="51.4889537" lon="7.2212919"/>
      <trkpt lat="51.4892934" lon="7.2213288"/>
      <trkpt lat="51.4894080" lon="7.2213431"/>
      <trkpt lat="51.4900033" lon="7.2214657"/>
      <trkpt lat="51.4901381" lon="7.2214989"/>
      <trkpt lat="51.4909798" lon="7.2216747"/>
      <trkpt lat="51.4912431" lon="7.2217317"/>
      <trkpt lat="51.4917173" lon="7.2218277"/>
      <trkpt lat="51.4917911" lon="7.2218451"/>
      <trkpt lat="51.4920930" lon="7.2219165"/>
      <trkpt lat="51.4921395" lon="7.2219283"/>
      <trkpt lat="51.4923987" lon="7.2219914"/>
      <trkpt lat="51.4924804" lon="7.2220215"/>
      <trkpt lat="51.4926337" lon="7.2220780"/>
      <trkpt lat="51.4927917" lon="7.2221478"/>
      <trkpt lat="51.4929434" lon="7.2222210"/>
      <trkpt lat="51.4931650" lon="7.2223489"/>
      <trkpt lat="51.4933580" lon="7.2224796"/>
      <trkpt lat="51.4939216" lon="7.2228750"/>
      <trkpt lat="51.4943867" lon="7.2231983"/>
      <trkpt lat="51.4944165" lon="7.2232197"/>
      <trkpt lat="51.4945243" lon="7.2232916"/>
      <trkpt lat="51.4946371" lon="7.2233779"/>
      <trkpt lat="51.4950162" lon="7.2236300"/>
      <trkpt lat="51.4953463" lon="7.2238227"/>
      <trkpt lat="51.4953857" lon="7.2238448"/>
      <trkpt lat="51.4954098" lon="7.2238572"/>
      <trkpt lat="51.4954878" lon="7.2238360"/>
      <trkpt lat="51.4957709" lon="7.2240095"/>
      <trkpt lat="51.4959587" lon="7.2241165"/>
      <trkpt lat="51.4967947" lon="7.2245851"/>
      <trkpt lat="51.4969947" lon="7.2246792"/>
      <trkpt lat="51.4971846" lon="7.2247574"/>
      <trkpt lat="51.4974094" lon="7.2248273"/>
      <trkpt lat="51.4976932" lon="7.2248809"/>
      <trkpt lat="51.4978024" lon="7.2248929"/>
      <trkpt lat="51.4978688" lon="7.2248948"/>
      <trkpt lat="51.4981512" lon="7.2248956"/>
      <trkpt lat="51.4983361" lon="7.2248704"/>
      <trkpt lat="51.4984402" lon="7.2248532"/>
      <trkpt lat="51.4984755" lon="7.2248469"/>
      <trkpt lat="51.4986091" lon="7.2248182"/>
      <trkpt lat="51.4986436" lon="7.2248095"/>
      <trkpt lat="51.4987121" lon="7.2248307"/>
      <trkpt lat="51.4988277" lon="7.2248288"/>
      <trkpt lat="51.4989127" lon="7.2248342"/>
      <trkpt lat="51.4990000" lon="7.2245427"/>
      <trkpt lat="51.4989596" lon="7.2245586"/>
      <trkpt lat="51.4989357" lon="7.2245818"/>
      <trkpt lat="51.4989091" lon="7.2246294"/>
      <trkpt lat="51.4988937" lon="7.2246930"/>
      <trkpt lat="51.4988932" lon="7.2247575"/>
      <trkpt lat="51.4989052" lon="7.2248145"/>
      <trkpt lat="51.4989127" lon="7.2248342"/>
      <trkpt lat="51.4989288" lon="7.2248637"/>
      <trkpt lat="51.4989497" lon="7.2248844"/>
      <trkpt lat="51.4989663" lon="7.2249008"/>
      <trkpt lat="51.4989831" lon="7.2249087"/>
      <trkpt lat="51.4990056" lon="7.2249127"/>
      <trkpt lat="51.4990328" lon="7.2249080"/>
      <trkpt lat="51.4990766" lon="7.2248751"/>
      <trkpt lat="51.4990986" lon="7.2248397"/>
      <trkpt lat="51.4991168" lon="7.2247836"/>
      <trkpt lat="51.4991221" lon="7.2247196"/>
      <trkpt lat="51.4991183" lon="7.2246799"/>
      <trkpt lat="51.4991014" lon="7.2246214"/>
      <trkpt lat="51.4990938" lon="7.2246057"/>
      <trkpt lat="51.4990790" lon="7.2245830"/>
      <trkpt lat="51.4990566" lon="7.2245604"/>
      <trkpt lat="51.4990431" lon="7.2245517"/>
      <trkpt lat="51.4990000" lon="7.2245427"/>
      <trkpt lat="51.4989831" lon="7.2249087"/>
      <trkpt lat="51.4990059" lon="7.2249857"/>
      <trkpt lat="51.4990164" lon="7.2250276"/>
      <trkpt lat="51.4990333" lon="7.2251095"/>
      <trkpt lat="51.4991109" lon="7.2252900"/>
      <trkpt lat="51.4991671" lon="7.2254554"/>
      <trkpt lat="51.4993361" lon="7.2259425"/>
      <trkpt lat="51.4993790" lon="7.2260662"/>
      <trkpt lat="51.4994261" lon="7.2262015"/>
      <trkpt lat="51.4995104" lon="7.2264440"/>
      <trkpt lat="51.4995710" lon="7.2266191"/>
      <trkpt lat="51.4995871" lon="7.2266657"/>
      <trkpt lat="51.4996570" lon="7.2268711"/>
      <trkpt lat="51.4997382" lon="7.2271532"/>
      <trkpt lat="51.4997639" lon="7.2272703"/>
      <trkpt lat="51.4997884" lon="7.2274010"/>
      <trkpt lat="51.4998091" lon="7.2275327"/>
      <trkpt lat="51.4998302" lon="7.2276827"/>
      <trkpt lat="51.4998476" lon="7.2279450"/>
      <trkpt lat="51.4998560" lon="7.2280749"/>
      <trkpt lat="51.4997961" lon="7.2283955"/>
      <trkpt lat="51.4998257" lon="7.2284268"/>
      <trkpt lat="51.4998560" lon="7.2284416"/>
      <trkpt lat="51.4998929" lon="7.2284410"/>
      <trkpt lat="51.4999245" lon="7.2284246"/>
      <trkpt lat="51.4999518" lon="7.2283946"/>
      <trkpt lat="51.4999728" lon="7.2283532"/>
      <trkpt lat="51.4999855" lon="7.2283041"/>
      <trkpt lat="51.4999894" lon="7.2282551"/>
      <trkpt lat="51.4999833" lon="7.2282000"/>
      <trkpt lat="51.4999690" lon="7.2281534"/>
      <trkpt lat="51.4999471" lon="7.2281150"/>
      <trkpt lat="51.4999195" lon="7.2280879"/>
      <trkpt lat="51.4998882" lon="7.2280742"/>
      <trkpt lat="51.4998560" lon="7.2280749"/>
      <trkpt lat="51.4998121" lon="7.2281012"/>
      <trkpt lat="51.4997783" lon="7.2281535"/>
      <trkpt lat="51.4997603" lon="7.2282230"/>
      <trkpt lat="51.4997608" lon="7.2282982"/>
      <trkpt lat="51.4997738" lon="7.2283512"/>
      <trkpt lat="51.4997961" lon="7.2283955"/>
      <trkpt lat="51.4999894" lon="7.2282551"/>
      <trkpt lat="51.5000608" lon="7.2282462"/>
      <trkpt lat="51.5001775" lon="7.2282275"/>
      <trkpt lat="51.5002717" lon="7.2282117"/>
      <trkpt lat="51.5003779" lon="7.2282099"/>
      <trkpt lat="51.5004901" lon="7.2282197"/>
      <trkpt lat="51.5005868" lon="7.2282498"/>
      <trkpt lat="51.5006747" lon="7.2282935"/>
      <trkpt lat="51.5008025" lon="7.2283702"/>
      <trkpt lat="51.5008670" lon="7.2284248"/>
      <trkpt lat="51.5009300" lon="7.2284990"/>
      <trkpt lat="51.5010139" lon="7.2286218"/>
      <trkpt lat="51.5010867" lon="7.2287616"/>
      <trkpt lat="51.5013961" lon="7.2293743"/>
      <trkpt lat="51.5016910" lon="7.2299171"/>
      <trkpt lat="51.5018090" lon="7.2300747"/>
      <trkpt lat="51.5019429" lon="7.2302163"/>
      <trkpt lat="51.5020574" lon="7.2302998"/>
      <trkpt lat="51.5021791" lon="7.2303829"/>
      <trkpt lat="51.5023067" lon="7.2304647"/>
      <trkpt lat="51.5026549" lon="7.2307034"/>
      <trkpt lat="51.5032349" lon="7.2310982"/>
      <trkpt lat="51.5034976" lon="7.2312710"/>
      <trkpt lat="51.5037905" lon="7.2314297"/>
      <trkpt lat="51.5042195" lon="7.2316362"/>
      <trkpt lat="51.5046476" lon="7.2318387"/>
      <trkpt lat="51.5048514" lon="7.2319436"/>
      <trkpt lat="51.5050771" lon="7.2320562"/>
      <trkpt lat="51.5051778" lon="7.2321047"/>
      <trkpt lat="51.5052678" lon="7.2321458"/>
      <trkpt lat="51.5053123" lon="7.2321495"/>
      <trkpt lat="51.5053112" lon="7.2322365"/>
      <trkpt lat="51.5052970" lon="7.2328781"/>
      <trkpt lat="51.5052882" lon="7.2330485"/>
      <trkpt lat="51.5052713" lon="7.2333571"/>
      <trkpt lat="51.5052643" lon="7.2334736"/>
      <trkpt lat="51.5052569" lon="7.2336421"/>
      <trkpt lat="51.5052497" lon="7.2338788"/>
      <trkpt lat="51.5052293" lon="7.2343495"/>
      <trkpt lat="51.5052238" lon="7.2344378"/>
      <trkpt lat="51.5051789" lon="7.2353066"/>
      <trkpt lat="51.5051733" lon="7.2354754"/>
      <trkpt lat="51.5051715" lon="7.2357485"/>
      <trkpt lat="51.5051804" lon="7.2360461"/>
      <trkpt lat="51.5051957" lon="7.2362401"/>
      <trkpt lat="51.5052715" lon="7.2370468"/>
      <trkpt lat="51.5053497" lon="7.2377178"/>
      <trkpt lat="51.5054111" lon="7.2380455"/>
      <trkpt lat="51.5054884" lon="7.2383812"/>
      <trkpt lat="51.5057440" lon="7.2393722"/>
      <trkpt lat="51.5062801" lon="7.2414037"/>
      <trkpt lat="51.5063483" lon="7.2417299"/>
      <trkpt lat="51.5063668" lon="7.2418625"/>
      <trkpt lat="51.5063778" lon="7.2419493"/>
      <trkpt lat="51.5064063" lon="7.2422848"/>
      <trkpt lat="51.5064148" lon="7.2423887"/>
      <trkpt lat="51.5064497" lon="7.2427558"/>
      <trkpt lat="51.5064752" lon="7.2429404"/>
      <trkpt lat="51.5065063" lon="7.2431162"/>
      <trkpt lat="51.5065582" lon="7.2433443"/>
      <trkpt lat="51.5066238" lon="7.2435711"/>
      <trkpt lat="51.5067107" lon="7.2438221"/>
      <trkpt lat="51.5068110" lon="7.2440456"/>
      <trkpt lat="51.5068528" lon="7.2441226"/>
      <trkpt lat="51.5068950" lon="7.2441980"/>
      <trkpt lat="51.5069756" lon="7.2443284"/>
      <trkpt lat="51.5070802" lon="7.2444744"/>
      <trkpt lat="51.5071985" lon="7.2446136"/>
      <trkpt lat="51.5072614" lon="7.2446791"/>
      <trkpt lat="51.5073316" lon="7.2447462"/>
      <trkpt lat="51.5074081" lon="7.2448120"/>
      <trkpt lat="51.5074320" lon="7.2448320"/>
      <trkpt lat="51.5075363" lon="7.2449070"/>
      <trkpt lat="51.5077096" lon="7.2450259"/>
      <trkpt lat="51.5078045" lon="7.2450737"/>
      <trkpt lat="51.5079147" lon="7.2451293"/>
      <trkpt lat="51.5080255" lon="7.2451870"/>
      <trkpt lat="51.5080596" lon="7.2452042"/>
      <trkpt lat="51.5084457" lon="7.2453986"/>
      <trkpt lat="51.5086049" lon="7.2454898"/>
      <trkpt lat="51.5087338" lon="7.2455637"/>
      <trkpt lat="51.5088559" lon="7.2456613"/>
      <trkpt lat="51.5089701" lon="7.2457593"/>
      <trkpt lat="51.5091082" lon="7.2459105"/>
      <trkpt lat="51.5091995" lon="7.2460274"/>
      <trkpt lat="51.5092373" lon="7.2460829"/>
      <trkpt lat="51.5092612" lon="7.2461179"/>
      <trkpt lat="51.5093182" lon="7.2462146"/>
      <trkpt lat="51.5093877" lon="7.2463492"/>
      <trkpt lat="51.5094111" lon="7.2464001"/>
      <trkpt lat="51.5094451" lon="7.2464740"/>
      <trkpt lat="51.5094846" lon="7.2465651"/>
      <trkpt lat="51.5095285" lon="7.2466760"/>
      <trkpt lat="51.5095565" lon="7.2467551"/>
      <trkpt lat="51.5095897" lon="7.2468645"/>
      <trkpt lat="51.5096354" lon="7.2470253"/>
      <trkpt lat="51.5096465" lon="7.2470644"/>
      <trkpt lat="51.5097207" lon="7.2473804"/>
      <trkpt lat="51.5097297" lon="7.2474187"/>
      <trkpt lat="51.5097515" lon="7.2475162"/>
      <trkpt lat="51.5098190" lon="7.2478185"/>
      <trkpt lat="51.5098635" lon="7.2480158"/>
      <trkpt lat="51.5099468" lon="7.2483847"/>
      <trkpt lat="51.5099600" lon="7.2484433"/>
      <trkpt lat="51.5100224" lon="7.2487199"/>
      <trkpt lat="51.5100355" lon="7.2487748"/>
      <trkpt lat="51.5100448" lon="7.2488192"/>
      <trkpt lat="51.5101162" lon="7.2491355"/>
      <trkpt lat="51.5101564" lon="7.2493139"/>
      <trkpt lat="51.5101653" lon="7.2493534"/>
      <trkpt lat="51.5102227" lon="7.2496079"/>
      <trkpt lat="51.5102349" lon="7.2496622"/>
      <trkpt lat="51.5103286" lon="7.2500774"/>
      <trkpt lat="51.5104036" lon="7.2503917"/>
      <trkpt lat="51.5105080" lon="7.2506797"/>
      <trkpt lat="51.5106058" lon="7.2509010"/>
      <trkpt lat="51.5106955" lon="7.2510713"/>
      <trkpt lat="51.5107848" lon="7.2512128"/>
      <trkpt lat="51.5108040" lon="7.2512428"/>
      <trkpt lat="51.5109037" lon="7.2513804"/>
      <trkpt lat="51.5110111" lon="7.2515211"/>
      <trkpt lat="51.5110948" lon="7.2516311"/>
      <trkpt lat="51.5111722" lon="7.2517328"/>
      <trkpt lat="51.5113709" lon="7.2519938"/>
      <trkpt lat="51.5114867" lon="7.2521356"/>
      <trkpt lat="51.5116000" lon="7.2522856"/>
      <trkpt lat="51.5116644" lon="7.2523710"/>
      <trkpt lat="51.5118780" lon="7.2526643"/>
      <trkpt lat="51.5119365" lon="7.2527498"/>
      <trkpt lat="51.5120199" lon="7.2528974"/>
      <trkpt lat="51.5121017" lon="7.2528226"/>
      <trkpt lat="51.5121135" lon="7.2528154"/>
      <trkpt lat="51.5121568" lon="7.2527942"/>
      <trkpt lat="51.5122332" lon="7.2527567"/>
      <trkpt lat="51.5122667" lon="7.2527403"/>
      <trkpt lat="51.5123720" lon="7.2526886"/>
      <trkpt lat="51.5124079" lon="7.2526719"/>
      <trkpt lat="51.5125939" lon="7.2525854"/>
      <trkpt lat="51.5130443" lon="7.2523623"/>
      <trkpt lat="51.5132500" lon="7.2522611"/>
      <trkpt lat="51.5135261" lon="7.2520839"/>
      <trkpt lat="51.5136107" lon="7.2520296"/>
      <trkpt lat="51.5138290" lon="7.2518838"/>
      <trkpt lat="51.5138936" lon="7.2518362"/>
      <trkpt lat="51.5142019" lon="7.2516270"/>
      <trkpt lat="51.5142687" lon="7.2515724"/>
      <trkpt lat="51.5143301" lon="7.2515165"/>
      <trkpt lat="51.5143668" lon="7.2516497"/>
      <trkpt lat="51.5144030" lon="7.2517985"/>
      <trkpt lat="51.5144221" lon="7.2520150"/>
      <trkpt lat="51.5144342" lon="7.2521524"/>
      <trkpt lat="51.5144611" lon="7.2524578"/>
      <trkpt lat="51.5144800" lon="7.2526717"/>
      <trkpt lat="51.5144956" lon="7.2528368"/>
      <trkpt lat="51.5145213" lon="7.2531080"/>
      <trkpt lat="51.5145524" lon="7.2534146"/>
      <trkpt lat="51.5145863" lon="7.2537542"/>
      <trkpt lat="51.5146186" lon="7.2540683"/>
      <trkpt lat="51.5146546" lon="7.2544256"/>
      <trkpt lat="51.5146745" lon="7.2546241"/>
      <trkpt lat="51.5147105" lon="7.2551810"/>
      <trkpt lat="51.5147300" lon="7.2554962"/>
      <trkpt lat="51.5147338" lon="7.2555573"/>
      <trkpt lat="51.5147663" lon="7.2560834"/>
      <trkpt lat="51.5147829" lon="7.2565169"/>
      <trkpt lat="51.5147892" lon="7.2568493"/>
      <trkpt lat="51.5147904" lon="7.2569155"/>
      <trkpt lat="51.5147978" lon="7.2573093"/>
      <trkpt lat="51.5148008" lon="7.2579479"/>
      <trkpt lat="51.5148040" lon="7.2582266"/>
      <trkpt lat="51.5148038" lon="7.2582775"/>
      <trkpt lat="51.5148037" lon="7.2584194"/>
      <trkpt lat="51.5148127" lon="7.2586088"/>
      <trkpt lat="51.5148246" lon="7.2586919"/>
      <trkpt lat="51.5150649" lon="7.2586176"/>
      <trkpt lat="51.5151666" lon="7.2585789"/>
      <trkpt lat="51.5151996" lon="7.2587601"/>
      <trkpt lat="51.5152415" lon="7.2589879"/>
      <trkpt lat="51.5152581" lon="7.2590776"/>
      <trkpt lat="51.5152897" lon="7.2591356"/>
      <trkpt lat="51.5153175" lon="7.2593702"/>
      <trkpt lat="51.5153334" lon="7.2595308"/>
      <trkpt lat="51.5153426" lon="7.2597227"/>
      <trkpt lat="51.5153481" lon="7.2600154"/>
      <trkpt lat="51.5153459" lon="7.2602743"/>
      <trkpt lat="51.5153428" lon="7.2604555"/>
      <trkpt lat="51.5153325" lon="7.2606891"/>
      <trkpt lat="51.5153159" lon="7.2609347"/>
      <trkpt lat="51.5153019" lon="7.2611124"/>
      <trkpt lat="51.5152930" lon="7.2612697"/>
      <trkpt lat="51.5152840" lon="7.2616872"/>
      <trkpt lat="51.5152843" lon="7.2618476"/>
      <trkpt lat="51.5152856" lon="7.2622121"/>
      <trkpt lat="51.5152949" lon="7.2625613"/>
      <trkpt lat="51.5152963" lon="7.2626219"/>
      <trkpt lat="51.5153223" lon="7.2636775"/>
      <trkpt lat="51.5153232" lon="7.2638121"/>
      <trkpt lat="51.5153233" lon="7.2642407"/>
      <trkpt lat="51.5153196" lon="7.2644957"/>
      <trkpt lat="51.5153186" lon="7.2645325"/>
      <trkpt lat="51.5153073" lon="7.2649903"/>
      <trkpt lat="51.5153056" lon="7.2650300"/>
      <trkpt lat="51.5152787" lon="7.2656415"/>
      <trkpt lat="51.5152353" lon="7.2663869"/>
      <trkpt lat="51.5152291" lon="7.2664934"/>
      <trkpt lat="51.5152186" lon="7.2667046"/>
      <trkpt lat="51.5152173" lon="7.2667544"/>
      <trkpt lat="51.5152221" lon="7.2670004"/>
      <trkpt lat="51.5152270" lon="7.2670927"/>
      <trkpt lat="51.5152588" lon="7.2674333"/>
      <trkpt lat="51.5152910" lon="7.2677625"/>
      <trkpt lat="51.5152960" lon="7.2678298"/>
      <trkpt lat="51.5153353" lon="7.2682789"/>
      <trkpt lat="51.5153415" lon="7.2683404"/>
      <trkpt lat="51.5153820" lon="7.2687744"/>
      <trkpt lat="51.5154167" lon="7.2691650"/>
      <trkpt lat="51.5154248" lon="7.2692772"/>
      <trkpt lat="51.5154339" lon="7.2695038"/>
      <trkpt lat="51.5154339" lon="7.2697519"/>
      <trkpt lat="51.5154288" lon="7.2700177"/>
      <trkpt lat="51.5154122" lon="7.2703191"/>
      <trkpt lat="51.5153897" lon="7.2706855"/>
      <trkpt lat="51.5153667" lon="7.2708466"/>
      <trkpt lat="51.5153531" lon="7.2709301"/>
      <trkpt lat="51.5153572" lon="7.2710453"/>
      <trkpt lat="51.5153554" lon="7.2711101"/>
      <trkpt lat="51.5153657" lon="7.2711823"/>
      <trkpt lat="51.5153885" lon="7.2712495"/>
      <trkpt lat="51.5154058" lon="7.2712939"/>
      <trkpt lat="51.5154511" lon="7.2713403"/>
      <trkpt lat="51.5156662" lon="7.2715647"/>
      <trkpt lat="51.5159751" lon="7.2718795"/>
      <trkpt lat="51.5160112" lon="7.2719162"/>
      <trkpt lat="51.5162173" lon="7.2721233"/>
      <trkpt lat="51.5163225" lon="7.2721622"/>
      <trkpt lat="51.5163615" lon="7.2721763"/>
      <trkpt lat="51.5163845" lon="7.2722002"/>
      <trkpt lat="51.5165247" lon="7.2723590"/>
      <trkpt lat="51.5166478" lon="7.2724891"/>
      <trkpt lat="51.5168770" lon="7.2727395"/>
      <trkpt lat="51.5170531" lon="7.2729291"/>
      <trkpt lat="51.5173130" lon="7.2732213"/>
      <trkpt lat="51.5173795" lon="7.2732974"/>
      <trkpt lat="51.5175372" lon="7.2734779"/>
      <trkpt lat="51.5177593" lon="7.2737323"/>
      <trkpt lat="51.5181356" lon="7.2741651"/>
      <trkpt lat="51.5182515" lon="7.2742954"/>
      <trkpt lat="51.5183688" lon="7.2744273"/>
      <trkpt lat="51.5185682" lon="7.2746613"/>
      <trkpt lat="51.5186075" lon="7.2747068"/>
      <trkpt lat="51.5187840" lon="7.2749086"/>
      <trkpt lat="51.5188656" lon="7.2749991"/>
      <trkpt lat="51.5188698" lon="7.2750036"/>
      <trkpt lat="51.5189533" lon="7.2750925"/>
      <trkpt lat="51.5190396" lon="7.2751785"/>
      <trkpt lat="51.5190648" lon="7.2752015"/>
      <trkpt lat="51.5191274" lon="7.2752585"/>
      <trkpt lat="51.5191631" lon="7.2752950"/>
      <trkpt lat="51.5192919" lon="7.2754137"/>
      <trkpt lat="51.5193824" lon="7.2754973"/>
      <trkpt lat="51.5195636" lon="7.2756540"/>
      <trkpt lat="51.5196652" lon="7.2757460"/>
      <trkpt lat="51.5197109" lon="7.2757874"/>
      <trkpt lat="51.5198043" lon="7.2758755"/>
      <trkpt lat="51.5199254" lon="7.2759854"/>
      <trkpt lat="51.5199954" lon="7.2760531"/>
      <trkpt lat="51.5200322" lon="7.2760922"/>
      <trkpt lat="51.5200469" lon="7.2761103"/>
      <trkpt lat="51.5200508" lon="7.2761151"/>
      <trkpt lat="51.5200544" lon="7.2761196"/>
      <trkpt lat="51.5200843" lon="7.2761637"/>
      <trkpt lat="51.5201269" lon="7.2762356"/>
      <trkpt lat="51.5201679" lon="7.2763214"/>
      <trkpt lat="51.5202400" lon="7.2764957"/>
      <trkpt lat="51.5202559" lon="7.2765374"/>
      <trkpt lat="51.5203068" lon="7.2766634"/>
      <trkpt lat="51.5204236" lon="7.2769659"/>
      <trkpt lat="51.5204568" lon="7.2770421"/>
      <trkpt lat="51.5204599" lon="7.2770500"/>
      <trkpt lat="51.5204757" lon="7.2770822"/>
      <trkpt lat="51.5205173" lon="7.2771579"/>
      <trkpt lat="51.5205660" lon="7.2772227"/>
      <trkpt lat="51.5206369" lon="7.2772972"/>
      <trkpt lat="51.5207097" lon="7.2773612"/>
      <trkpt lat="51.5207952" lon="7.2774305"/>
      <trkpt lat="51.5208218" lon="7.2774528"/>
      <trkpt lat="51.5208306" lon="7.2774585"/>
      <trkpt lat="51.5209165" lon="7.2775196"/>
      <trkpt lat="51.5210038" lon="7.2775972"/>
      <trkpt lat="51.5211010" lon="7.2776833"/>
      <trkpt lat="51.5211621" lon="7.2777446"/>
      <trkpt lat="51.5211968" lon="7.2777817"/>
      <trkpt lat="51.5212226" lon="7.2778179"/>
      <trkpt lat="51.5214184" lon="7.2780985"/>
      <trkpt lat="51.5215766" lon="7.2783312"/>
      <trkpt lat="51.5217367" lon="7.2785682"/>
      <trkpt lat="51.5218397" lon="7.2787206"/>
      <trkpt lat="51.5218677" lon="7.2787622"/>
      <trkpt lat="51.5218766" lon="7.2787765"/>
      <trkpt lat="51.5219060" lon="7.2788198"/>
      <trkpt lat="51.5219210" lon="7.2788419"/>
      <trkpt lat="51.5219720" lon="7.2789191"/>
      <trkpt lat="51.5220431" lon="7.2790270"/>
      <trkpt lat="51.5220628" lon="7.2790577"/>
      <trkpt lat="51.5220851" lon="7.2790911"/>
      <trkpt lat="51.5221967" lon="7.2792730"/>
      <trkpt lat="51.5222538" lon="7.2793660"/>
      <trkpt lat="51.5223266" lon="7.2794902"/>
      <trkpt lat="51.5223866" lon="7.2796039"/>
      <trkpt lat="51.5224136" lon="7.2796603"/>
      <trkpt lat="51.5225081" lon="7.2798578"/>
      <trkpt lat="51.5226883" lon="7.2802456"/>
      <trkpt lat="51.5227087" lon="7.2802873"/>
      <trkpt lat="51.5227654" lon="7.2804069"/>
      <trkpt lat="51.5229231" lon="7.2807465"/>
      <trkpt lat="51.5231671" lon="7.2812571"/>
      <trkpt lat="51.5232680" lon="7.2814561"/>
      <trkpt lat="51.5233253" lon="7.2815716"/>
      <trkpt lat="51.5233856" lon="7.2817069"/>
      <trkpt lat="51.5234894" lon="7.2819540"/>
      <trkpt lat="51.5235830" lon="7.2821808"/>
      <trkpt lat="51.5236518" lon="7.2823532"/>
      <trkpt lat="51.5236830" lon="7.2824301"/>
      <trkpt lat="51.5237180" lon="7.2825112"/>
      <trkpt lat="51.5237296" lon="7.2825389"/>
      <trkpt lat="51.5237464" lon="7.2825790"/>
      <trkpt lat="51.5238039" lon="7.2827314"/>
      <trkpt lat="51.5238846" lon="7.2829474"/>
      <trkpt lat="51.5239248" lon="7.2830500"/>
      <trkpt lat="51.5239606" lon="7.2831550"/>
      <trkpt lat="51.5239887" lon="7.2832596"/>
      <trkpt lat="51.5240315" lon="7.2834383"/>
      <trkpt lat="51.5240877" lon="7.2836814"/>
      <trkpt lat="51.5241570" lon="7.2839522"/>
      <trkpt lat="51.5241952" lon="7.2840903"/>
      <trkpt lat="51.5242196" lon="7.2841697"/>
      <trkpt lat="51.5242594" lon="7.2843014"/>
      <trkpt lat="51.5243098" lon="7.2844750"/>
      <trkpt lat="51.5243352" lon="7.2845544"/>
      <trkpt lat="51.5243795" lon="7.2846983"/>
      <trkpt lat="51.5244529" lon="7.2849198"/>
      <trkpt lat="51.5246382" lon="7.2854138"/>
      <trkpt lat="51.5246761" lon="7.2855099"/>
      <trkpt lat="51.5247978" lon="7.2858324"/>
      <trkpt lat="51.5248304" lon="7.2859161"/>
      <trkpt lat="51.5248641" lon="7.2860027"/>
      <trkpt lat="51.5249986" lon="7.2863444"/>
      <trkpt lat="51.5250433" lon="7.2864617"/>
      <trkpt lat="51.5250891" lon="7.2865643"/>
      <trkpt lat="51.5251158" lon="7.2866278"/>
      <trkpt lat="51.5251890" lon="7.2868129"/>
      <trkpt lat="51.5253234" lon="7.2870795"/>
      <trkpt lat="51.5253826" lon="7.2871849"/>
      <trkpt lat="51.5254853" lon="7.2873425"/>
      <trkpt lat="51.5256039" lon="7.2874987"/>
      <trkpt lat="51.5260068" lon="7.2880394"/>
      <trkpt lat="51.5262156" lon="7.2883554"/>
      <trkpt lat="51.5263561" lon="7.2885495"/>
      <trkpt lat="51.5265303" lon="7.2887519"/>
      <trkpt lat="51.5268431" lon="7.2891141"/>
      <trkpt lat="51.5272248" lon="7.2895470"/>
      <trkpt lat="51.5275228" lon="7.2898959"/>
      <trkpt lat="51.5278637" lon="7.2902996"/>
      <trkpt lat="51.5280262" lon="7.2904922"/>
      <trkpt lat="51.5282191" lon="7.2907234"/>
      <trkpt lat="51.5284871" lon="7.2910362"/>
      <trkpt lat="51.5285447" lon="7.2911031"/>
      <trkpt lat="51.5287135" lon="7.2913050"/>
      <trkpt lat="51.5288465" lon="7.2914637"/>
      <trkpt lat="51.5291149" lon="7.2917817"/>
      <trkpt lat="51.5295943" lon="7.2923461"/>
      <trkpt lat="51.5299201" lon="7.2927411"/>
      <trkpt lat="51.5300477" lon="7.2929514"/>
      <trkpt lat="51.5301520" lon="7.2931629"/>
      <trkpt lat="51.5304050" lon="7.2937338"/>
      <trkpt lat="51.5307114" lon="7.2944075"/>
      <trkpt lat="51.5309989" lon="7.2950584"/>
      <trkpt lat="51.5311502" lon="7.2953695"/>
      <trkpt lat="51.5313310" lon="7.2956922"/>
      <trkpt lat="51.5318706" lon="7.2964867"/>
      <trkpt lat="51.5320000" lon="7.2966662"/>
      <trkpt lat="51.5321694" lon="7.2968945"/>
      <trkpt lat="51.5323045" lon="7.2970639"/>
      <trkpt lat="51.5324716" lon="7.2972312"/>
      <trkpt lat="51.5325159" lon="7.2972740"/>
      <trkpt lat="51.5327487" lon="7.2974947"/>
      <trkpt lat="51.5328108" lon="7.2975514"/>
      <trkpt lat="51.5329338" lon="7.2976545"/>
      <trkpt lat="51.5331214" lon="7.2977976"/>
      <trkpt lat="51.5333073" lon="7.2979157"/>
      <trkpt lat="51.5335636" lon="7.2980630"/>
      <trkpt lat="51.5336890" lon="7.2981350"/>
      <trkpt lat="51.5338016" lon="7.2982011"/>
      <trkpt lat="51.5340296" lon="7.2983646"/>
      <trkpt lat="51.5342019" lon="7.2985146"/>
      <trkpt lat="51.5342821" lon="7.2985843"/>
      <trkpt lat="51.5343940" lon="7.2986814"/>
      <trkpt lat="51.5345795" lon="7.2988422"/>
      <trkpt lat="51.5348497" lon="7.2990832"/>
      <trkpt lat="51.5348731" lon="7.2991041"/>
      <trkpt lat="51.5351382" lon="7.2993367"/>
      <trkpt lat="51.5352161" lon="7.2994064"/>
      <trkpt lat="51.5354193" lon="7.2995882"/>
      <trkpt lat="51.5355628" lon="7.2997234"/>
      <trkpt lat="51.5356873" lon="7.2998602"/>
      <trkpt lat="51.5358009" lon="7.3000037"/>
      <trkpt lat="51.5358739" lon="7.3001056"/>
      <trkpt lat="51.5359621" lon="7.3002457"/>
      <trkpt lat="51.5360397" lon="7.3003983"/>
      <trkpt lat="51.5361156" lon="7.3005820"/>
      <trkpt lat="51.5361421" lon="7.3006561"/>
      <trkpt lat="51.5361732" lon="7.3007486"/>
      <trkpt lat="51.5361982" lon="7.3008335"/>
      <trkpt lat="51.5362241" lon="7.3009304"/>
      <trkpt lat="51.5362485" lon="7.3010390"/>
      <trkpt lat="51.5362773" lon="7.3011899"/>
      <trkpt lat="51.5363027" lon="7.3013364"/>
      <trkpt lat="51.5363206" lon="7.3014655"/>
      <trkpt lat="51.5363534" lon="7.3017280"/>
      <trkpt lat="51.5364068" lon="7.3022557"/>
      <trkpt lat="51.5364545" lon="7.3026465"/>
      <trkpt lat="51.5364877" lon="7.3028567"/>
      <trkpt lat="51.5365239" lon="7.3030520"/>
      <trkpt lat="51.5365987" lon="7.3033632"/>
      <trkpt lat="51.5366854" lon="7.3036746"/>
      <trkpt lat="51.5370112" lon="7.3047421"/>
      <trkpt lat="51.5373400" lon="7.3058293"/>
      <trkpt lat="51.5374476" lon="7.3061771"/>
      <trkpt lat="51.5374985" lon="7.3063397"/>
      <trkpt lat="51.5375537" lon="7.3064929"/>
      <trkpt lat="51.5376277" lon="7.3066669"/>
      <trkpt lat="51.5377688" lon="7.3069231"/>
      <trkpt lat="51.5378575" lon="7.3070535"/>
      <trkpt lat="51.5379659" lon="7.3071826"/>
      <trkpt lat="51.5380840" lon="7.3073090"/>
      <trkpt lat="51.5381425" lon="7.3073743"/>
      <trkpt lat="51.5381936" lon="7.3074314"/>
      <trkpt lat="51.5382819" lon="7.3075438"/>
      <trkpt lat="51.5383909" lon="7.3077170"/>
      <trkpt lat="51.5385272" lon="7.3079606"/>
      <trkpt lat="51.5386451" lon="7.3081637"/>
      <trkpt lat="51.5386860" lon="7.3082173"/>
      <trkpt lat="51.5387975" lon="7.3083432"/>
      <trkpt lat="51.5388575" lon="7.3084011"/>
      <trkpt lat="51.5389247" lon="7.3084558"/>
      <trkpt lat="51.5390668" lon="7.3085419"/>
      <trkpt lat="51.5391404" lon="7.3085777"/>
      <trkpt lat="51.5392033" lon="7.3086045"/>
      <trkpt lat="51.5392550" lon="7.3086209"/>
      <trkpt lat="51.5396751" lon="7.3087128"/>
      <trkpt lat="51.5398517" lon="7.3087557"/>
      <trkpt lat="51.5399077" lon="7.3087693"/>
      <trkpt lat="51.5399637" lon="7.3087829"/>
      <trkpt lat="51.5399969" lon="7.3087910"/>
      <trkpt lat="51.5401328" lon="7.3088326"/>
      <trkpt lat="51.5402138" lon="7.3088567"/>
      <trkpt lat="51.5406191" lon="7.3089827"/>
      <trkpt lat="51.5407175" lon="7.3089925"/>
      <trkpt lat="51.5407806" lon="7.3089866"/>
      <trkpt lat="51.5408461" lon="7.3089667"/>
      <trkpt lat="51.5409336" lon="7.3089156"/>
      <trkpt lat="51.5410782" lon="7.3088033"/>
      <trkpt lat="51.5413297" lon="7.3086000"/>
      <trkpt lat="51.5414860" lon="7.3084845"/>
      <trkpt lat="51.5416322" lon="7.3083849"/>
      <trkpt lat="51.5417635" lon="7.3083055"/>
      <trkpt lat="51.5418928" lon="7.3082407"/>
      <trkpt lat="51.5421425" lon="7.3081156"/>
      <trkpt lat="51.5422942" lon="7.3080396"/>
      <trkpt lat="51.5426183" lon="7.3078773"/>
      <trkpt lat="51.5428992" lon="7.3077502"/>
      <trkpt lat="51.5434474" lon="7.3075021"/>
      <trkpt lat="51.5435225" lon="7.3074681"/>
      <trkpt lat="51.5436798" lon="7.3073971"/>
      <trkpt lat="51.5437837" lon="7.3073495"/>
      <trkpt lat="51.5438420" lon="7.3073228"/>
      <trkpt lat="51.5439025" lon="7.3072951"/>
      <trkpt lat="51.5439687" lon="7.3072649"/>
      <trkpt lat="51.5440031" lon="7.3072492"/>
      <trkpt lat="51.5441591" lon="7.3071779"/>
      <trkpt lat="51.5443634" lon="7.3070861"/>
      <trkpt lat="51.5443854" lon="7.3072035"/>
      <trkpt lat="51.5446632" lon="7.3079747"/>
      <trkpt lat="51.5446764" lon="7.3080115"/>
      <trkpt lat="51.5447351" lon="7.3081744"/>
      <trkpt lat="51.5447972" lon="7.3083469"/>
      <trkpt lat="51.5450052" lon="7.3089243"/>
      <trkpt lat="51.5452642" lon="7.3096834"/>
      <trkpt lat="51.5453830" lon="7.3099952"/>
      <trkpt lat="51.5455926" lon="7.3103584"/>
      <trkpt lat="51.5458954" lon="7.3108830"/>
      <trkpt lat="51.5462756" lon="7.3115279"/>
      <trkpt lat="51.5463211" lon="7.3116034"/>
      <trkpt lat="51.5464678" lon="7.3118579"/>
      <trkpt lat="51.5465526" lon="7.3120034"/>
      <trkpt lat="51.5465042" lon="7.3120762"/>
      <trkpt lat="51.5462885" lon="7.3124136"/>
      <trkpt lat="51.5462795" lon="7.3124256"/>
      <trkpt lat="51.5462425" lon="7.3124724"/>
      <trkpt lat="51.5462055" lon="7.3125160"/>
      <trkpt lat="51.5459321" lon="7.3127515"/>
      <trkpt lat="51.5458196" lon="7.3128498"/>
      <trkpt lat="51.5456847" lon="7.3129596"/>
      <trkpt lat="51.5454617" lon="7.3131616"/>
      <trkpt lat="51.5453271" lon="7.3132682"/>
      <trkpt lat="51.5453258" lon="7.3132693"/>
      <trkpt lat="51.5451610" lon="7.3134077"/>
      <trkpt lat="51.5449436" lon="7.3135592"/>
      <trkpt lat="51.5448944" lon="7.3136035"/>
      <trkpt lat="51.5448521" lon="7.3136563"/>
      <trkpt lat="51.5448228" lon="7.3137143"/>
      <trkpt lat="51.5447840" lon="7.3138203"/>
      <trkpt lat="51.5447708" lon="7.3139012"/>
      <trkpt lat="51.5447658" lon="7.3139964"/>
      <trkpt lat="51.5447681" lon="7.3140718"/>
      <trkpt lat="51.5448048" lon="7.3142836"/>
      <trkpt lat="51.5448362" lon="7.3144509"/>
      <trkpt lat="51.5448669" lon="7.3146220"/>
      <trkpt lat="51.5449800" lon="7.3152514"/>
      <trkpt lat="51.5449872" lon="7.3152917"/>
      <trkpt lat="51.5449893" lon="7.3152973"/>
      <trkpt lat="51.5450292" lon="7.3153264"/>
      <trkpt lat="51.5450753" lon="7.3153472"/>
      <trkpt lat="51.5451178" lon="7.3153496"/>
      <trkpt lat="51.5451849" lon="7.3153462"/>
      <trkpt lat="51.5453187" lon="7.3152444"/>
      <trkpt lat="51.5459631" lon="7.3148339"/>
      <trkpt lat="51.5461769" lon="7.3146962"/>
      <trkpt lat="51.5463465" lon="7.3145859"/>
      <trkpt lat="51.5466058" lon="7.3144201"/>
      <trkpt lat="51.5467025" lon="7.3143600"/>
      <trkpt lat="51.5467637" lon="7.3143181"/>
      <trkpt lat="51.5469350" lon="7.3141914"/>
      <trkpt lat="51.5471163" lon="7.3140343"/>
      <trkpt lat="51.5474247" lon="7.3137410"/>
      <trkpt lat="51.5475589" lon="7.3135967"/>
      <trkpt lat="51.5478132" lon="7.3133451"/>
      <trkpt lat="51.5480418" lon="7.3130469"/>
      <trkpt lat="51.5480657" lon="7.3130139"/>
      <trkpt lat="51.5481098" lon="7.3129529"/>
      <trkpt lat="51.5481409" lon="7.3129031"/>
      <trkpt lat="51.5482244" lon="7.3127682"/>
      <trkpt lat="51.5483323" lon="7.3126052"/>
      <trkpt lat="51.5484555" lon="7.3124193"/>
      <trkpt lat="51.5485726" lon="7.3122751"/>
      <trkpt lat="51.5486786" lon="7.3121611"/>
      <trkpt lat="51.5487853" lon="7.3120531"/>
      <trkpt lat="51.5488511" lon="7.3119698"/>
      <trkpt lat="51.5490259" lon="7.3117038"/>
      <trkpt lat="51.5491572" lon="7.3114168"/>
      <trkpt lat="51.5493762" lon="7.3108368"/>
      <trkpt lat="51.5494785" lon="7.3105620"/>
      <trkpt lat="51.5495020" lon="7.3105015"/>
      <trkpt lat="51.5495253" lon="7.3104416"/>
      <trkpt lat="51.5496333" lon="7.3101431"/>
      <trkpt lat="51.5496495" lon="7.3101001"/>
      <trkpt lat="51.5497424" lon="7.3098606"/>
      <trkpt lat="51.5498092" lon="7.3096620"/>
      <trkpt lat="51.5498778" lon="7.3094213"/>
      <trkpt lat="51.5499216" lon="7.3092632"/>
      <trkpt lat="51.5500183" lon="7.3088689"/>
      <trkpt lat="51.5500861" lon="7.3085592"/>
      <trkpt lat="51.5501275" lon="7.3082457"/>
      <trkpt lat="51.5501405" lon="7.3081076"/>
      <trkpt lat="51.5501484" lon="7.3079655"/>
      <trkpt lat="51.5501501" lon="7.3078313"/>
      <trkpt lat="51.5501359" lon="7.3076939"/>
      <trkpt lat="51.5501097" lon="7.3075741"/>
      <trkpt lat="51.5500742" lon="7.3074833"/>
      <trkpt lat="51.5500296" lon="7.3074009"/>
      <trkpt lat="51.5500004" lon="7.3073519"/>
      <trkpt lat="51.5499362" lon="7.3072715"/>
      <trkpt lat="51.5498016" lon="7.3071831"/>
      <trkpt lat="51.5496826" lon="7.3071541"/>
      <trkpt lat="51.5495710" lon="7.3071774"/>
      <trkpt lat="51.5494223" lon="7.3072571"/>
      <trkpt lat="51.5493192" lon="7.3073629"/>
      <trkpt lat="51.5492617" lon="7.3074219"/>
      <trkpt lat="51.5489878" lon="7.3078004"/>
      <trkpt lat="51.5489946" lon="7.3079011"/>
      <trkpt lat="51.5490083" lon="7.3079799"/>
      <trkpt lat="51.5490292" lon="7.3080385"/>
      <trkpt lat="51.5490521" lon="7.3080833"/>
      <trkpt lat="51.5492523" lon="7.3084673"/>
      <trkpt lat="51.5494280" lon="7.3087826"/>
      <trkpt lat="51.5496004" lon="7.3090207"/>
      <trkpt lat="51.5497851" lon="7.3092433"/>
    </trkseg>
  </trk>
</gpx>