<?xml version="1.0" encoding="UTF-8"?>
<gpx version="1.1" creator="Linienjagd Castrop-Rauxel" xmlns="http://www.topografix.com/GPX/1/1">
  <metadata><name>Linie 361 – komplette Linie</name><desc>Bus 361: Dortmund Mengede Markt =&gt; Castrop-Rauxel Münsterplatz | 11.80 km | 23 Haltestellen</desc></metadata>
  <wpt lat="51.5703744" lon="7.3829988"><name>01 Mengede Markt</name><sym>Flag</sym></wpt>
  <wpt lat="51.5675481" lon="7.3830244"><name>02 Marschallstraße</name><sym>Flag</sym></wpt>
  <wpt lat="51.5645707" lon="7.3810691"><name>03 Dönnstraße</name><sym>Flag</sym></wpt>
  <wpt lat="51.5623291" lon="7.3786754"><name>04 Dortmund-Nette/Oestrich</name><sym>Flag</sym></wpt>
  <wpt lat="51.5610415" lon="7.3730267"><name>05 Breisenbachstraße</name><sym>Flag</sym></wpt>
  <wpt lat="51.5633448" lon="7.3691082"><name>06 Nebenbruch</name><sym>Flag</sym></wpt>
  <wpt lat="51.5598462" lon="7.3602343"><name>07 Langenacker</name><sym>Flag</sym></wpt>
  <wpt lat="51.5567615" lon="7.3540985"><name>08 Dingen Talstraße</name><sym>Flag</sym></wpt>
  <wpt lat="51.5579152" lon="7.3499579"><name>09 Bogenweg</name><sym>Flag</sym></wpt>
  <wpt lat="51.5615221" lon="7.3511558"><name>10 Westheide Schule</name><sym>Flag</sym></wpt>
  <wpt lat="51.5656574" lon="7.3524958"><name>11 Am Kreuzloh</name><sym>Flag</sym></wpt>
  <wpt lat="51.5681659" lon="7.3461221"><name>12 Oestricher Straße / Landhaus Köster</name><sym>Flag</sym></wpt>
  <wpt lat="51.5688060" lon="7.3426410"><name>13 Oststr./Dingebauer</name><sym>Flag</sym></wpt>
  <wpt lat="51.5660991" lon="7.3343886"><name>14 Deininghausen</name><sym>Flag</sym></wpt>
  <wpt lat="51.5690317" lon="7.3359819"><name>15 Weimarer Straße</name><sym>Flag</sym></wpt>
  <wpt lat="51.5662769" lon="7.3331460"><name>16 Deininghausen</name><sym>Flag</sym></wpt>
  <wpt lat="51.5599413" lon="7.3254565"><name>17 Ost- / Rieperbergstraße</name><sym>Flag</sym></wpt>
  <wpt lat="51.5584441" lon="7.3201278"><name>18 Luisenstraße</name><sym>Flag</sym></wpt>
  <wpt lat="51.5580179" lon="7.3157222"><name>19 Schophof</name><sym>Flag</sym></wpt>
  <wpt lat="51.5582519" lon="7.3125334"><name>20 Orionstraße</name><sym>Flag</sym></wpt>
  <wpt lat="51.5552056" lon="7.3108460"><name>21 Castrop Betriebshof</name><sym>Flag</sym></wpt>
  <wpt lat="51.5533138" lon="7.3103264"><name>22 Engelsburgplatz</name><sym>Flag</sym></wpt>
  <wpt lat="51.5494510" lon="7.3090787"><name>23 Castrop Münsterplatz</name><sym>Flag</sym></wpt>
  <trk><name>Linie 361 – komplette Linie</name>
    <trkseg>
      <trkpt lat="51.5703744" lon="7.3829988"/>
      <trkpt lat="51.5703581" lon="7.3829821"/>
      <trkpt lat="51.5703400" lon="7.3829730"/>
      <trkpt lat="51.5703150" lon="7.3829703"/>
      <trkpt lat="51.5702764" lon="7.3829756"/>
      <trkpt lat="51.5702564" lon="7.3829408"/>
      <trkpt lat="51.5702425" lon="7.3829180"/>
      <trkpt lat="51.5701730" lon="7.3828009"/>
      <trkpt lat="51.5701558" lon="7.3828227"/>
      <trkpt lat="51.5700317" lon="7.3830032"/>
      <trkpt lat="51.5698741" lon="7.3832322"/>
      <trkpt lat="51.5698485" lon="7.3832731"/>
      <trkpt lat="51.5697820" lon="7.3833689"/>
      <trkpt lat="51.5697367" lon="7.3834350"/>
      <trkpt lat="51.5697224" lon="7.3834552"/>
      <trkpt lat="51.5696950" lon="7.3834999"/>
      <trkpt lat="51.5696667" lon="7.3835459"/>
      <trkpt lat="51.5696557" lon="7.3835639"/>
      <trkpt lat="51.5696443" lon="7.3835838"/>
      <trkpt lat="51.5694970" lon="7.3838414"/>
      <trkpt lat="51.5694109" lon="7.3840156"/>
      <trkpt lat="51.5693085" lon="7.3842226"/>
      <trkpt lat="51.5691978" lon="7.3844730"/>
      <trkpt lat="51.5687988" lon="7.3840875"/>
      <trkpt lat="51.5686075" lon="7.3838767"/>
      <trkpt lat="51.5685723" lon="7.3838390"/>
      <trkpt lat="51.5684120" lon="7.3837035"/>
      <trkpt lat="51.5684026" lon="7.3836959"/>
      <trkpt lat="51.5683001" lon="7.3836125"/>
      <trkpt lat="51.5681696" lon="7.3835132"/>
      <trkpt lat="51.5677805" lon="7.3832053"/>
      <trkpt lat="51.5675481" lon="7.3830244"/>
      <trkpt lat="51.5674124" lon="7.3829182"/>
      <trkpt lat="51.5670567" lon="7.3826425"/>
      <trkpt lat="51.5659095" lon="7.3817535"/>
      <trkpt lat="51.5657023" lon="7.3815967"/>
      <trkpt lat="51.5653474" lon="7.3813281"/>
      <trkpt lat="51.5650518" lon="7.3810785"/>
      <trkpt lat="51.5649780" lon="7.3810382"/>
      <trkpt lat="51.5649355" lon="7.3810181"/>
      <trkpt lat="51.5648888" lon="7.3810067"/>
      <trkpt lat="51.5648333" lon="7.3810054"/>
      <trkpt lat="51.5647641" lon="7.3810121"/>
      <trkpt lat="51.5645707" lon="7.3810691"/>
      <trkpt lat="51.5642937" lon="7.3811378"/>
      <trkpt lat="51.5642556" lon="7.3811440"/>
      <trkpt lat="51.5641901" lon="7.3811525"/>
      <trkpt lat="51.5641111" lon="7.3811647"/>
      <trkpt lat="51.5640563" lon="7.3811196"/>
      <trkpt lat="51.5638034" lon="7.3808607"/>
      <trkpt lat="51.5637147" lon="7.3807705"/>
      <trkpt lat="51.5633090" lon="7.3803266"/>
      <trkpt lat="51.5631227" lon="7.3801209"/>
      <trkpt lat="51.5630232" lon="7.3799947"/>
      <trkpt lat="51.5628310" lon="7.3797334"/>
      <trkpt lat="51.5627122" lon="7.3795778"/>
      <trkpt lat="51.5626989" lon="7.3795604"/>
      <trkpt lat="51.5624734" lon="7.3792409"/>
      <trkpt lat="51.5624501" lon="7.3792011"/>
      <trkpt lat="51.5624304" lon="7.3791460"/>
      <trkpt lat="51.5623873" lon="7.3789459"/>
      <trkpt lat="51.5623291" lon="7.3786754"/>
      <trkpt lat="51.5623200" lon="7.3786339"/>
      <trkpt lat="51.5622851" lon="7.3784683"/>
      <trkpt lat="51.5622145" lon="7.3782961"/>
      <trkpt lat="51.5622899" lon="7.3781894"/>
      <trkpt lat="51.5623151" lon="7.3781503"/>
      <trkpt lat="51.5623250" lon="7.3781349"/>
      <trkpt lat="51.5623402" lon="7.3781112"/>
      <trkpt lat="51.5623905" lon="7.3780330"/>
      <trkpt lat="51.5624552" lon="7.3779297"/>
      <trkpt lat="51.5625267" lon="7.3778078"/>
      <trkpt lat="51.5625347" lon="7.3777943"/>
      <trkpt lat="51.5625902" lon="7.3777005"/>
      <trkpt lat="51.5626082" lon="7.3777201"/>
      <trkpt lat="51.5626281" lon="7.3777337"/>
      <trkpt lat="51.5626564" lon="7.3777417"/>
      <trkpt lat="51.5626878" lon="7.3777367"/>
      <trkpt lat="51.5627168" lon="7.3777179"/>
      <trkpt lat="51.5627417" lon="7.3776865"/>
      <trkpt lat="51.5627608" lon="7.3776428"/>
      <trkpt lat="51.5627681" lon="7.3776131"/>
      <trkpt lat="51.5627719" lon="7.3775818"/>
      <trkpt lat="51.5627705" lon="7.3775289"/>
      <trkpt lat="51.5627597" lon="7.3774794"/>
      <trkpt lat="51.5627393" lon="7.3774353"/>
      <trkpt lat="51.5627099" lon="7.3774019"/>
      <trkpt lat="51.5626804" lon="7.3773866"/>
      <trkpt lat="51.5626552" lon="7.3773842"/>
      <trkpt lat="51.5626303" lon="7.3773910"/>
      <trkpt lat="51.5625957" lon="7.3774183"/>
      <trkpt lat="51.5625703" lon="7.3774600"/>
      <trkpt lat="51.5625035" lon="7.3774085"/>
      <trkpt lat="51.5620584" lon="7.3769620"/>
      <trkpt lat="51.5619700" lon="7.3767493"/>
      <trkpt lat="51.5618533" lon="7.3762851"/>
      <trkpt lat="51.5617427" lon="7.3758452"/>
      <trkpt lat="51.5616967" lon="7.3756634"/>
      <trkpt lat="51.5616161" lon="7.3753449"/>
      <trkpt lat="51.5615930" lon="7.3752519"/>
      <trkpt lat="51.5615828" lon="7.3752206"/>
      <trkpt lat="51.5614788" lon="7.3749013"/>
      <trkpt lat="51.5614159" lon="7.3747514"/>
      <trkpt lat="51.5613298" lon="7.3745883"/>
      <trkpt lat="51.5612039" lon="7.3743528"/>
      <trkpt lat="51.5611106" lon="7.3741800"/>
      <trkpt lat="51.5609684" lon="7.3739267"/>
      <trkpt lat="51.5607380" lon="7.3735185"/>
      <trkpt lat="51.5606858" lon="7.3734276"/>
      <trkpt lat="51.5607544" lon="7.3733506"/>
      <trkpt lat="51.5609319" lon="7.3731517"/>
      <trkpt lat="51.5610415" lon="7.3730267"/>
      <trkpt lat="51.5611476" lon="7.3728993"/>
      <trkpt lat="51.5611736" lon="7.3728673"/>
      <trkpt lat="51.5612907" lon="7.3727232"/>
      <trkpt lat="51.5618854" lon="7.3717195"/>
      <trkpt lat="51.5619672" lon="7.3715672"/>
      <trkpt lat="51.5621421" lon="7.3712509"/>
      <trkpt lat="51.5622202" lon="7.3711096"/>
      <trkpt lat="51.5622456" lon="7.3710638"/>
      <trkpt lat="51.5624408" lon="7.3707055"/>
      <trkpt lat="51.5625614" lon="7.3704819"/>
      <trkpt lat="51.5626674" lon="7.3702891"/>
      <trkpt lat="51.5629121" lon="7.3698443"/>
      <trkpt lat="51.5629598" lon="7.3697576"/>
      <trkpt lat="51.5630010" lon="7.3696901"/>
      <trkpt lat="51.5631560" lon="7.3694360"/>
      <trkpt lat="51.5632010" lon="7.3693579"/>
      <trkpt lat="51.5633448" lon="7.3691082"/>
      <trkpt lat="51.5633731" lon="7.3690481"/>
      <trkpt lat="51.5634373" lon="7.3689971"/>
      <trkpt lat="51.5635774" lon="7.3687838"/>
      <trkpt lat="51.5636278" lon="7.3687129"/>
      <trkpt lat="51.5636841" lon="7.3686336"/>
      <trkpt lat="51.5637899" lon="7.3684876"/>
      <trkpt lat="51.5638160" lon="7.3684579"/>
      <trkpt lat="51.5639224" lon="7.3683358"/>
      <trkpt lat="51.5638486" lon="7.3682385"/>
      <trkpt lat="51.5637988" lon="7.3681707"/>
      <trkpt lat="51.5637635" lon="7.3681232"/>
      <trkpt lat="51.5636220" lon="7.3679054"/>
      <trkpt lat="51.5634947" lon="7.3677106"/>
      <trkpt lat="51.5633140" lon="7.3674027"/>
      <trkpt lat="51.5631976" lon="7.3671950"/>
      <trkpt lat="51.5630132" lon="7.3667911"/>
      <trkpt lat="51.5627644" lon="7.3662146"/>
      <trkpt lat="51.5625280" lon="7.3656106"/>
      <trkpt lat="51.5622833" lon="7.3649906"/>
      <trkpt lat="51.5620001" lon="7.3642508"/>
      <trkpt lat="51.5617319" lon="7.3635850"/>
      <trkpt lat="51.5616862" lon="7.3634715"/>
      <trkpt lat="51.5615976" lon="7.3632536"/>
      <trkpt lat="51.5615732" lon="7.3631930"/>
      <trkpt lat="51.5615204" lon="7.3630579"/>
      <trkpt lat="51.5614549" lon="7.3629025"/>
      <trkpt lat="51.5614206" lon="7.3628253"/>
      <trkpt lat="51.5613268" lon="7.3626150"/>
      <trkpt lat="51.5612790" lon="7.3625141"/>
      <trkpt lat="51.5611341" lon="7.3622074"/>
      <trkpt lat="51.5610290" lon="7.3619989"/>
      <trkpt lat="51.5608997" lon="7.3617512"/>
      <trkpt lat="51.5608164" lon="7.3616096"/>
      <trkpt lat="51.5606881" lon="7.3614047"/>
      <trkpt lat="51.5604038" lon="7.3609840"/>
      <trkpt lat="51.5602042" lon="7.3606917"/>
      <trkpt lat="51.5600357" lon="7.3604671"/>
      <trkpt lat="51.5599489" lon="7.3603611"/>
      <trkpt lat="51.5598462" lon="7.3602343"/>
      <trkpt lat="51.5589069" lon="7.3589873"/>
      <trkpt lat="51.5586040" lon="7.3585548"/>
      <trkpt lat="51.5581432" lon="7.3579844"/>
      <trkpt lat="51.5575941" lon="7.3573020"/>
      <trkpt lat="51.5571513" lon="7.3567639"/>
      <trkpt lat="51.5569028" lon="7.3564481"/>
      <trkpt lat="51.5564865" lon="7.3559351"/>
      <trkpt lat="51.5559478" lon="7.3553591"/>
      <trkpt lat="51.5557000" lon="7.3550925"/>
      <trkpt lat="51.5552242" lon="7.3546145"/>
      <trkpt lat="51.5550581" lon="7.3544477"/>
      <trkpt lat="51.5551520" lon="7.3542945"/>
      <trkpt lat="51.5553176" lon="7.3540241"/>
      <trkpt lat="51.5554803" lon="7.3536819"/>
      <trkpt lat="51.5556906" lon="7.3531922"/>
      <trkpt lat="51.5557799" lon="7.3529870"/>
      <trkpt lat="51.5558521" lon="7.3529782"/>
      <trkpt lat="51.5559400" lon="7.3530485"/>
      <trkpt lat="51.5560143" lon="7.3531448"/>
      <trkpt lat="51.5561588" lon="7.3533636"/>
      <trkpt lat="51.5565386" lon="7.3542357"/>
      <trkpt lat="51.5565877" lon="7.3542821"/>
      <trkpt lat="51.5567615" lon="7.3540985"/>
      <trkpt lat="51.5568095" lon="7.3540485"/>
      <trkpt lat="51.5570488" lon="7.3537833"/>
      <trkpt lat="51.5572703" lon="7.3535241"/>
      <trkpt lat="51.5573539" lon="7.3534316"/>
      <trkpt lat="51.5573873" lon="7.3533697"/>
      <trkpt lat="51.5573913" lon="7.3533151"/>
      <trkpt lat="51.5573672" lon="7.3531657"/>
      <trkpt lat="51.5572537" lon="7.3524955"/>
      <trkpt lat="51.5572425" lon="7.3523979"/>
      <trkpt lat="51.5572417" lon="7.3519951"/>
      <trkpt lat="51.5572554" lon="7.3511188"/>
      <trkpt lat="51.5572724" lon="7.3506947"/>
      <trkpt lat="51.5573040" lon="7.3500873"/>
      <trkpt lat="51.5573174" lon="7.3496464"/>
      <trkpt lat="51.5574775" lon="7.3497273"/>
      <trkpt lat="51.5576238" lon="7.3498054"/>
      <trkpt lat="51.5579152" lon="7.3499579"/>
      <trkpt lat="51.5581502" lon="7.3500851"/>
      <trkpt lat="51.5587354" lon="7.3504052"/>
      <trkpt lat="51.5592174" lon="7.3506432"/>
      <trkpt lat="51.5593630" lon="7.3507305"/>
      <trkpt lat="51.5595009" lon="7.3508150"/>
      <trkpt lat="51.5595938" lon="7.3508700"/>
      <trkpt lat="51.5596875" lon="7.3509194"/>
      <trkpt lat="51.5597573" lon="7.3509276"/>
      <trkpt lat="51.5602727" lon="7.3509879"/>
      <trkpt lat="51.5604441" lon="7.3510080"/>
      <trkpt lat="51.5609261" lon="7.3510735"/>
      <trkpt lat="51.5612761" lon="7.3511212"/>
      <trkpt lat="51.5613702" lon="7.3511341"/>
      <trkpt lat="51.5615221" lon="7.3511558"/>
      <trkpt lat="51.5615460" lon="7.3511604"/>
      <trkpt lat="51.5620276" lon="7.3512341"/>
      <trkpt lat="51.5620543" lon="7.3512370"/>
      <trkpt lat="51.5626286" lon="7.3513113"/>
      <trkpt lat="51.5629418" lon="7.3513580"/>
      <trkpt lat="51.5631252" lon="7.3513928"/>
      <trkpt lat="51.5631465" lon="7.3513965"/>
      <trkpt lat="51.5631643" lon="7.3514005"/>
      <trkpt lat="51.5631919" lon="7.3514088"/>
      <trkpt lat="51.5632147" lon="7.3514251"/>
      <trkpt lat="51.5632863" lon="7.3515075"/>
      <trkpt lat="51.5633211" lon="7.3515477"/>
      <trkpt lat="51.5634316" lon="7.3516886"/>
      <trkpt lat="51.5636501" lon="7.3519649"/>
      <trkpt lat="51.5643929" lon="7.3529044"/>
      <trkpt lat="51.5645219" lon="7.3530676"/>
      <trkpt lat="51.5645450" lon="7.3530973"/>
      <trkpt lat="51.5647409" lon="7.3533493"/>
      <trkpt lat="51.5647945" lon="7.3534183"/>
      <trkpt lat="51.5651472" lon="7.3537985"/>
      <trkpt lat="51.5655842" lon="7.3526904"/>
      <trkpt lat="51.5656574" lon="7.3524958"/>
      <trkpt lat="51.5664776" lon="7.3504021"/>
      <trkpt lat="51.5665311" lon="7.3502618"/>
      <trkpt lat="51.5666145" lon="7.3500547"/>
      <trkpt lat="51.5666904" lon="7.3498615"/>
      <trkpt lat="51.5681659" lon="7.3461221"/>
      <trkpt lat="51.5682252" lon="7.3459699"/>
      <trkpt lat="51.5682559" lon="7.3458912"/>
      <trkpt lat="51.5682818" lon="7.3458332"/>
      <trkpt lat="51.5690566" lon="7.3438696"/>
      <trkpt lat="51.5691179" lon="7.3437143"/>
      <trkpt lat="51.5691918" lon="7.3435269"/>
      <trkpt lat="51.5688904" lon="7.3428379"/>
      <trkpt lat="51.5688060" lon="7.3426410"/>
      <trkpt lat="51.5687755" lon="7.3425722"/>
      <trkpt lat="51.5686840" lon="7.3423681"/>
      <trkpt lat="51.5685948" lon="7.3421714"/>
      <trkpt lat="51.5684784" lon="7.3418996"/>
      <trkpt lat="51.5682972" lon="7.3414842"/>
      <trkpt lat="51.5681965" lon="7.3412577"/>
      <trkpt lat="51.5681498" lon="7.3411527"/>
      <trkpt lat="51.5680942" lon="7.3410205"/>
      <trkpt lat="51.5679985" lon="7.3408069"/>
      <trkpt lat="51.5678847" lon="7.3405406"/>
      <trkpt lat="51.5676125" lon="7.3399009"/>
      <trkpt lat="51.5675398" lon="7.3397193"/>
      <trkpt lat="51.5674685" lon="7.3395581"/>
      <trkpt lat="51.5673279" lon="7.3392441"/>
      <trkpt lat="51.5671793" lon="7.3388892"/>
      <trkpt lat="51.5666901" lon="7.3377165"/>
      <trkpt lat="51.5660349" lon="7.3361636"/>
      <trkpt lat="51.5657084" lon="7.3354276"/>
      <trkpt lat="51.5655380" lon="7.3350691"/>
      <trkpt lat="51.5654641" lon="7.3349157"/>
      <trkpt lat="51.5651564" lon="7.3343202"/>
      <trkpt lat="51.5652158" lon="7.3342560"/>
      <trkpt lat="51.5653991" lon="7.3340606"/>
      <trkpt lat="51.5656229" lon="7.3338364"/>
      <trkpt lat="51.5657902" lon="7.3336638"/>
      <trkpt lat="51.5660605" lon="7.3342978"/>
      <trkpt lat="51.5660991" lon="7.3343886"/>
      <trkpt lat="51.5662899" lon="7.3348183"/>
      <trkpt lat="51.5665285" lon="7.3353811"/>
      <trkpt lat="51.5667587" lon="7.3359242"/>
      <trkpt lat="51.5669850" lon="7.3364484"/>
      <trkpt lat="51.5670035" lon="7.3364929"/>
      <trkpt lat="51.5672074" lon="7.3369820"/>
      <trkpt lat="51.5674181" lon="7.3374524"/>
      <trkpt lat="51.5674557" lon="7.3374733"/>
      <trkpt lat="51.5675438" lon="7.3375028"/>
      <trkpt lat="51.5676599" lon="7.3374605"/>
      <trkpt lat="51.5677234" lon="7.3373946"/>
      <trkpt lat="51.5680888" lon="7.3370050"/>
      <trkpt lat="51.5682994" lon="7.3367711"/>
      <trkpt lat="51.5685931" lon="7.3364662"/>
      <trkpt lat="51.5687759" lon="7.3362642"/>
      <trkpt lat="51.5688589" lon="7.3361692"/>
      <trkpt lat="51.5690317" lon="7.3359819"/>
      <trkpt lat="51.5691172" lon="7.3358851"/>
      <trkpt lat="51.5692111" lon="7.3357779"/>
      <trkpt lat="51.5694097" lon="7.3355770"/>
      <trkpt lat="51.5695682" lon="7.3353951"/>
      <trkpt lat="51.5696235" lon="7.3352777"/>
      <trkpt lat="51.5696360" lon="7.3351091"/>
      <trkpt lat="51.5696130" lon="7.3349817"/>
      <trkpt lat="51.5695511" lon="7.3348416"/>
      <trkpt lat="51.5694282" lon="7.3345633"/>
      <trkpt lat="51.5692492" lon="7.3341475"/>
      <trkpt lat="51.5689446" lon="7.3334102"/>
      <trkpt lat="51.5687402" lon="7.3329418"/>
      <trkpt lat="51.5686054" lon="7.3326329"/>
      <trkpt lat="51.5685666" lon="7.3325356"/>
      <trkpt lat="51.5683903" lon="7.3321127"/>
      <trkpt lat="51.5682189" lon="7.3317019"/>
      <trkpt lat="51.5681786" lon="7.3316052"/>
      <trkpt lat="51.5680405" lon="7.3313144"/>
      <trkpt lat="51.5677502" lon="7.3317371"/>
      <trkpt lat="51.5676124" lon="7.3319123"/>
      <trkpt lat="51.5671790" lon="7.3323107"/>
      <trkpt lat="51.5668655" lon="7.3325905"/>
      <trkpt lat="51.5664984" lon="7.3329180"/>
      <trkpt lat="51.5664250" lon="7.3330011"/>
      <trkpt lat="51.5662769" lon="7.3331460"/>
      <trkpt lat="51.5661911" lon="7.3332290"/>
      <trkpt lat="51.5661017" lon="7.3333319"/>
      <trkpt lat="51.5657902" lon="7.3336638"/>
      <trkpt lat="51.5656229" lon="7.3338364"/>
      <trkpt lat="51.5653991" lon="7.3340606"/>
      <trkpt lat="51.5652158" lon="7.3342560"/>
      <trkpt lat="51.5651564" lon="7.3343202"/>
      <trkpt lat="51.5646788" lon="7.3335178"/>
      <trkpt lat="51.5645393" lon="7.3333061"/>
      <trkpt lat="51.5632480" lon="7.3315251"/>
      <trkpt lat="51.5628262" lon="7.3309532"/>
      <trkpt lat="51.5625921" lon="7.3306435"/>
      <trkpt lat="51.5624358" lon="7.3304197"/>
      <trkpt lat="51.5619136" lon="7.3297111"/>
      <trkpt lat="51.5615813" lon="7.3292523"/>
      <trkpt lat="51.5614847" lon="7.3291255"/>
      <trkpt lat="51.5609961" lon="7.3284783"/>
      <trkpt lat="51.5607593" lon="7.3280714"/>
      <trkpt lat="51.5607151" lon="7.3279884"/>
      <trkpt lat="51.5605256" lon="7.3276170"/>
      <trkpt lat="51.5603763" lon="7.3272110"/>
      <trkpt lat="51.5602090" lon="7.3266995"/>
      <trkpt lat="51.5601095" lon="7.3262777"/>
      <trkpt lat="51.5599413" lon="7.3254565"/>
      <trkpt lat="51.5598926" lon="7.3252109"/>
      <trkpt lat="51.5598383" lon="7.3249692"/>
      <trkpt lat="51.5598211" lon="7.3248873"/>
      <trkpt lat="51.5596970" lon="7.3242518"/>
      <trkpt lat="51.5595665" lon="7.3237312"/>
      <trkpt lat="51.5595029" lon="7.3234931"/>
      <trkpt lat="51.5594276" lon="7.3232568"/>
      <trkpt lat="51.5592715" lon="7.3227672"/>
      <trkpt lat="51.5589455" lon="7.3217527"/>
      <trkpt lat="51.5588277" lon="7.3213860"/>
      <trkpt lat="51.5584441" lon="7.3201278"/>
      <trkpt lat="51.5584286" lon="7.3200642"/>
      <trkpt lat="51.5583815" lon="7.3199207"/>
      <trkpt lat="51.5582884" lon="7.3196342"/>
      <trkpt lat="51.5579191" lon="7.3184435"/>
      <trkpt lat="51.5578493" lon="7.3181774"/>
      <trkpt lat="51.5578072" lon="7.3179028"/>
      <trkpt lat="51.5577871" lon="7.3175897"/>
      <trkpt lat="51.5577875" lon="7.3172880"/>
      <trkpt lat="51.5578003" lon="7.3170988"/>
      <trkpt lat="51.5578048" lon="7.3170306"/>
      <trkpt lat="51.5579146" lon="7.3163514"/>
      <trkpt lat="51.5580179" lon="7.3157222"/>
      <trkpt lat="51.5581143" lon="7.3151846"/>
      <trkpt lat="51.5582394" lon="7.3144713"/>
      <trkpt lat="51.5582484" lon="7.3144206"/>
      <trkpt lat="51.5582827" lon="7.3142564"/>
      <trkpt lat="51.5582994" lon="7.3140907"/>
      <trkpt lat="51.5583089" lon="7.3139309"/>
      <trkpt lat="51.5583184" lon="7.3136741"/>
      <trkpt lat="51.5583156" lon="7.3134308"/>
      <trkpt lat="51.5583122" lon="7.3133393"/>
      <trkpt lat="51.5582961" lon="7.3130773"/>
      <trkpt lat="51.5582519" lon="7.3125334"/>
      <trkpt lat="51.5581965" lon="7.3118654"/>
      <trkpt lat="51.5581823" lon="7.3117330"/>
      <trkpt lat="51.5581594" lon="7.3114552"/>
      <trkpt lat="51.5581421" lon="7.3112276"/>
      <trkpt lat="51.5581246" lon="7.3109968"/>
      <trkpt lat="51.5580868" lon="7.3104990"/>
      <trkpt lat="51.5580795" lon="7.3104024"/>
      <trkpt lat="51.5580733" lon="7.3103208"/>
      <trkpt lat="51.5580628" lon="7.3101828"/>
      <trkpt lat="51.5579862" lon="7.3101974"/>
      <trkpt lat="51.5577884" lon="7.3102352"/>
      <trkpt lat="51.5577661" lon="7.3102395"/>
      <trkpt lat="51.5576795" lon="7.3102561"/>
      <trkpt lat="51.5575950" lon="7.3103385"/>
      <trkpt lat="51.5572382" lon="7.3104326"/>
      <trkpt lat="51.5571427" lon="7.3104521"/>
      <trkpt lat="51.5570697" lon="7.3104669"/>
      <trkpt lat="51.5565228" lon="7.3105780"/>
      <trkpt lat="51.5563656" lon="7.3106100"/>
      <trkpt lat="51.5560681" lon="7.3106704"/>
      <trkpt lat="51.5559932" lon="7.3106857"/>
      <trkpt lat="51.5557517" lon="7.3107347"/>
      <trkpt lat="51.5555824" lon="7.3107691"/>
      <trkpt lat="51.5555167" lon="7.3107807"/>
      <trkpt lat="51.5552761" lon="7.3108314"/>
      <trkpt lat="51.5552056" lon="7.3108460"/>
      <trkpt lat="51.5550635" lon="7.3108746"/>
      <trkpt lat="51.5549884" lon="7.3108899"/>
      <trkpt lat="51.5549339" lon="7.3109009"/>
      <trkpt lat="51.5548687" lon="7.3108523"/>
      <trkpt lat="51.5547272" lon="7.3108790"/>
      <trkpt lat="51.5546982" lon="7.3108844"/>
      <trkpt lat="51.5546193" lon="7.3108972"/>
      <trkpt lat="51.5544330" lon="7.3109139"/>
      <trkpt lat="51.5543591" lon="7.3109126"/>
      <trkpt lat="51.5543200" lon="7.3109119"/>
      <trkpt lat="51.5542137" lon="7.3108991"/>
      <trkpt lat="51.5541019" lon="7.3108669"/>
      <trkpt lat="51.5539843" lon="7.3108160"/>
      <trkpt lat="51.5538378" lon="7.3107371"/>
      <trkpt lat="51.5537495" lon="7.3106743"/>
      <trkpt lat="51.5537164" lon="7.3106533"/>
      <trkpt lat="51.5534330" lon="7.3104364"/>
      <trkpt lat="51.5533138" lon="7.3103264"/>
      <trkpt lat="51.5531978" lon="7.3102026"/>
      <trkpt lat="51.5530222" lon="7.3099715"/>
      <trkpt lat="51.5529061" lon="7.3097665"/>
      <trkpt lat="51.5527495" lon="7.3094194"/>
      <trkpt lat="51.5526983" lon="7.3092802"/>
      <trkpt lat="51.5525522" lon="7.3087925"/>
      <trkpt lat="51.5524563" lon="7.3084773"/>
      <trkpt lat="51.5523716" lon="7.3082020"/>
      <trkpt lat="51.5523439" lon="7.3081184"/>
      <trkpt lat="51.5523288" lon="7.3080727"/>
      <trkpt lat="51.5522824" lon="7.3079326"/>
      <trkpt lat="51.5522555" lon="7.3078646"/>
      <trkpt lat="51.5522085" lon="7.3077543"/>
      <trkpt lat="51.5521495" lon="7.3076090"/>
      <trkpt lat="51.5521241" lon="7.3075409"/>
      <trkpt lat="51.5521017" lon="7.3074833"/>
      <trkpt lat="51.5519266" lon="7.3071234"/>
      <trkpt lat="51.5517708" lon="7.3068725"/>
      <trkpt lat="51.5516503" lon="7.3066932"/>
      <trkpt lat="51.5515537" lon="7.3065654"/>
      <trkpt lat="51.5513657" lon="7.3063446"/>
      <trkpt lat="51.5512634" lon="7.3062381"/>
      <trkpt lat="51.5511579" lon="7.3061362"/>
      <trkpt lat="51.5510706" lon="7.3060609"/>
      <trkpt lat="51.5509979" lon="7.3060020"/>
      <trkpt lat="51.5508139" lon="7.3058720"/>
      <trkpt lat="51.5506760" lon="7.3057870"/>
      <trkpt lat="51.5505224" lon="7.3057097"/>
      <trkpt lat="51.5504269" lon="7.3056675"/>
      <trkpt lat="51.5502535" lon="7.3056038"/>
      <trkpt lat="51.5500800" lon="7.3055615"/>
      <trkpt lat="51.5499437" lon="7.3055310"/>
      <trkpt lat="51.5497935" lon="7.3055220"/>
      <trkpt lat="51.5495219" lon="7.3055453"/>
      <trkpt lat="51.5494217" lon="7.3055291"/>
      <trkpt lat="51.5492966" lon="7.3055242"/>
      <trkpt lat="51.5492492" lon="7.3055009"/>
      <trkpt lat="51.5492112" lon="7.3054799"/>
      <trkpt lat="51.5491481" lon="7.3053808"/>
      <trkpt lat="51.5491076" lon="7.3052418"/>
      <trkpt lat="51.5491047" lon="7.3051451"/>
      <trkpt lat="51.5491166" lon="7.3050343"/>
      <trkpt lat="51.5491711" lon="7.3048217"/>
      <trkpt lat="51.5492356" lon="7.3047583"/>
      <trkpt lat="51.5492838" lon="7.3047216"/>
      <trkpt lat="51.5494052" lon="7.3046833"/>
      <trkpt lat="51.5495363" lon="7.3046552"/>
      <trkpt lat="51.5498658" lon="7.3046508"/>
      <trkpt lat="51.5501087" lon="7.3046653"/>
      <trkpt lat="51.5501131" lon="7.3049542"/>
      <trkpt lat="51.5501234" lon="7.3052619"/>
      <trkpt lat="51.5501419" lon="7.3055598"/>
      <trkpt lat="51.5501993" lon="7.3062938"/>
      <trkpt lat="51.5502437" lon="7.3066489"/>
      <trkpt lat="51.5502466" lon="7.3070324"/>
      <trkpt lat="51.5502152" lon="7.3071784"/>
      <trkpt lat="51.5501467" lon="7.3072658"/>
      <trkpt lat="51.5500901" lon="7.3072942"/>
      <trkpt lat="51.5500254" lon="7.3072845"/>
      <trkpt lat="51.5499163" lon="7.3072122"/>
      <trkpt lat="51.5498016" lon="7.3071831"/>
      <trkpt lat="51.5496826" lon="7.3071541"/>
      <trkpt lat="51.5495710" lon="7.3071774"/>
      <trkpt lat="51.5494223" lon="7.3072571"/>
      <trkpt lat="51.5493192" lon="7.3073629"/>
      <trkpt lat="51.5492617" lon="7.3074219"/>
      <trkpt lat="51.5489878" lon="7.3078004"/>
      <trkpt lat="51.5489809" lon="7.3078957"/>
      <trkpt lat="51.5489835" lon="7.3079770"/>
      <trkpt lat="51.5490498" lon="7.3082507"/>
      <trkpt lat="51.5491719" lon="7.3085843"/>
      <trkpt lat="51.5492175" lon="7.3086793"/>
      <trkpt lat="51.5493265" lon="7.3088877"/>
      <trkpt lat="51.5493442" lon="7.3089234"/>
      <trkpt lat="51.5493716" lon="7.3089642"/>
      <trkpt lat="51.5494510" lon="7.3090787"/>
    </trkseg>
  </trk>
</gpx>