<?xml version="1.0" encoding="UTF-8"?>
<gpx version="1.1" creator="Linienjagd Castrop-Rauxel" xmlns="http://www.topografix.com/GPX/1/1">
  <metadata><name>Linie 364 – komplette Linie</name><desc>Bus 364: Sportplatz Papenholz =&gt; Castrop Münsterplatz | 19.53 km | 44 Haltestellen</desc></metadata>
  <wpt lat="51.4593773" lon="7.3043104"><name>01 Sportplatz Papenholz</name><sym>Flag</sym></wpt>
  <wpt lat="51.4620529" lon="7.3077397"><name>02 Urbanusstraße</name><sym>Flag</sym></wpt>
  <wpt lat="51.4643354" lon="7.3069345"><name>03 Kaltehardtstraße</name><sym>Flag</sym></wpt>
  <wpt lat="51.4692850" lon="7.3030455"><name>04 Am Neggenborn</name><sym>Flag</sym></wpt>
  <wpt lat="51.4730088" lon="7.3009263"><name>05 Mansfelder Straße</name><sym>Flag</sym></wpt>
  <wpt lat="51.4782486" lon="7.3023370"><name>06 Bochum-Langendreer West</name><sym>Flag</sym></wpt>
  <wpt lat="51.4789085" lon="7.3019769"><name>07 Langendreer West/Auf den Holln</name><sym>Flag</sym></wpt>
  <wpt lat="51.4824726" lon="7.2980407"><name>08 Von-Waldthausen-Straße</name><sym>Flag</sym></wpt>
  <wpt lat="51.4836137" lon="7.3013101"><name>09 Auf den Scheffeln</name><sym>Flag</sym></wpt>
  <wpt lat="51.4858172" lon="7.3050555"><name>10 Heinrich-Gustav-Straße</name><sym>Flag</sym></wpt>
  <wpt lat="51.4869492" lon="7.3076893"><name>11 Werne Amt</name><sym>Flag</sym></wpt>
  <wpt lat="51.4877772" lon="7.3110897"><name>12 Im Breien</name><sym>Flag</sym></wpt>
  <wpt lat="51.4922080" lon="7.3095060"><name>13 Heroldstraße</name><sym>Flag</sym></wpt>
  <wpt lat="51.4914877" lon="7.3062936"><name>14 Werne Mitte</name><sym>Flag</sym></wpt>
  <wpt lat="51.4913399" lon="7.3017168"><name>15 Werner Straße</name><sym>Flag</sym></wpt>
  <wpt lat="51.4948678" lon="7.2847804"><name>16 Ruhr Park</name><sym>Flag</sym></wpt>
  <wpt lat="51.5003546" lon="7.2880425"><name>17 Alte Werner Straße</name><sym>Flag</sym></wpt>
  <wpt lat="51.5041790" lon="7.2886157"><name>18 Bockholtstraße</name><sym>Flag</sym></wpt>
  <wpt lat="51.5071342" lon="7.2883005"><name>19 Midgardweg</name><sym>Flag</sym></wpt>
  <wpt lat="51.5107279" lon="7.2845763"><name>20 Ecksee</name><sym>Flag</sym></wpt>
  <wpt lat="51.5145262" lon="7.2853776"><name>21 Am Knick</name><sym>Flag</sym></wpt>
  <wpt lat="51.5162154" lon="7.2840300"><name>22 Heuweg</name><sym>Flag</sym></wpt>
  <wpt lat="51.5162576" lon="7.2779565"><name>23 Hegelstraße</name><sym>Flag</sym></wpt>
  <wpt lat="51.5162831" lon="7.2759887"><name>24 Schwerinstraße</name><sym>Flag</sym></wpt>
  <wpt lat="51.5193824" lon="7.2754973"><name>25 Gerthe Mitte</name><sym>Flag</sym></wpt>
  <wpt lat="51.5219060" lon="7.2788198"><name>26 Holthauser Straße</name><sym>Flag</sym></wpt>
  <wpt lat="51.5236518" lon="7.2823532"><name>27 Schürbankstraße</name><sym>Flag</sym></wpt>
  <wpt lat="51.5251158" lon="7.2866278"><name>28 Cöppencastrop</name><sym>Flag</sym></wpt>
  <wpt lat="51.5250227" lon="7.2932149"><name>29 Ostwaldstraße</name><sym>Flag</sym></wpt>
  <wpt lat="51.5245271" lon="7.2978374"><name>30 Gewerkenstraße</name><sym>Flag</sym></wpt>
  <wpt lat="51.5254532" lon="7.3158696"><name>31 Lindenstraße</name><sym>Flag</sym></wpt>
  <wpt lat="51.5272145" lon="7.3219132"><name>32 Merklinde Harkortstraße</name><sym>Flag</sym></wpt>
  <wpt lat="51.5285085" lon="7.3223503"><name>33 Gerther Straße</name><sym>Flag</sym></wpt>
  <wpt lat="51.5310565" lon="7.3210620"><name>34 Strunk</name><sym>Flag</sym></wpt>
  <wpt lat="51.5365169" lon="7.3186462"><name>35 Marienstraße</name><sym>Flag</sym></wpt>
  <wpt lat="51.5374644" lon="7.3154464"><name>36 Im Scheiten</name><sym>Flag</sym></wpt>
  <wpt lat="51.5400987" lon="7.3128847"><name>37 Hedwigstraße</name><sym>Flag</sym></wpt>
  <wpt lat="51.5402138" lon="7.3088567"><name>38 Cottenburgstraße</name><sym>Flag</sym></wpt>
  <wpt lat="51.5421425" lon="7.3081156"><name>39 Stadtgarten</name><sym>Flag</sym></wpt>
  <wpt lat="51.5446632" lon="7.3079747"><name>40 Klothkamp</name><sym>Flag</sym></wpt>
  <wpt lat="51.5448048" lon="7.3142836"><name>41 Beethovenstraße</name><sym>Flag</sym></wpt>
  <wpt lat="51.5466058" lon="7.3144201"><name>42 Katholisches Krankenhaus</name><sym>Flag</sym></wpt>
  <wpt lat="51.5480418" lon="7.3130469"><name>43 Castrop Markt</name><sym>Flag</sym></wpt>
  <wpt lat="51.5497851" lon="7.3092433"><name>44 Castrop Münsterplatz</name><sym>Flag</sym></wpt>
  <trk><name>Linie 364 – komplette Linie</name>
    <trkseg>
      <trkpt lat="51.4593773" lon="7.3043104"/>
      <trkpt lat="51.4593462" lon="7.3043110"/>
      <trkpt lat="51.4592882" lon="7.3043122"/>
      <trkpt lat="51.4592352" lon="7.3043066"/>
      <trkpt lat="51.4592469" lon="7.3045151"/>
      <trkpt lat="51.4592796" lon="7.3046242"/>
      <trkpt lat="51.4593438" lon="7.3047452"/>
      <trkpt lat="51.4596295" lon="7.3052818"/>
      <trkpt lat="51.4598905" lon="7.3057721"/>
      <trkpt lat="51.4599256" lon="7.3058365"/>
      <trkpt lat="51.4603840" lon="7.3066775"/>
      <trkpt lat="51.4604930" lon="7.3068471"/>
      <trkpt lat="51.4605754" lon="7.3069435"/>
      <trkpt lat="51.4607091" lon="7.3070658"/>
      <trkpt lat="51.4607526" lon="7.3071055"/>
      <trkpt lat="51.4608162" lon="7.3071566"/>
      <trkpt lat="51.4609378" lon="7.3072195"/>
      <trkpt lat="51.4609606" lon="7.3072301"/>
      <trkpt lat="51.4610257" lon="7.3072605"/>
      <trkpt lat="51.4611226" lon="7.3073057"/>
      <trkpt lat="51.4615551" lon="7.3075074"/>
      <trkpt lat="51.4620460" lon="7.3077366"/>
      <trkpt lat="51.4620529" lon="7.3077397"/>
      <trkpt lat="51.4624318" lon="7.3079164"/>
      <trkpt lat="51.4625106" lon="7.3079453"/>
      <trkpt lat="51.4626004" lon="7.3079460"/>
      <trkpt lat="51.4626442" lon="7.3079364"/>
      <trkpt lat="51.4626973" lon="7.3079183"/>
      <trkpt lat="51.4628244" lon="7.3078451"/>
      <trkpt lat="51.4629555" lon="7.3077696"/>
      <trkpt lat="51.4631099" lon="7.3076802"/>
      <trkpt lat="51.4633770" lon="7.3075256"/>
      <trkpt lat="51.4634749" lon="7.3074689"/>
      <trkpt lat="51.4635403" lon="7.3074310"/>
      <trkpt lat="51.4638632" lon="7.3072374"/>
      <trkpt lat="51.4640875" lon="7.3070898"/>
      <trkpt lat="51.4641182" lon="7.3070693"/>
      <trkpt lat="51.4641814" lon="7.3070301"/>
      <trkpt lat="51.4643354" lon="7.3069345"/>
      <trkpt lat="51.4643531" lon="7.3069237"/>
      <trkpt lat="51.4643936" lon="7.3068990"/>
      <trkpt lat="51.4644143" lon="7.3068850"/>
      <trkpt lat="51.4647050" lon="7.3067062"/>
      <trkpt lat="51.4647435" lon="7.3066820"/>
      <trkpt lat="51.4648580" lon="7.3066101"/>
      <trkpt lat="51.4650318" lon="7.3064912"/>
      <trkpt lat="51.4651010" lon="7.3064374"/>
      <trkpt lat="51.4651828" lon="7.3063693"/>
      <trkpt lat="51.4654164" lon="7.3061859"/>
      <trkpt lat="51.4657082" lon="7.3059525"/>
      <trkpt lat="51.4659470" lon="7.3057617"/>
      <trkpt lat="51.4660884" lon="7.3056487"/>
      <trkpt lat="51.4663420" lon="7.3054460"/>
      <trkpt lat="51.4665328" lon="7.3052934"/>
      <trkpt lat="51.4665640" lon="7.3052685"/>
      <trkpt lat="51.4668827" lon="7.3050137"/>
      <trkpt lat="51.4673345" lon="7.3046524"/>
      <trkpt lat="51.4674393" lon="7.3045686"/>
      <trkpt lat="51.4675092" lon="7.3045127"/>
      <trkpt lat="51.4676641" lon="7.3043889"/>
      <trkpt lat="51.4677832" lon="7.3042937"/>
      <trkpt lat="51.4678210" lon="7.3042635"/>
      <trkpt lat="51.4679752" lon="7.3041402"/>
      <trkpt lat="51.4680144" lon="7.3041089"/>
      <trkpt lat="51.4680465" lon="7.3040833"/>
      <trkpt lat="51.4681290" lon="7.3040174"/>
      <trkpt lat="51.4682640" lon="7.3039094"/>
      <trkpt lat="51.4683055" lon="7.3038762"/>
      <trkpt lat="51.4685499" lon="7.3036807"/>
      <trkpt lat="51.4685837" lon="7.3036560"/>
      <trkpt lat="51.4686403" lon="7.3036061"/>
      <trkpt lat="51.4686960" lon="7.3035569"/>
      <trkpt lat="51.4687691" lon="7.3034924"/>
      <trkpt lat="51.4687982" lon="7.3034668"/>
      <trkpt lat="51.4689391" lon="7.3033471"/>
      <trkpt lat="51.4690223" lon="7.3032764"/>
      <trkpt lat="51.4691386" lon="7.3031766"/>
      <trkpt lat="51.4691812" lon="7.3031413"/>
      <trkpt lat="51.4692850" lon="7.3030455"/>
      <trkpt lat="51.4693574" lon="7.3029825"/>
      <trkpt lat="51.4694044" lon="7.3029417"/>
      <trkpt lat="51.4696696" lon="7.3027110"/>
      <trkpt lat="51.4700407" lon="7.3023883"/>
      <trkpt lat="51.4702532" lon="7.3022010"/>
      <trkpt lat="51.4703265" lon="7.3021365"/>
      <trkpt lat="51.4704024" lon="7.3020717"/>
      <trkpt lat="51.4704339" lon="7.3020434"/>
      <trkpt lat="51.4705080" lon="7.3019848"/>
      <trkpt lat="51.4705785" lon="7.3019408"/>
      <trkpt lat="51.4708559" lon="7.3018191"/>
      <trkpt lat="51.4717867" lon="7.3014339"/>
      <trkpt lat="51.4719518" lon="7.3013675"/>
      <trkpt lat="51.4721038" lon="7.3013039"/>
      <trkpt lat="51.4724558" lon="7.3011549"/>
      <trkpt lat="51.4727980" lon="7.3010155"/>
      <trkpt lat="51.4729761" lon="7.3009399"/>
      <trkpt lat="51.4730088" lon="7.3009263"/>
      <trkpt lat="51.4730489" lon="7.3009096"/>
      <trkpt lat="51.4730934" lon="7.3008909"/>
      <trkpt lat="51.4731737" lon="7.3008575"/>
      <trkpt lat="51.4733229" lon="7.3007948"/>
      <trkpt lat="51.4734767" lon="7.3006935"/>
      <trkpt lat="51.4736881" lon="7.3005611"/>
      <trkpt lat="51.4742912" lon="7.3001834"/>
      <trkpt lat="51.4745058" lon="7.3000490"/>
      <trkpt lat="51.4746563" lon="7.2999548"/>
      <trkpt lat="51.4746841" lon="7.2999297"/>
      <trkpt lat="51.4747042" lon="7.2999018"/>
      <trkpt lat="51.4747213" lon="7.2998659"/>
      <trkpt lat="51.4747273" lon="7.2998516"/>
      <trkpt lat="51.4747393" lon="7.2998098"/>
      <trkpt lat="51.4751389" lon="7.3000809"/>
      <trkpt lat="51.4752850" lon="7.3001801"/>
      <trkpt lat="51.4757540" lon="7.3004983"/>
      <trkpt lat="51.4761457" lon="7.3007640"/>
      <trkpt lat="51.4761944" lon="7.3007970"/>
      <trkpt lat="51.4764793" lon="7.3009901"/>
      <trkpt lat="51.4766505" lon="7.3011066"/>
      <trkpt lat="51.4768385" lon="7.3012306"/>
      <trkpt lat="51.4769845" lon="7.3013332"/>
      <trkpt lat="51.4772753" lon="7.3015305"/>
      <trkpt lat="51.4773373" lon="7.3015726"/>
      <trkpt lat="51.4775207" lon="7.3016970"/>
      <trkpt lat="51.4776315" lon="7.3017736"/>
      <trkpt lat="51.4777515" lon="7.3018602"/>
      <trkpt lat="51.4778787" lon="7.3019563"/>
      <trkpt lat="51.4779582" lon="7.3020241"/>
      <trkpt lat="51.4780127" lon="7.3020740"/>
      <trkpt lat="51.4780737" lon="7.3021342"/>
      <trkpt lat="51.4780982" lon="7.3021610"/>
      <trkpt lat="51.4782486" lon="7.3023370"/>
      <trkpt lat="51.4782616" lon="7.3023531"/>
      <trkpt lat="51.4783292" lon="7.3024368"/>
      <trkpt lat="51.4783488" lon="7.3024620"/>
      <trkpt lat="51.4786692" lon="7.3028741"/>
      <trkpt lat="51.4787078" lon="7.3028931"/>
      <trkpt lat="51.4787376" lon="7.3028961"/>
      <trkpt lat="51.4787728" lon="7.3028954"/>
      <trkpt lat="51.4787827" lon="7.3026825"/>
      <trkpt lat="51.4788203" lon="7.3024620"/>
      <trkpt lat="51.4788745" lon="7.3021641"/>
      <trkpt lat="51.4789085" lon="7.3019769"/>
      <trkpt lat="51.4790341" lon="7.3012822"/>
      <trkpt lat="51.4791000" lon="7.3011432"/>
      <trkpt lat="51.4791279" lon="7.3011016"/>
      <trkpt lat="51.4791976" lon="7.3010345"/>
      <trkpt lat="51.4795350" lon="7.3007505"/>
      <trkpt lat="51.4811657" lon="7.2993780"/>
      <trkpt lat="51.4813531" lon="7.2992202"/>
      <trkpt lat="51.4814202" lon="7.2991609"/>
      <trkpt lat="51.4814654" lon="7.2991194"/>
      <trkpt lat="51.4815212" lon="7.2990644"/>
      <trkpt lat="51.4822979" lon="7.2982287"/>
      <trkpt lat="51.4823644" lon="7.2981571"/>
      <trkpt lat="51.4824726" lon="7.2980407"/>
      <trkpt lat="51.4824909" lon="7.2980210"/>
      <trkpt lat="51.4825176" lon="7.2979821"/>
      <trkpt lat="51.4825410" lon="7.2979365"/>
      <trkpt lat="51.4825535" lon="7.2978775"/>
      <trkpt lat="51.4825737" lon="7.2977576"/>
      <trkpt lat="51.4826421" lon="7.2977908"/>
      <trkpt lat="51.4827389" lon="7.2978365"/>
      <trkpt lat="51.4827848" lon="7.2978836"/>
      <trkpt lat="51.4828427" lon="7.2979278"/>
      <trkpt lat="51.4829938" lon="7.2980411"/>
      <trkpt lat="51.4830692" lon="7.2981108"/>
      <trkpt lat="51.4830250" lon="7.2982764"/>
      <trkpt lat="51.4828294" lon="7.2988955"/>
      <trkpt lat="51.4828218" lon="7.2989607"/>
      <trkpt lat="51.4828359" lon="7.2990233"/>
      <trkpt lat="51.4829876" lon="7.2994833"/>
      <trkpt lat="51.4829957" lon="7.2995081"/>
      <trkpt lat="51.4831269" lon="7.2999067"/>
      <trkpt lat="51.4834434" lon="7.3008125"/>
      <trkpt lat="51.4835234" lon="7.3010467"/>
      <trkpt lat="51.4835788" lon="7.3012090"/>
      <trkpt lat="51.4835892" lon="7.3012395"/>
      <trkpt lat="51.4836137" lon="7.3013101"/>
      <trkpt lat="51.4836518" lon="7.3014201"/>
      <trkpt lat="51.4836932" lon="7.3015417"/>
      <trkpt lat="51.4837932" lon="7.3018356"/>
      <trkpt lat="51.4839824" lon="7.3023908"/>
      <trkpt lat="51.4841571" lon="7.3029045"/>
      <trkpt lat="51.4843073" lon="7.3031833"/>
      <trkpt lat="51.4844842" lon="7.3034337"/>
      <trkpt lat="51.4846288" lon="7.3035927"/>
      <trkpt lat="51.4847811" lon="7.3037500"/>
      <trkpt lat="51.4849984" lon="7.3039295"/>
      <trkpt lat="51.4851926" lon="7.3040899"/>
      <trkpt lat="51.4853324" lon="7.3042603"/>
      <trkpt lat="51.4853983" lon="7.3043387"/>
      <trkpt lat="51.4854306" lon="7.3043769"/>
      <trkpt lat="51.4854869" lon="7.3044438"/>
      <trkpt lat="51.4855325" lon="7.3044978"/>
      <trkpt lat="51.4856351" lon="7.3046813"/>
      <trkpt lat="51.4856961" lon="7.3048119"/>
      <trkpt lat="51.4858098" lon="7.3050296"/>
      <trkpt lat="51.4858172" lon="7.3050555"/>
      <trkpt lat="51.4858246" lon="7.3050816"/>
      <trkpt lat="51.4859867" lon="7.3056512"/>
      <trkpt lat="51.4860814" lon="7.3059481"/>
      <trkpt lat="51.4861947" lon="7.3061971"/>
      <trkpt lat="51.4864724" lon="7.3066956"/>
      <trkpt lat="51.4865133" lon="7.3067718"/>
      <trkpt lat="51.4865505" lon="7.3068714"/>
      <trkpt lat="51.4865632" lon="7.3069145"/>
      <trkpt lat="51.4865820" lon="7.3069849"/>
      <trkpt lat="51.4865915" lon="7.3070983"/>
      <trkpt lat="51.4865906" lon="7.3071796"/>
      <trkpt lat="51.4865772" lon="7.3072669"/>
      <trkpt lat="51.4866595" lon="7.3073871"/>
      <trkpt lat="51.4867376" lon="7.3074540"/>
      <trkpt lat="51.4867827" lon="7.3075127"/>
      <trkpt lat="51.4868722" lon="7.3076088"/>
      <trkpt lat="51.4869492" lon="7.3076893"/>
      <trkpt lat="51.4869896" lon="7.3077315"/>
      <trkpt lat="51.4870574" lon="7.3077774"/>
      <trkpt lat="51.4871411" lon="7.3077901"/>
      <trkpt lat="51.4871445" lon="7.3078390"/>
      <trkpt lat="51.4871500" lon="7.3079403"/>
      <trkpt lat="51.4871624" lon="7.3080174"/>
      <trkpt lat="51.4872097" lon="7.3081284"/>
      <trkpt lat="51.4872845" lon="7.3082662"/>
      <trkpt lat="51.4873067" lon="7.3083155"/>
      <trkpt lat="51.4873677" lon="7.3084555"/>
      <trkpt lat="51.4874454" lon="7.3086378"/>
      <trkpt lat="51.4874820" lon="7.3087451"/>
      <trkpt lat="51.4875219" lon="7.3088700"/>
      <trkpt lat="51.4875549" lon="7.3089883"/>
      <trkpt lat="51.4875958" lon="7.3091574"/>
      <trkpt lat="51.4876258" lon="7.3093049"/>
      <trkpt lat="51.4876449" lon="7.3094922"/>
      <trkpt lat="51.4876662" lon="7.3097635"/>
      <trkpt lat="51.4876999" lon="7.3101610"/>
      <trkpt lat="51.4877045" lon="7.3102188"/>
      <trkpt lat="51.4877078" lon="7.3102589"/>
      <trkpt lat="51.4877317" lon="7.3105390"/>
      <trkpt lat="51.4877566" lon="7.3108395"/>
      <trkpt lat="51.4877772" lon="7.3110897"/>
      <trkpt lat="51.4878118" lon="7.3114791"/>
      <trkpt lat="51.4878256" lon="7.3116285"/>
      <trkpt lat="51.4878311" lon="7.3116920"/>
      <trkpt lat="51.4878723" lon="7.3121696"/>
      <trkpt lat="51.4882064" lon="7.3118831"/>
      <trkpt lat="51.4885254" lon="7.3116279"/>
      <trkpt lat="51.4889557" lon="7.3111900"/>
      <trkpt lat="51.4897654" lon="7.3103419"/>
      <trkpt lat="51.4900783" lon="7.3100413"/>
      <trkpt lat="51.4901381" lon="7.3099763"/>
      <trkpt lat="51.4901964" lon="7.3098793"/>
      <trkpt lat="51.4902221" lon="7.3097946"/>
      <trkpt lat="51.4902500" lon="7.3096745"/>
      <trkpt lat="51.4903931" lon="7.3097525"/>
      <trkpt lat="51.4905098" lon="7.3098161"/>
      <trkpt lat="51.4907118" lon="7.3099292"/>
      <trkpt lat="51.4908905" lon="7.3100234"/>
      <trkpt lat="51.4910628" lon="7.3101179"/>
      <trkpt lat="51.4912412" lon="7.3102145"/>
      <trkpt lat="51.4915034" lon="7.3103574"/>
      <trkpt lat="51.4916910" lon="7.3104563"/>
      <trkpt lat="51.4922417" lon="7.3107463"/>
      <trkpt lat="51.4923889" lon="7.3108239"/>
      <trkpt lat="51.4924492" lon="7.3108836"/>
      <trkpt lat="51.4924889" lon="7.3108971"/>
      <trkpt lat="51.4925332" lon="7.3108948"/>
      <trkpt lat="51.4925559" lon="7.3108829"/>
      <trkpt lat="51.4925915" lon="7.3108637"/>
      <trkpt lat="51.4925558" lon="7.3107188"/>
      <trkpt lat="51.4925057" lon="7.3105442"/>
      <trkpt lat="51.4924782" lon="7.3104480"/>
      <trkpt lat="51.4923630" lon="7.3100465"/>
      <trkpt lat="51.4923071" lon="7.3098513"/>
      <trkpt lat="51.4922080" lon="7.3095060"/>
      <trkpt lat="51.4921898" lon="7.3094424"/>
      <trkpt lat="51.4920734" lon="7.3090365"/>
      <trkpt lat="51.4920519" lon="7.3089615"/>
      <trkpt lat="51.4920128" lon="7.3088223"/>
      <trkpt lat="51.4919674" lon="7.3086325"/>
      <trkpt lat="51.4917874" lon="7.3078802"/>
      <trkpt lat="51.4917647" lon="7.3077668"/>
      <trkpt lat="51.4915641" lon="7.3067948"/>
      <trkpt lat="51.4915323" lon="7.3066385"/>
      <trkpt lat="51.4915056" lon="7.3065034"/>
      <trkpt lat="51.4914877" lon="7.3062936"/>
      <trkpt lat="51.4914710" lon="7.3062076"/>
      <trkpt lat="51.4914588" lon="7.3061284"/>
      <trkpt lat="51.4914504" lon="7.3060397"/>
      <trkpt lat="51.4914464" lon="7.3059874"/>
      <trkpt lat="51.4914209" lon="7.3059135"/>
      <trkpt lat="51.4913919" lon="7.3054427"/>
      <trkpt lat="51.4913656" lon="7.3049669"/>
      <trkpt lat="51.4913519" lon="7.3047952"/>
      <trkpt lat="51.4913341" lon="7.3046448"/>
      <trkpt lat="51.4913018" lon="7.3044585"/>
      <trkpt lat="51.4912909" lon="7.3044050"/>
      <trkpt lat="51.4912487" lon="7.3042365"/>
      <trkpt lat="51.4911888" lon="7.3040217"/>
      <trkpt lat="51.4911807" lon="7.3039914"/>
      <trkpt lat="51.4910964" lon="7.3036817"/>
      <trkpt lat="51.4910651" lon="7.3035669"/>
      <trkpt lat="51.4909860" lon="7.3032831"/>
      <trkpt lat="51.4909892" lon="7.3032164"/>
      <trkpt lat="51.4909640" lon="7.3031331"/>
      <trkpt lat="51.4908814" lon="7.3028854"/>
      <trkpt lat="51.4908710" lon="7.3028472"/>
      <trkpt lat="51.4908556" lon="7.3024687"/>
      <trkpt lat="51.4909000" lon="7.3022470"/>
      <trkpt lat="51.4909635" lon="7.3020812"/>
      <trkpt lat="51.4909881" lon="7.3020170"/>
      <trkpt lat="51.4913399" lon="7.3017168"/>
      <trkpt lat="51.4914502" lon="7.3016227"/>
      <trkpt lat="51.4915759" lon="7.3014903"/>
      <trkpt lat="51.4917330" lon="7.3012885"/>
      <trkpt lat="51.4918889" lon="7.3010699"/>
      <trkpt lat="51.4920372" lon="7.3008209"/>
      <trkpt lat="51.4921911" lon="7.3005371"/>
      <trkpt lat="51.4923120" lon="7.3002416"/>
      <trkpt lat="51.4924304" lon="7.2999057"/>
      <trkpt lat="51.4924891" lon="7.2997281"/>
      <trkpt lat="51.4925191" lon="7.2996018"/>
      <trkpt lat="51.4925493" lon="7.2994793"/>
      <trkpt lat="51.4926054" lon="7.2992261"/>
      <trkpt lat="51.4926682" lon="7.2988777"/>
      <trkpt lat="51.4927087" lon="7.2984989"/>
      <trkpt lat="51.4927337" lon="7.2980911"/>
      <trkpt lat="51.4927477" lon="7.2976826"/>
      <trkpt lat="51.4927403" lon="7.2972075"/>
      <trkpt lat="51.4927250" lon="7.2967295"/>
      <trkpt lat="51.4926782" lon="7.2959015"/>
      <trkpt lat="51.4926651" lon="7.2955357"/>
      <trkpt lat="51.4926570" lon="7.2951711"/>
      <trkpt lat="51.4926627" lon="7.2946634"/>
      <trkpt lat="51.4926672" lon="7.2945038"/>
      <trkpt lat="51.4926947" lon="7.2940439"/>
      <trkpt lat="51.4927134" lon="7.2938180"/>
      <trkpt lat="51.4927439" lon="7.2935587"/>
      <trkpt lat="51.4927659" lon="7.2934006"/>
      <trkpt lat="51.4927709" lon="7.2933711"/>
      <trkpt lat="51.4928291" lon="7.2930299"/>
      <trkpt lat="51.4928922" lon="7.2927387"/>
      <trkpt lat="51.4929649" lon="7.2924359"/>
      <trkpt lat="51.4930831" lon="7.2920554"/>
      <trkpt lat="51.4931627" lon="7.2918406"/>
      <trkpt lat="51.4932424" lon="7.2916351"/>
      <trkpt lat="51.4933906" lon="7.2913299"/>
      <trkpt lat="51.4934648" lon="7.2911952"/>
      <trkpt lat="51.4935265" lon="7.2910832"/>
      <trkpt lat="51.4936799" lon="7.2908391"/>
      <trkpt lat="51.4938255" lon="7.2906413"/>
      <trkpt lat="51.4939838" lon="7.2904417"/>
      <trkpt lat="51.4941271" lon="7.2902933"/>
      <trkpt lat="51.4942739" lon="7.2901634"/>
      <trkpt lat="51.4945754" lon="7.2899379"/>
      <trkpt lat="51.4946908" lon="7.2898618"/>
      <trkpt lat="51.4947382" lon="7.2896447"/>
      <trkpt lat="51.4946854" lon="7.2894646"/>
      <trkpt lat="51.4946346" lon="7.2893167"/>
      <trkpt lat="51.4946001" lon="7.2892089"/>
      <trkpt lat="51.4945594" lon="7.2890855"/>
      <trkpt lat="51.4944774" lon="7.2887849"/>
      <trkpt lat="51.4944131" lon="7.2885370"/>
      <trkpt lat="51.4943727" lon="7.2883673"/>
      <trkpt lat="51.4943132" lon="7.2880478"/>
      <trkpt lat="51.4942892" lon="7.2878996"/>
      <trkpt lat="51.4942713" lon="7.2877462"/>
      <trkpt lat="51.4942560" lon="7.2875589"/>
      <trkpt lat="51.4942453" lon="7.2873668"/>
      <trkpt lat="51.4942558" lon="7.2872324"/>
      <trkpt lat="51.4942537" lon="7.2871582"/>
      <trkpt lat="51.4942552" lon="7.2869909"/>
      <trkpt lat="51.4942578" lon="7.2868358"/>
      <trkpt lat="51.4942669" lon="7.2866388"/>
      <trkpt lat="51.4942774" lon="7.2865022"/>
      <trkpt lat="51.4942912" lon="7.2863154"/>
      <trkpt lat="51.4943183" lon="7.2861169"/>
      <trkpt lat="51.4943588" lon="7.2858966"/>
      <trkpt lat="51.4945023" lon="7.2852966"/>
      <trkpt lat="51.4945328" lon="7.2851965"/>
      <trkpt lat="51.4945740" lon="7.2850841"/>
      <trkpt lat="51.4945984" lon="7.2850441"/>
      <trkpt lat="51.4946311" lon="7.2850187"/>
      <trkpt lat="51.4946707" lon="7.2849990"/>
      <trkpt lat="51.4947160" lon="7.2850005"/>
      <trkpt lat="51.4947520" lon="7.2850141"/>
      <trkpt lat="51.4950669" lon="7.2852342"/>
      <trkpt lat="51.4950915" lon="7.2852161"/>
      <trkpt lat="51.4951043" lon="7.2851966"/>
      <trkpt lat="51.4951257" lon="7.2851304"/>
      <trkpt lat="51.4951454" lon="7.2850558"/>
      <trkpt lat="51.4952601" lon="7.2846201"/>
      <trkpt lat="51.4952781" lon="7.2845519"/>
      <trkpt lat="51.4952816" lon="7.2844843"/>
      <trkpt lat="51.4952488" lon="7.2844441"/>
      <trkpt lat="51.4951238" lon="7.2843536"/>
      <trkpt lat="51.4950877" lon="7.2843490"/>
      <trkpt lat="51.4950475" lon="7.2843782"/>
      <trkpt lat="51.4949991" lon="7.2845075"/>
      <trkpt lat="51.4949792" lon="7.2845479"/>
      <trkpt lat="51.4949661" lon="7.2845746"/>
      <trkpt lat="51.4948678" lon="7.2847804"/>
      <trkpt lat="51.4948207" lon="7.2848701"/>
      <trkpt lat="51.4947339" lon="7.2848874"/>
      <trkpt lat="51.4946972" lon="7.2849237"/>
      <trkpt lat="51.4946467" lon="7.2849298"/>
      <trkpt lat="51.4946041" lon="7.2849453"/>
      <trkpt lat="51.4945724" lon="7.2849699"/>
      <trkpt lat="51.4945310" lon="7.2850393"/>
      <trkpt lat="51.4944823" lon="7.2852151"/>
      <trkpt lat="51.4943928" lon="7.2855757"/>
      <trkpt lat="51.4943015" lon="7.2858213"/>
      <trkpt lat="51.4942533" lon="7.2860481"/>
      <trkpt lat="51.4942250" lon="7.2862466"/>
      <trkpt lat="51.4941974" lon="7.2864725"/>
      <trkpt lat="51.4941762" lon="7.2868337"/>
      <trkpt lat="51.4941721" lon="7.2869894"/>
      <trkpt lat="51.4941751" lon="7.2872826"/>
      <trkpt lat="51.4941736" lon="7.2874009"/>
      <trkpt lat="51.4941789" lon="7.2874998"/>
      <trkpt lat="51.4941932" lon="7.2877047"/>
      <trkpt lat="51.4942224" lon="7.2879584"/>
      <trkpt lat="51.4942679" lon="7.2882205"/>
      <trkpt lat="51.4942719" lon="7.2882595"/>
      <trkpt lat="51.4943421" lon="7.2885788"/>
      <trkpt lat="51.4943800" lon="7.2887286"/>
      <trkpt lat="51.4944164" lon="7.2888738"/>
      <trkpt lat="51.4944678" lon="7.2890590"/>
      <trkpt lat="51.4946010" lon="7.2895315"/>
      <trkpt lat="51.4946546" lon="7.2896981"/>
      <trkpt lat="51.4946908" lon="7.2898618"/>
      <trkpt lat="51.4949064" lon="7.2897374"/>
      <trkpt lat="51.4950852" lon="7.2896492"/>
      <trkpt lat="51.4954599" lon="7.2895119"/>
      <trkpt lat="51.4957363" lon="7.2894537"/>
      <trkpt lat="51.4958861" lon="7.2894283"/>
      <trkpt lat="51.4962509" lon="7.2893943"/>
      <trkpt lat="51.4964828" lon="7.2893906"/>
      <trkpt lat="51.4966108" lon="7.2893885"/>
      <trkpt lat="51.4969511" lon="7.2893806"/>
      <trkpt lat="51.4970897" lon="7.2893782"/>
      <trkpt lat="51.4972245" lon="7.2893707"/>
      <trkpt lat="51.4972943" lon="7.2893573"/>
      <trkpt lat="51.4973816" lon="7.2893548"/>
      <trkpt lat="51.4976436" lon="7.2893704"/>
      <trkpt lat="51.4977752" lon="7.2893739"/>
      <trkpt lat="51.4978772" lon="7.2893805"/>
      <trkpt lat="51.4982107" lon="7.2893853"/>
      <trkpt lat="51.4982544" lon="7.2893252"/>
      <trkpt lat="51.4982810" lon="7.2893088"/>
      <trkpt lat="51.4983085" lon="7.2892709"/>
      <trkpt lat="51.4983233" lon="7.2891794"/>
      <trkpt lat="51.4983285" lon="7.2890548"/>
      <trkpt lat="51.4983302" lon="7.2890129"/>
      <trkpt lat="51.4983503" lon="7.2885268"/>
      <trkpt lat="51.4983779" lon="7.2880663"/>
      <trkpt lat="51.4984898" lon="7.2880948"/>
      <trkpt lat="51.4989639" lon="7.2882772"/>
      <trkpt lat="51.4992714" lon="7.2883130"/>
      <trkpt lat="51.4995998" lon="7.2882894"/>
      <trkpt lat="51.4997965" lon="7.2882461"/>
      <trkpt lat="51.4999182" lon="7.2882010"/>
      <trkpt lat="51.5001569" lon="7.2881130"/>
      <trkpt lat="51.5002579" lon="7.2880766"/>
      <trkpt lat="51.5003315" lon="7.2880501"/>
      <trkpt lat="51.5003546" lon="7.2880425"/>
      <trkpt lat="51.5004180" lon="7.2880217"/>
      <trkpt lat="51.5006461" lon="7.2879295"/>
      <trkpt lat="51.5006616" lon="7.2879266"/>
      <trkpt lat="51.5007072" lon="7.2879190"/>
      <trkpt lat="51.5007279" lon="7.2883209"/>
      <trkpt lat="51.5007339" lon="7.2884985"/>
      <trkpt lat="51.5008169" lon="7.2884947"/>
      <trkpt lat="51.5009205" lon="7.2884748"/>
      <trkpt lat="51.5010443" lon="7.2884509"/>
      <trkpt lat="51.5011848" lon="7.2884238"/>
      <trkpt lat="51.5012929" lon="7.2884030"/>
      <trkpt lat="51.5013154" lon="7.2883987"/>
      <trkpt lat="51.5016217" lon="7.2883397"/>
      <trkpt lat="51.5020135" lon="7.2882642"/>
      <trkpt lat="51.5021872" lon="7.2882307"/>
      <trkpt lat="51.5024607" lon="7.2881780"/>
      <trkpt lat="51.5029111" lon="7.2880913"/>
      <trkpt lat="51.5032214" lon="7.2880316"/>
      <trkpt lat="51.5037422" lon="7.2879313"/>
      <trkpt lat="51.5039680" lon="7.2878825"/>
      <trkpt lat="51.5041573" lon="7.2885392"/>
      <trkpt lat="51.5041790" lon="7.2886157"/>
      <trkpt lat="51.5043200" lon="7.2890416"/>
      <trkpt lat="51.5043617" lon="7.2891186"/>
      <trkpt lat="51.5044278" lon="7.2891929"/>
      <trkpt lat="51.5045787" lon="7.2892019"/>
      <trkpt lat="51.5047227" lon="7.2891930"/>
      <trkpt lat="51.5049977" lon="7.2891608"/>
      <trkpt lat="51.5053448" lon="7.2891176"/>
      <trkpt lat="51.5056789" lon="7.2890787"/>
      <trkpt lat="51.5058290" lon="7.2890559"/>
      <trkpt lat="51.5059543" lon="7.2890306"/>
      <trkpt lat="51.5060975" lon="7.2889879"/>
      <trkpt lat="51.5061923" lon="7.2889330"/>
      <trkpt lat="51.5063398" lon="7.2888297"/>
      <trkpt lat="51.5063724" lon="7.2888111"/>
      <trkpt lat="51.5066397" lon="7.2886740"/>
      <trkpt lat="51.5068325" lon="7.2886052"/>
      <trkpt lat="51.5069600" lon="7.2885159"/>
      <trkpt lat="51.5070720" lon="7.2883710"/>
      <trkpt lat="51.5071342" lon="7.2883005"/>
      <trkpt lat="51.5072041" lon="7.2882120"/>
      <trkpt lat="51.5072171" lon="7.2881936"/>
      <trkpt lat="51.5072685" lon="7.2881207"/>
      <trkpt lat="51.5073679" lon="7.2879796"/>
      <trkpt lat="51.5075327" lon="7.2877393"/>
      <trkpt lat="51.5076146" lon="7.2876120"/>
      <trkpt lat="51.5076466" lon="7.2875436"/>
      <trkpt lat="51.5077121" lon="7.2873742"/>
      <trkpt lat="51.5078802" lon="7.2869587"/>
      <trkpt lat="51.5079136" lon="7.2868999"/>
      <trkpt lat="51.5079882" lon="7.2868288"/>
      <trkpt lat="51.5081421" lon="7.2867427"/>
      <trkpt lat="51.5082971" lon="7.2866617"/>
      <trkpt lat="51.5084113" lon="7.2865984"/>
      <trkpt lat="51.5084542" lon="7.2865731"/>
      <trkpt lat="51.5086795" lon="7.2864411"/>
      <trkpt lat="51.5087951" lon="7.2863954"/>
      <trkpt lat="51.5088950" lon="7.2864025"/>
      <trkpt lat="51.5089564" lon="7.2864172"/>
      <trkpt lat="51.5090205" lon="7.2864325"/>
      <trkpt lat="51.5092485" lon="7.2865014"/>
      <trkpt lat="51.5093601" lon="7.2865110"/>
      <trkpt lat="51.5094276" lon="7.2864562"/>
      <trkpt lat="51.5094776" lon="7.2863479"/>
      <trkpt lat="51.5094993" lon="7.2862318"/>
      <trkpt lat="51.5095097" lon="7.2861762"/>
      <trkpt lat="51.5096134" lon="7.2856093"/>
      <trkpt lat="51.5097223" lon="7.2849849"/>
      <trkpt lat="51.5097918" lon="7.2845757"/>
      <trkpt lat="51.5098093" lon="7.2845006"/>
      <trkpt lat="51.5098235" lon="7.2844586"/>
      <trkpt lat="51.5098612" lon="7.2843468"/>
      <trkpt lat="51.5099761" lon="7.2844237"/>
      <trkpt lat="51.5100050" lon="7.2844347"/>
      <trkpt lat="51.5100931" lon="7.2844614"/>
      <trkpt lat="51.5102511" lon="7.2844966"/>
      <trkpt lat="51.5104233" lon="7.2845272"/>
      <trkpt lat="51.5105752" lon="7.2845496"/>
      <trkpt lat="51.5106001" lon="7.2845556"/>
      <trkpt lat="51.5107279" lon="7.2845763"/>
      <trkpt lat="51.5107792" lon="7.2845877"/>
      <trkpt lat="51.5109874" lon="7.2846279"/>
      <trkpt lat="51.5116828" lon="7.2847621"/>
      <trkpt lat="51.5120259" lon="7.2848342"/>
      <trkpt lat="51.5123783" lon="7.2849120"/>
      <trkpt lat="51.5125243" lon="7.2849442"/>
      <trkpt lat="51.5126101" lon="7.2849631"/>
      <trkpt lat="51.5130179" lon="7.2850497"/>
      <trkpt lat="51.5131537" lon="7.2850785"/>
      <trkpt lat="51.5134317" lon="7.2851376"/>
      <trkpt lat="51.5135879" lon="7.2851708"/>
      <trkpt lat="51.5137598" lon="7.2852072"/>
      <trkpt lat="51.5142916" lon="7.2853286"/>
      <trkpt lat="51.5145262" lon="7.2853776"/>
      <trkpt lat="51.5145691" lon="7.2853869"/>
      <trkpt lat="51.5146193" lon="7.2853971"/>
      <trkpt lat="51.5147084" lon="7.2854158"/>
      <trkpt lat="51.5151075" lon="7.2854994"/>
      <trkpt lat="51.5159112" lon="7.2856678"/>
      <trkpt lat="51.5160555" lon="7.2856980"/>
      <trkpt lat="51.5161947" lon="7.2857272"/>
      <trkpt lat="51.5162008" lon="7.2855987"/>
      <trkpt lat="51.5162023" lon="7.2855464"/>
      <trkpt lat="51.5162154" lon="7.2840300"/>
      <trkpt lat="51.5162170" lon="7.2838512"/>
      <trkpt lat="51.5162180" lon="7.2837087"/>
      <trkpt lat="51.5162192" lon="7.2836018"/>
      <trkpt lat="51.5162219" lon="7.2832868"/>
      <trkpt lat="51.5162252" lon="7.2829082"/>
      <trkpt lat="51.5162262" lon="7.2827939"/>
      <trkpt lat="51.5162272" lon="7.2826782"/>
      <trkpt lat="51.5162301" lon="7.2823394"/>
      <trkpt lat="51.5162337" lon="7.2819178"/>
      <trkpt lat="51.5162370" lon="7.2815418"/>
      <trkpt lat="51.5162416" lon="7.2810091"/>
      <trkpt lat="51.5162472" lon="7.2803630"/>
      <trkpt lat="51.5162500" lon="7.2800448"/>
      <trkpt lat="51.5162523" lon="7.2797774"/>
      <trkpt lat="51.5162599" lon="7.2788943"/>
      <trkpt lat="51.5162623" lon="7.2786113"/>
      <trkpt lat="51.5162619" lon="7.2785314"/>
      <trkpt lat="51.5162534" lon="7.2784287"/>
      <trkpt lat="51.5162550" lon="7.2783819"/>
      <trkpt lat="51.5162558" lon="7.2782459"/>
      <trkpt lat="51.5162576" lon="7.2779565"/>
      <trkpt lat="51.5162579" lon="7.2778999"/>
      <trkpt lat="51.5162612" lon="7.2777214"/>
      <trkpt lat="51.5162633" lon="7.2776052"/>
      <trkpt lat="51.5162712" lon="7.2771374"/>
      <trkpt lat="51.5162782" lon="7.2767874"/>
      <trkpt lat="51.5162782" lon="7.2767829"/>
      <trkpt lat="51.5162786" lon="7.2767078"/>
      <trkpt lat="51.5162790" lon="7.2766514"/>
      <trkpt lat="51.5162793" lon="7.2765891"/>
      <trkpt lat="51.5162796" lon="7.2765373"/>
      <trkpt lat="51.5162799" lon="7.2764896"/>
      <trkpt lat="51.5162799" lon="7.2764734"/>
      <trkpt lat="51.5162812" lon="7.2762477"/>
      <trkpt lat="51.5162831" lon="7.2759887"/>
      <trkpt lat="51.5162833" lon="7.2755630"/>
      <trkpt lat="51.5182552" lon="7.2754872"/>
      <trkpt lat="51.5183381" lon="7.2754840"/>
      <trkpt lat="51.5184319" lon="7.2754813"/>
      <trkpt lat="51.5186278" lon="7.2754758"/>
      <trkpt lat="51.5187006" lon="7.2754737"/>
      <trkpt lat="51.5187429" lon="7.2754664"/>
      <trkpt lat="51.5187671" lon="7.2754441"/>
      <trkpt lat="51.5188016" lon="7.2753856"/>
      <trkpt lat="51.5188805" lon="7.2752333"/>
      <trkpt lat="51.5189014" lon="7.2751918"/>
      <trkpt lat="51.5189441" lon="7.2751085"/>
      <trkpt lat="51.5189533" lon="7.2750925"/>
      <trkpt lat="51.5190396" lon="7.2751785"/>
      <trkpt lat="51.5190648" lon="7.2752015"/>
      <trkpt lat="51.5191274" lon="7.2752585"/>
      <trkpt lat="51.5191631" lon="7.2752950"/>
      <trkpt lat="51.5192919" lon="7.2754137"/>
      <trkpt lat="51.5193824" lon="7.2754973"/>
      <trkpt lat="51.5195636" lon="7.2756540"/>
      <trkpt lat="51.5196652" lon="7.2757460"/>
      <trkpt lat="51.5197109" lon="7.2757874"/>
      <trkpt lat="51.5198043" lon="7.2758755"/>
      <trkpt lat="51.5199254" lon="7.2759854"/>
      <trkpt lat="51.5199954" lon="7.2760531"/>
      <trkpt lat="51.5200322" lon="7.2760922"/>
      <trkpt lat="51.5200469" lon="7.2761103"/>
      <trkpt lat="51.5200508" lon="7.2761151"/>
      <trkpt lat="51.5200544" lon="7.2761196"/>
      <trkpt lat="51.5200843" lon="7.2761637"/>
      <trkpt lat="51.5201269" lon="7.2762356"/>
      <trkpt lat="51.5201679" lon="7.2763214"/>
      <trkpt lat="51.5202400" lon="7.2764957"/>
      <trkpt lat="51.5202559" lon="7.2765374"/>
      <trkpt lat="51.5203068" lon="7.2766634"/>
      <trkpt lat="51.5204236" lon="7.2769659"/>
      <trkpt lat="51.5204568" lon="7.2770421"/>
      <trkpt lat="51.5204599" lon="7.2770500"/>
      <trkpt lat="51.5204757" lon="7.2770822"/>
      <trkpt lat="51.5205173" lon="7.2771579"/>
      <trkpt lat="51.5205660" lon="7.2772227"/>
      <trkpt lat="51.5206369" lon="7.2772972"/>
      <trkpt lat="51.5207097" lon="7.2773612"/>
      <trkpt lat="51.5207952" lon="7.2774305"/>
      <trkpt lat="51.5208218" lon="7.2774528"/>
      <trkpt lat="51.5208306" lon="7.2774585"/>
      <trkpt lat="51.5209165" lon="7.2775196"/>
      <trkpt lat="51.5210038" lon="7.2775972"/>
      <trkpt lat="51.5211010" lon="7.2776833"/>
      <trkpt lat="51.5211621" lon="7.2777446"/>
      <trkpt lat="51.5211968" lon="7.2777817"/>
      <trkpt lat="51.5212226" lon="7.2778179"/>
      <trkpt lat="51.5214184" lon="7.2780985"/>
      <trkpt lat="51.5215766" lon="7.2783312"/>
      <trkpt lat="51.5217367" lon="7.2785682"/>
      <trkpt lat="51.5218397" lon="7.2787206"/>
      <trkpt lat="51.5218677" lon="7.2787622"/>
      <trkpt lat="51.5218766" lon="7.2787765"/>
      <trkpt lat="51.5219060" lon="7.2788198"/>
      <trkpt lat="51.5219210" lon="7.2788419"/>
      <trkpt lat="51.5219720" lon="7.2789191"/>
      <trkpt lat="51.5220431" lon="7.2790270"/>
      <trkpt lat="51.5220628" lon="7.2790577"/>
      <trkpt lat="51.5220851" lon="7.2790911"/>
      <trkpt lat="51.5221967" lon="7.2792730"/>
      <trkpt lat="51.5222538" lon="7.2793660"/>
      <trkpt lat="51.5223266" lon="7.2794902"/>
      <trkpt lat="51.5223866" lon="7.2796039"/>
      <trkpt lat="51.5224136" lon="7.2796603"/>
      <trkpt lat="51.5225081" lon="7.2798578"/>
      <trkpt lat="51.5226883" lon="7.2802456"/>
      <trkpt lat="51.5227087" lon="7.2802873"/>
      <trkpt lat="51.5227654" lon="7.2804069"/>
      <trkpt lat="51.5229231" lon="7.2807465"/>
      <trkpt lat="51.5231671" lon="7.2812571"/>
      <trkpt lat="51.5232680" lon="7.2814561"/>
      <trkpt lat="51.5233253" lon="7.2815716"/>
      <trkpt lat="51.5233856" lon="7.2817069"/>
      <trkpt lat="51.5234894" lon="7.2819540"/>
      <trkpt lat="51.5235830" lon="7.2821808"/>
      <trkpt lat="51.5236518" lon="7.2823532"/>
      <trkpt lat="51.5236830" lon="7.2824301"/>
      <trkpt lat="51.5237180" lon="7.2825112"/>
      <trkpt lat="51.5237296" lon="7.2825389"/>
      <trkpt lat="51.5237464" lon="7.2825790"/>
      <trkpt lat="51.5238039" lon="7.2827314"/>
      <trkpt lat="51.5238846" lon="7.2829474"/>
      <trkpt lat="51.5239248" lon="7.2830500"/>
      <trkpt lat="51.5239606" lon="7.2831550"/>
      <trkpt lat="51.5239887" lon="7.2832596"/>
      <trkpt lat="51.5240315" lon="7.2834383"/>
      <trkpt lat="51.5240877" lon="7.2836814"/>
      <trkpt lat="51.5241570" lon="7.2839522"/>
      <trkpt lat="51.5241952" lon="7.2840903"/>
      <trkpt lat="51.5242196" lon="7.2841697"/>
      <trkpt lat="51.5242594" lon="7.2843014"/>
      <trkpt lat="51.5243098" lon="7.2844750"/>
      <trkpt lat="51.5243352" lon="7.2845544"/>
      <trkpt lat="51.5243795" lon="7.2846983"/>
      <trkpt lat="51.5244529" lon="7.2849198"/>
      <trkpt lat="51.5246382" lon="7.2854138"/>
      <trkpt lat="51.5246761" lon="7.2855099"/>
      <trkpt lat="51.5247978" lon="7.2858324"/>
      <trkpt lat="51.5248304" lon="7.2859161"/>
      <trkpt lat="51.5248641" lon="7.2860027"/>
      <trkpt lat="51.5249986" lon="7.2863444"/>
      <trkpt lat="51.5250433" lon="7.2864617"/>
      <trkpt lat="51.5250891" lon="7.2865643"/>
      <trkpt lat="51.5251158" lon="7.2866278"/>
      <trkpt lat="51.5251890" lon="7.2868129"/>
      <trkpt lat="51.5253234" lon="7.2870795"/>
      <trkpt lat="51.5253826" lon="7.2871849"/>
      <trkpt lat="51.5254853" lon="7.2873425"/>
      <trkpt lat="51.5254727" lon="7.2874422"/>
      <trkpt lat="51.5254695" lon="7.2875181"/>
      <trkpt lat="51.5254671" lon="7.2875731"/>
      <trkpt lat="51.5254759" lon="7.2877746"/>
      <trkpt lat="51.5254822" lon="7.2879143"/>
      <trkpt lat="51.5254836" lon="7.2879792"/>
      <trkpt lat="51.5254863" lon="7.2881059"/>
      <trkpt lat="51.5254846" lon="7.2882704"/>
      <trkpt lat="51.5254728" lon="7.2886598"/>
      <trkpt lat="51.5254590" lon="7.2889119"/>
      <trkpt lat="51.5254405" lon="7.2892229"/>
      <trkpt lat="51.5254149" lon="7.2896311"/>
      <trkpt lat="51.5254052" lon="7.2897883"/>
      <trkpt lat="51.5253992" lon="7.2898865"/>
      <trkpt lat="51.5253632" lon="7.2903874"/>
      <trkpt lat="51.5253289" lon="7.2908001"/>
      <trkpt lat="51.5252060" lon="7.2918024"/>
      <trkpt lat="51.5251546" lon="7.2922489"/>
      <trkpt lat="51.5251066" lon="7.2926981"/>
      <trkpt lat="51.5250577" lon="7.2930297"/>
      <trkpt lat="51.5250379" lon="7.2931453"/>
      <trkpt lat="51.5250227" lon="7.2932149"/>
      <trkpt lat="51.5249947" lon="7.2933434"/>
      <trkpt lat="51.5249494" lon="7.2935366"/>
      <trkpt lat="51.5248652" lon="7.2939551"/>
      <trkpt lat="51.5248131" lon="7.2942494"/>
      <trkpt lat="51.5247537" lon="7.2946368"/>
      <trkpt lat="51.5246660" lon="7.2952181"/>
      <trkpt lat="51.5246279" lon="7.2955278"/>
      <trkpt lat="51.5245983" lon="7.2958547"/>
      <trkpt lat="51.5245831" lon="7.2961072"/>
      <trkpt lat="51.5245675" lon="7.2963650"/>
      <trkpt lat="51.5245459" lon="7.2968737"/>
      <trkpt lat="51.5245300" lon="7.2975925"/>
      <trkpt lat="51.5245271" lon="7.2978374"/>
      <trkpt lat="51.5245213" lon="7.2981118"/>
      <trkpt lat="51.5245324" lon="7.2985577"/>
      <trkpt lat="51.5245396" lon="7.2989631"/>
      <trkpt lat="51.5245422" lon="7.2992906"/>
      <trkpt lat="51.5245407" lon="7.2994163"/>
      <trkpt lat="51.5245370" lon="7.2997170"/>
      <trkpt lat="51.5245215" lon="7.3000344"/>
      <trkpt lat="51.5244682" lon="7.3008208"/>
      <trkpt lat="51.5244478" lon="7.3011714"/>
      <trkpt lat="51.5244345" lon="7.3015324"/>
      <trkpt lat="51.5244362" lon="7.3021392"/>
      <trkpt lat="51.5244271" lon="7.3027215"/>
      <trkpt lat="51.5244104" lon="7.3034179"/>
      <trkpt lat="51.5243752" lon="7.3041480"/>
      <trkpt lat="51.5243605" lon="7.3043408"/>
      <trkpt lat="51.5243145" lon="7.3049452"/>
      <trkpt lat="51.5242619" lon="7.3057811"/>
      <trkpt lat="51.5241678" lon="7.3066642"/>
      <trkpt lat="51.5241107" lon="7.3070219"/>
      <trkpt lat="51.5240531" lon="7.3073407"/>
      <trkpt lat="51.5239907" lon="7.3076788"/>
      <trkpt lat="51.5239647" lon="7.3078498"/>
      <trkpt lat="51.5239587" lon="7.3078983"/>
      <trkpt lat="51.5239430" lon="7.3080260"/>
      <trkpt lat="51.5239297" lon="7.3082159"/>
      <trkpt lat="51.5239186" lon="7.3084123"/>
      <trkpt lat="51.5239179" lon="7.3086462"/>
      <trkpt lat="51.5239258" lon="7.3088793"/>
      <trkpt lat="51.5239413" lon="7.3091292"/>
      <trkpt lat="51.5239526" lon="7.3092587"/>
      <trkpt lat="51.5239617" lon="7.3093721"/>
      <trkpt lat="51.5239783" lon="7.3094982"/>
      <trkpt lat="51.5240313" lon="7.3098699"/>
      <trkpt lat="51.5241291" lon="7.3104591"/>
      <trkpt lat="51.5241328" lon="7.3104825"/>
      <trkpt lat="51.5241336" lon="7.3104872"/>
      <trkpt lat="51.5242026" lon="7.3109548"/>
      <trkpt lat="51.5242259" lon="7.3111037"/>
      <trkpt lat="51.5242510" lon="7.3112525"/>
      <trkpt lat="51.5243011" lon="7.3115052"/>
      <trkpt lat="51.5243444" lon="7.3116937"/>
      <trkpt lat="51.5243749" lon="7.3118037"/>
      <trkpt lat="51.5244060" lon="7.3119054"/>
      <trkpt lat="51.5244955" lon="7.3121270"/>
      <trkpt lat="51.5245831" lon="7.3123367"/>
      <trkpt lat="51.5246777" lon="7.3125548"/>
      <trkpt lat="51.5247299" lon="7.3126687"/>
      <trkpt lat="51.5248417" lon="7.3129302"/>
      <trkpt lat="51.5249111" lon="7.3131079"/>
      <trkpt lat="51.5249818" lon="7.3132929"/>
      <trkpt lat="51.5250012" lon="7.3133438"/>
      <trkpt lat="51.5250975" lon="7.3135986"/>
      <trkpt lat="51.5251322" lon="7.3136869"/>
      <trkpt lat="51.5251825" lon="7.3138387"/>
      <trkpt lat="51.5252268" lon="7.3140028"/>
      <trkpt lat="51.5252605" lon="7.3141556"/>
      <trkpt lat="51.5252710" lon="7.3142036"/>
      <trkpt lat="51.5253111" lon="7.3144499"/>
      <trkpt lat="51.5253438" lon="7.3145739"/>
      <trkpt lat="51.5253616" lon="7.3147009"/>
      <trkpt lat="51.5253677" lon="7.3147869"/>
      <trkpt lat="51.5253744" lon="7.3148817"/>
      <trkpt lat="51.5253877" lon="7.3152524"/>
      <trkpt lat="51.5254060" lon="7.3155188"/>
      <trkpt lat="51.5254532" lon="7.3158696"/>
      <trkpt lat="51.5256537" lon="7.3171496"/>
      <trkpt lat="51.5257142" lon="7.3174266"/>
      <trkpt lat="51.5259259" lon="7.3180736"/>
      <trkpt lat="51.5259994" lon="7.3182450"/>
      <trkpt lat="51.5261113" lon="7.3185783"/>
      <trkpt lat="51.5261414" lon="7.3187269"/>
      <trkpt lat="51.5263295" lon="7.3192838"/>
      <trkpt lat="51.5264014" lon="7.3194906"/>
      <trkpt lat="51.5265902" lon="7.3200362"/>
      <trkpt lat="51.5267405" lon="7.3204346"/>
      <trkpt lat="51.5268464" lon="7.3207428"/>
      <trkpt lat="51.5268673" lon="7.3208067"/>
      <trkpt lat="51.5269232" lon="7.3209832"/>
      <trkpt lat="51.5269774" lon="7.3211831"/>
      <trkpt lat="51.5270617" lon="7.3214576"/>
      <trkpt lat="51.5271386" lon="7.3216889"/>
      <trkpt lat="51.5271577" lon="7.3217464"/>
      <trkpt lat="51.5271888" lon="7.3218343"/>
      <trkpt lat="51.5272145" lon="7.3219132"/>
      <trkpt lat="51.5272866" lon="7.3221346"/>
      <trkpt lat="51.5273583" lon="7.3223542"/>
      <trkpt lat="51.5274442" lon="7.3225995"/>
      <trkpt lat="51.5274654" lon="7.3226631"/>
      <trkpt lat="51.5275219" lon="7.3228355"/>
      <trkpt lat="51.5276478" lon="7.3227736"/>
      <trkpt lat="51.5277038" lon="7.3227460"/>
      <trkpt lat="51.5280204" lon="7.3225903"/>
      <trkpt lat="51.5280817" lon="7.3225602"/>
      <trkpt lat="51.5284446" lon="7.3223817"/>
      <trkpt lat="51.5285085" lon="7.3223503"/>
      <trkpt lat="51.5285475" lon="7.3223311"/>
      <trkpt lat="51.5286685" lon="7.3222716"/>
      <trkpt lat="51.5287420" lon="7.3222355"/>
      <trkpt lat="51.5287641" lon="7.3222246"/>
      <trkpt lat="51.5288058" lon="7.3222041"/>
      <trkpt lat="51.5288299" lon="7.3221896"/>
      <trkpt lat="51.5290691" lon="7.3220669"/>
      <trkpt lat="51.5291213" lon="7.3220399"/>
      <trkpt lat="51.5293628" lon="7.3219148"/>
      <trkpt lat="51.5297312" lon="7.3217316"/>
      <trkpt lat="51.5297864" lon="7.3217041"/>
      <trkpt lat="51.5301163" lon="7.3215401"/>
      <trkpt lat="51.5304215" lon="7.3213884"/>
      <trkpt lat="51.5306046" lon="7.3212957"/>
      <trkpt lat="51.5308713" lon="7.3211621"/>
      <trkpt lat="51.5310074" lon="7.3210917"/>
      <trkpt lat="51.5310565" lon="7.3210620"/>
      <trkpt lat="51.5313028" lon="7.3209395"/>
      <trkpt lat="51.5317166" lon="7.3207336"/>
      <trkpt lat="51.5317425" lon="7.3207207"/>
      <trkpt lat="51.5318888" lon="7.3206479"/>
      <trkpt lat="51.5321031" lon="7.3205413"/>
      <trkpt lat="51.5325672" lon="7.3203103"/>
      <trkpt lat="51.5327661" lon="7.3202113"/>
      <trkpt lat="51.5330916" lon="7.3200494"/>
      <trkpt lat="51.5336942" lon="7.3197495"/>
      <trkpt lat="51.5339406" lon="7.3196265"/>
      <trkpt lat="51.5344249" lon="7.3193951"/>
      <trkpt lat="51.5347954" lon="7.3192224"/>
      <trkpt lat="51.5350150" lon="7.3191223"/>
      <trkpt lat="51.5351923" lon="7.3190458"/>
      <trkpt lat="51.5353805" lon="7.3189746"/>
      <trkpt lat="51.5354433" lon="7.3189529"/>
      <trkpt lat="51.5355704" lon="7.3189129"/>
      <trkpt lat="51.5358526" lon="7.3188305"/>
      <trkpt lat="51.5361686" lon="7.3187383"/>
      <trkpt lat="51.5365011" lon="7.3186499"/>
      <trkpt lat="51.5365169" lon="7.3186462"/>
      <trkpt lat="51.5365663" lon="7.3186348"/>
      <trkpt lat="51.5368903" lon="7.3185475"/>
      <trkpt lat="51.5370409" lon="7.3185068"/>
      <trkpt lat="51.5375307" lon="7.3183555"/>
      <trkpt lat="51.5378122" lon="7.3182814"/>
      <trkpt lat="51.5377658" lon="7.3178538"/>
      <trkpt lat="51.5377121" lon="7.3175993"/>
      <trkpt lat="51.5375107" lon="7.3169876"/>
      <trkpt lat="51.5370987" lon="7.3157066"/>
      <trkpt lat="51.5371342" lon="7.3156691"/>
      <trkpt lat="51.5372057" lon="7.3156102"/>
      <trkpt lat="51.5374644" lon="7.3154464"/>
      <trkpt lat="51.5375038" lon="7.3154215"/>
      <trkpt lat="51.5377460" lon="7.3152682"/>
      <trkpt lat="51.5380238" lon="7.3150973"/>
      <trkpt lat="51.5385564" lon="7.3147330"/>
      <trkpt lat="51.5387047" lon="7.3146422"/>
      <trkpt lat="51.5391482" lon="7.3143577"/>
      <trkpt lat="51.5395341" lon="7.3140799"/>
      <trkpt lat="51.5399722" lon="7.3137832"/>
      <trkpt lat="51.5401785" lon="7.3136561"/>
      <trkpt lat="51.5402493" lon="7.3136135"/>
      <trkpt lat="51.5402664" lon="7.3135839"/>
      <trkpt lat="51.5402761" lon="7.3135478"/>
      <trkpt lat="51.5402706" lon="7.3135079"/>
      <trkpt lat="51.5401854" lon="7.3131991"/>
      <trkpt lat="51.5400987" lon="7.3128847"/>
      <trkpt lat="51.5399455" lon="7.3123151"/>
      <trkpt lat="51.5399360" lon="7.3122588"/>
      <trkpt lat="51.5399058" lon="7.3119643"/>
      <trkpt lat="51.5398944" lon="7.3117989"/>
      <trkpt lat="51.5401167" lon="7.3117349"/>
      <trkpt lat="51.5402856" lon="7.3116556"/>
      <trkpt lat="51.5402539" lon="7.3115368"/>
      <trkpt lat="51.5399778" lon="7.3109226"/>
      <trkpt lat="51.5399343" lon="7.3107984"/>
      <trkpt lat="51.5399142" lon="7.3107197"/>
      <trkpt lat="51.5398986" lon="7.3106474"/>
      <trkpt lat="51.5398838" lon="7.3105727"/>
      <trkpt lat="51.5398743" lon="7.3105015"/>
      <trkpt lat="51.5398644" lon="7.3104346"/>
      <trkpt lat="51.5398536" lon="7.3102947"/>
      <trkpt lat="51.5398525" lon="7.3093102"/>
      <trkpt lat="51.5398517" lon="7.3087557"/>
      <trkpt lat="51.5399077" lon="7.3087693"/>
      <trkpt lat="51.5399637" lon="7.3087829"/>
      <trkpt lat="51.5399969" lon="7.3087910"/>
      <trkpt lat="51.5401328" lon="7.3088326"/>
      <trkpt lat="51.5402138" lon="7.3088567"/>
      <trkpt lat="51.5406191" lon="7.3089827"/>
      <trkpt lat="51.5407175" lon="7.3089925"/>
      <trkpt lat="51.5407806" lon="7.3089866"/>
      <trkpt lat="51.5408461" lon="7.3089667"/>
      <trkpt lat="51.5409336" lon="7.3089156"/>
      <trkpt lat="51.5410782" lon="7.3088033"/>
      <trkpt lat="51.5413297" lon="7.3086000"/>
      <trkpt lat="51.5414860" lon="7.3084845"/>
      <trkpt lat="51.5416322" lon="7.3083849"/>
      <trkpt lat="51.5417635" lon="7.3083055"/>
      <trkpt lat="51.5418928" lon="7.3082407"/>
      <trkpt lat="51.5421425" lon="7.3081156"/>
      <trkpt lat="51.5422942" lon="7.3080396"/>
      <trkpt lat="51.5426183" lon="7.3078773"/>
      <trkpt lat="51.5428992" lon="7.3077502"/>
      <trkpt lat="51.5434474" lon="7.3075021"/>
      <trkpt lat="51.5435225" lon="7.3074681"/>
      <trkpt lat="51.5436798" lon="7.3073971"/>
      <trkpt lat="51.5437837" lon="7.3073495"/>
      <trkpt lat="51.5438420" lon="7.3073228"/>
      <trkpt lat="51.5439025" lon="7.3072951"/>
      <trkpt lat="51.5439687" lon="7.3072649"/>
      <trkpt lat="51.5440031" lon="7.3072492"/>
      <trkpt lat="51.5441591" lon="7.3071779"/>
      <trkpt lat="51.5443634" lon="7.3070861"/>
      <trkpt lat="51.5443854" lon="7.3072035"/>
      <trkpt lat="51.5446632" lon="7.3079747"/>
      <trkpt lat="51.5446764" lon="7.3080115"/>
      <trkpt lat="51.5447351" lon="7.3081744"/>
      <trkpt lat="51.5447972" lon="7.3083469"/>
      <trkpt lat="51.5450052" lon="7.3089243"/>
      <trkpt lat="51.5452642" lon="7.3096834"/>
      <trkpt lat="51.5453830" lon="7.3099952"/>
      <trkpt lat="51.5455926" lon="7.3103584"/>
      <trkpt lat="51.5458954" lon="7.3108830"/>
      <trkpt lat="51.5462756" lon="7.3115279"/>
      <trkpt lat="51.5463211" lon="7.3116034"/>
      <trkpt lat="51.5464678" lon="7.3118579"/>
      <trkpt lat="51.5465526" lon="7.3120034"/>
      <trkpt lat="51.5465042" lon="7.3120762"/>
      <trkpt lat="51.5462885" lon="7.3124136"/>
      <trkpt lat="51.5462795" lon="7.3124256"/>
      <trkpt lat="51.5462425" lon="7.3124724"/>
      <trkpt lat="51.5462055" lon="7.3125160"/>
      <trkpt lat="51.5459321" lon="7.3127515"/>
      <trkpt lat="51.5458196" lon="7.3128498"/>
      <trkpt lat="51.5456847" lon="7.3129596"/>
      <trkpt lat="51.5454617" lon="7.3131616"/>
      <trkpt lat="51.5453271" lon="7.3132682"/>
      <trkpt lat="51.5453258" lon="7.3132693"/>
      <trkpt lat="51.5451610" lon="7.3134077"/>
      <trkpt lat="51.5449436" lon="7.3135592"/>
      <trkpt lat="51.5448944" lon="7.3136035"/>
      <trkpt lat="51.5448521" lon="7.3136563"/>
      <trkpt lat="51.5448228" lon="7.3137143"/>
      <trkpt lat="51.5447840" lon="7.3138203"/>
      <trkpt lat="51.5447708" lon="7.3139012"/>
      <trkpt lat="51.5447658" lon="7.3139964"/>
      <trkpt lat="51.5447681" lon="7.3140718"/>
      <trkpt lat="51.5448048" lon="7.3142836"/>
      <trkpt lat="51.5448362" lon="7.3144509"/>
      <trkpt lat="51.5448669" lon="7.3146220"/>
      <trkpt lat="51.5449800" lon="7.3152514"/>
      <trkpt lat="51.5449872" lon="7.3152917"/>
      <trkpt lat="51.5449893" lon="7.3152973"/>
      <trkpt lat="51.5450292" lon="7.3153264"/>
      <trkpt lat="51.5450753" lon="7.3153472"/>
      <trkpt lat="51.5451178" lon="7.3153496"/>
      <trkpt lat="51.5451849" lon="7.3153462"/>
      <trkpt lat="51.5453187" lon="7.3152444"/>
      <trkpt lat="51.5459631" lon="7.3148339"/>
      <trkpt lat="51.5461769" lon="7.3146962"/>
      <trkpt lat="51.5463465" lon="7.3145859"/>
      <trkpt lat="51.5466058" lon="7.3144201"/>
      <trkpt lat="51.5467025" lon="7.3143600"/>
      <trkpt lat="51.5467637" lon="7.3143181"/>
      <trkpt lat="51.5469350" lon="7.3141914"/>
      <trkpt lat="51.5471163" lon="7.3140343"/>
      <trkpt lat="51.5474247" lon="7.3137410"/>
      <trkpt lat="51.5475589" lon="7.3135967"/>
      <trkpt lat="51.5478132" lon="7.3133451"/>
      <trkpt lat="51.5480418" lon="7.3130469"/>
      <trkpt lat="51.5480657" lon="7.3130139"/>
      <trkpt lat="51.5481098" lon="7.3129529"/>
      <trkpt lat="51.5481409" lon="7.3129031"/>
      <trkpt lat="51.5482244" lon="7.3127682"/>
      <trkpt lat="51.5483323" lon="7.3126052"/>
      <trkpt lat="51.5484555" lon="7.3124193"/>
      <trkpt lat="51.5485726" lon="7.3122751"/>
      <trkpt lat="51.5486786" lon="7.3121611"/>
      <trkpt lat="51.5487853" lon="7.3120531"/>
      <trkpt lat="51.5488511" lon="7.3119698"/>
      <trkpt lat="51.5490259" lon="7.3117038"/>
      <trkpt lat="51.5491572" lon="7.3114168"/>
      <trkpt lat="51.5493762" lon="7.3108368"/>
      <trkpt lat="51.5494785" lon="7.3105620"/>
      <trkpt lat="51.5495020" lon="7.3105015"/>
      <trkpt lat="51.5495253" lon="7.3104416"/>
      <trkpt lat="51.5496333" lon="7.3101431"/>
      <trkpt lat="51.5496495" lon="7.3101001"/>
      <trkpt lat="51.5497424" lon="7.3098606"/>
      <trkpt lat="51.5498092" lon="7.3096620"/>
      <trkpt lat="51.5498778" lon="7.3094213"/>
      <trkpt lat="51.5499216" lon="7.3092632"/>
      <trkpt lat="51.5500183" lon="7.3088689"/>
      <trkpt lat="51.5500861" lon="7.3085592"/>
      <trkpt lat="51.5501275" lon="7.3082457"/>
      <trkpt lat="51.5501405" lon="7.3081076"/>
      <trkpt lat="51.5501484" lon="7.3079655"/>
      <trkpt lat="51.5501501" lon="7.3078313"/>
      <trkpt lat="51.5501359" lon="7.3076939"/>
      <trkpt lat="51.5501097" lon="7.3075741"/>
      <trkpt lat="51.5500742" lon="7.3074833"/>
      <trkpt lat="51.5500296" lon="7.3074009"/>
      <trkpt lat="51.5500004" lon="7.3073519"/>
      <trkpt lat="51.5499362" lon="7.3072715"/>
      <trkpt lat="51.5498016" lon="7.3071831"/>
      <trkpt lat="51.5496826" lon="7.3071541"/>
      <trkpt lat="51.5495710" lon="7.3071774"/>
      <trkpt lat="51.5494223" lon="7.3072571"/>
      <trkpt lat="51.5493192" lon="7.3073629"/>
      <trkpt lat="51.5492617" lon="7.3074219"/>
      <trkpt lat="51.5489878" lon="7.3078004"/>
      <trkpt lat="51.5489946" lon="7.3079011"/>
      <trkpt lat="51.5490083" lon="7.3079799"/>
      <trkpt lat="51.5490292" lon="7.3080385"/>
      <trkpt lat="51.5490521" lon="7.3080833"/>
      <trkpt lat="51.5492523" lon="7.3084673"/>
      <trkpt lat="51.5494280" lon="7.3087826"/>
      <trkpt lat="51.5496004" lon="7.3090207"/>
      <trkpt lat="51.5497851" lon="7.3092433"/>
    </trkseg>
  </trk>
</gpx>