<?xml version="1.0" encoding="UTF-8"?>
<gpx version="1.1" creator="Linienjagd Castrop-Rauxel" xmlns="http://www.topografix.com/GPX/1/1">
  <metadata><name>Linie 378 – komplette Linie</name><desc>Bus 378: Ruhr-Universität =&gt; Castrop Münsterplatz | 18.13 km | 41 Haltestellen</desc></metadata>
  <wpt lat="51.4461372" lon="7.2601300"><name>01 Ruhr-Universität</name><sym>Flag</sym></wpt>
  <wpt lat="51.4567584" lon="7.2927911"><name>02 Kleinherbeder Straße</name><sym>Flag</sym></wpt>
  <wpt lat="51.4584197" lon="7.2968882"><name>03 Elchbogen</name><sym>Flag</sym></wpt>
  <wpt lat="51.4624667" lon="7.2995976"><name>04 Im Ümminger Feld</name><sym>Flag</sym></wpt>
  <wpt lat="51.4620667" lon="7.3030433"><name>05 Kaltehardt</name><sym>Flag</sym></wpt>
  <wpt lat="51.4620529" lon="7.3077397"><name>06 Urbanusstraße</name><sym>Flag</sym></wpt>
  <wpt lat="51.4643354" lon="7.3069345"><name>07 Kaltehardtstraße</name><sym>Flag</sym></wpt>
  <wpt lat="51.4674758" lon="7.3093836"><name>08 Eichhornweg</name><sym>Flag</sym></wpt>
  <wpt lat="51.4704553" lon="7.3150470"><name>09 Langendreer Amt</name><sym>Flag</sym></wpt>
  <wpt lat="51.4721887" lon="7.3147201"><name>10 Lessing-Schule</name><sym>Flag</sym></wpt>
  <wpt lat="51.4736178" lon="7.3237215"><name>11 Langendreer Markt</name><sym>Flag</sym></wpt>
  <wpt lat="51.4777485" lon="7.3237352"><name>12 Bochum-Langendreer S</name><sym>Flag</sym></wpt>
  <wpt lat="51.4820452" lon="7.3257972"><name>13 Opel Zentrallager</name><sym>Flag</sym></wpt>
  <wpt lat="51.4843986" lon="7.3246581"><name>14 Somborner Straße</name><sym>Flag</sym></wpt>
  <wpt lat="51.4877737" lon="7.3250713"><name>15 Kernberg</name><sym>Flag</sym></wpt>
  <wpt lat="51.4910705" lon="7.3254607"><name>16 In den Breen</name><sym>Flag</sym></wpt>
  <wpt lat="51.4951023" lon="7.3268402"><name>17 Provinzialstraße</name><sym>Flag</sym></wpt>
  <wpt lat="51.4959854" lon="7.3359038"><name>18 Beverstraße</name><sym>Flag</sym></wpt>
  <wpt lat="51.4968687" lon="7.3398925"><name>19 Steglitzeck</name><sym>Flag</sym></wpt>
  <wpt lat="51.4971756" lon="7.3428304"><name>20 Lütgendortmunder Hellweg</name><sym>Flag</sym></wpt>
  <wpt lat="51.4993273" lon="7.3375212"><name>21 Theresenstraße</name><sym>Flag</sym></wpt>
  <wpt lat="51.4989571" lon="7.3350920"><name>22 DO-Lütgendortmund</name><sym>Flag</sym></wpt>
  <wpt lat="51.4997717" lon="7.3320792"><name>23 Bleichstraße</name><sym>Flag</sym></wpt>
  <wpt lat="51.5001405" lon="7.3300569"><name>24 Kaubomstraße</name><sym>Flag</sym></wpt>
  <wpt lat="51.5022371" lon="7.3258074"><name>25 Plesken</name><sym>Flag</sym></wpt>
  <wpt lat="51.5051398" lon="7.3245749"><name>26 Gecks Heide</name><sym>Flag</sym></wpt>
  <wpt lat="51.5083995" lon="7.3234998"><name>27 Dellwiger Straße</name><sym>Flag</sym></wpt>
  <wpt lat="51.5115287" lon="7.3219549"><name>28 Bövinghauser Dorfstraße</name><sym>Flag</sym></wpt>
  <wpt lat="51.5146452" lon="7.3217285"><name>29 Bövinghausen Friedhof</name><sym>Flag</sym></wpt>
  <wpt lat="51.5161515" lon="7.3229518"><name>30 Oberdelle</name><sym>Flag</sym></wpt>
  <wpt lat="51.5200453" lon="7.3255317"><name>31 Bövinghauser Straße</name><sym>Flag</sym></wpt>
  <wpt lat="51.5236568" lon="7.3245331"><name>32 Lotharstraße</name><sym>Flag</sym></wpt>
  <wpt lat="51.5258096" lon="7.3236845"><name>33 Johannesstraße</name><sym>Flag</sym></wpt>
  <wpt lat="51.5285085" lon="7.3223503"><name>34 Gerther Straße</name><sym>Flag</sym></wpt>
  <wpt lat="51.5310565" lon="7.3210620"><name>35 Strunk</name><sym>Flag</sym></wpt>
  <wpt lat="51.5365169" lon="7.3186462"><name>36 Marienstraße</name><sym>Flag</sym></wpt>
  <wpt lat="51.5395323" lon="7.3178451"><name>37 Evangelischer Friedhof</name><sym>Flag</sym></wpt>
  <wpt lat="51.5433791" lon="7.3165265"><name>38 Tiergartenstraße</name><sym>Flag</sym></wpt>
  <wpt lat="51.5466058" lon="7.3144201"><name>39 Katholisches Krankenhaus</name><sym>Flag</sym></wpt>
  <wpt lat="51.5480418" lon="7.3130469"><name>40 Castrop Markt</name><sym>Flag</sym></wpt>
  <wpt lat="51.5496004" lon="7.3090207"><name>41 Castrop Münsterplatz</name><sym>Flag</sym></wpt>
  <trk><name>Linie 378 – komplette Linie</name>
    <trkseg>
      <trkpt lat="51.4461372" lon="7.2601300"/>
      <trkpt lat="51.4461779" lon="7.2601711"/>
      <trkpt lat="51.4462110" lon="7.2601446"/>
      <trkpt lat="51.4462299" lon="7.2601295"/>
      <trkpt lat="51.4462870" lon="7.2601323"/>
      <trkpt lat="51.4463081" lon="7.2601421"/>
      <trkpt lat="51.4463573" lon="7.2601621"/>
      <trkpt lat="51.4464370" lon="7.2601983"/>
      <trkpt lat="51.4464649" lon="7.2601937"/>
      <trkpt lat="51.4465669" lon="7.2601442"/>
      <trkpt lat="51.4466035" lon="7.2601127"/>
      <trkpt lat="51.4466420" lon="7.2600807"/>
      <trkpt lat="51.4468310" lon="7.2599191"/>
      <trkpt lat="51.4469161" lon="7.2598512"/>
      <trkpt lat="51.4469807" lon="7.2598283"/>
      <trkpt lat="51.4470436" lon="7.2598268"/>
      <trkpt lat="51.4471120" lon="7.2598627"/>
      <trkpt lat="51.4471746" lon="7.2599215"/>
      <trkpt lat="51.4472112" lon="7.2599779"/>
      <trkpt lat="51.4472552" lon="7.2600584"/>
      <trkpt lat="51.4473030" lon="7.2601765"/>
      <trkpt lat="51.4473601" lon="7.2603138"/>
      <trkpt lat="51.4475187" lon="7.2606402"/>
      <trkpt lat="51.4477128" lon="7.2610149"/>
      <trkpt lat="51.4479879" lon="7.2614216"/>
      <trkpt lat="51.4479973" lon="7.2614396"/>
      <trkpt lat="51.4487457" lon="7.2628777"/>
      <trkpt lat="51.4495476" lon="7.2644267"/>
      <trkpt lat="51.4498461" lon="7.2650019"/>
      <trkpt lat="51.4501263" lon="7.2655944"/>
      <trkpt lat="51.4501573" lon="7.2656669"/>
      <trkpt lat="51.4502475" lon="7.2658777"/>
      <trkpt lat="51.4505125" lon="7.2664973"/>
      <trkpt lat="51.4506579" lon="7.2668809"/>
      <trkpt lat="51.4507808" lon="7.2672403"/>
      <trkpt lat="51.4509931" lon="7.2679283"/>
      <trkpt lat="51.4511728" lon="7.2686418"/>
      <trkpt lat="51.4513003" lon="7.2692667"/>
      <trkpt lat="51.4513942" lon="7.2698675"/>
      <trkpt lat="51.4514942" lon="7.2705837"/>
      <trkpt lat="51.4515589" lon="7.2710289"/>
      <trkpt lat="51.4517181" lon="7.2721246"/>
      <trkpt lat="51.4517895" lon="7.2725729"/>
      <trkpt lat="51.4518778" lon="7.2731280"/>
      <trkpt lat="51.4519871" lon="7.2737629"/>
      <trkpt lat="51.4522012" lon="7.2749101"/>
      <trkpt lat="51.4524501" lon="7.2761075"/>
      <trkpt lat="51.4526039" lon="7.2768086"/>
      <trkpt lat="51.4530637" lon="7.2787242"/>
      <trkpt lat="51.4535316" lon="7.2805351"/>
      <trkpt lat="51.4535587" lon="7.2806340"/>
      <trkpt lat="51.4537420" lon="7.2813025"/>
      <trkpt lat="51.4538289" lon="7.2816233"/>
      <trkpt lat="51.4539236" lon="7.2819630"/>
      <trkpt lat="51.4539771" lon="7.2821547"/>
      <trkpt lat="51.4548607" lon="7.2850792"/>
      <trkpt lat="51.4548634" lon="7.2850881"/>
      <trkpt lat="51.4550405" lon="7.2856944"/>
      <trkpt lat="51.4553093" lon="7.2866131"/>
      <trkpt lat="51.4553791" lon="7.2868102"/>
      <trkpt lat="51.4555572" lon="7.2874634"/>
      <trkpt lat="51.4556079" lon="7.2876521"/>
      <trkpt lat="51.4556852" lon="7.2879493"/>
      <trkpt lat="51.4557260" lon="7.2881093"/>
      <trkpt lat="51.4557282" lon="7.2881179"/>
      <trkpt lat="51.4558386" lon="7.2885509"/>
      <trkpt lat="51.4560702" lon="7.2895404"/>
      <trkpt lat="51.4561617" lon="7.2899494"/>
      <trkpt lat="51.4562504" lon="7.2903704"/>
      <trkpt lat="51.4562809" lon="7.2905119"/>
      <trkpt lat="51.4563078" lon="7.2906329"/>
      <trkpt lat="51.4563681" lon="7.2909299"/>
      <trkpt lat="51.4565798" lon="7.2919711"/>
      <trkpt lat="51.4566771" lon="7.2924378"/>
      <trkpt lat="51.4567584" lon="7.2927911"/>
      <trkpt lat="51.4568207" lon="7.2930533"/>
      <trkpt lat="51.4568935" lon="7.2933477"/>
      <trkpt lat="51.4569590" lon="7.2935900"/>
      <trkpt lat="51.4570315" lon="7.2938344"/>
      <trkpt lat="51.4572479" lon="7.2945143"/>
      <trkpt lat="51.4574627" lon="7.2950682"/>
      <trkpt lat="51.4576037" lon="7.2953967"/>
      <trkpt lat="51.4577645" lon="7.2957321"/>
      <trkpt lat="51.4579627" lon="7.2961192"/>
      <trkpt lat="51.4580337" lon="7.2962523"/>
      <trkpt lat="51.4581721" lon="7.2964857"/>
      <trkpt lat="51.4584197" lon="7.2968882"/>
      <trkpt lat="51.4587291" lon="7.2973194"/>
      <trkpt lat="51.4590495" lon="7.2977122"/>
      <trkpt lat="51.4594146" lon="7.2981055"/>
      <trkpt lat="51.4595427" lon="7.2982282"/>
      <trkpt lat="51.4598312" lon="7.2984819"/>
      <trkpt lat="51.4601263" lon="7.2987093"/>
      <trkpt lat="51.4605268" lon="7.2989762"/>
      <trkpt lat="51.4609196" lon="7.2991908"/>
      <trkpt lat="51.4612641" lon="7.2993383"/>
      <trkpt lat="51.4616092" lon="7.2994754"/>
      <trkpt lat="51.4619121" lon="7.2995217"/>
      <trkpt lat="51.4622571" lon="7.2995811"/>
      <trkpt lat="51.4624667" lon="7.2995976"/>
      <trkpt lat="51.4626178" lon="7.2996095"/>
      <trkpt lat="51.4627997" lon="7.2996110"/>
      <trkpt lat="51.4628082" lon="7.2998834"/>
      <trkpt lat="51.4628169" lon="7.3001559"/>
      <trkpt lat="51.4628276" lon="7.3006466"/>
      <trkpt lat="51.4628325" lon="7.3008692"/>
      <trkpt lat="51.4628274" lon="7.3009271"/>
      <trkpt lat="51.4627572" lon="7.3013740"/>
      <trkpt lat="51.4627149" lon="7.3015896"/>
      <trkpt lat="51.4626702" lon="7.3017692"/>
      <trkpt lat="51.4625672" lon="7.3020950"/>
      <trkpt lat="51.4624554" lon="7.3023675"/>
      <trkpt lat="51.4623506" lon="7.3025687"/>
      <trkpt lat="51.4622293" lon="7.3027744"/>
      <trkpt lat="51.4621137" lon="7.3029634"/>
      <trkpt lat="51.4620667" lon="7.3030433"/>
      <trkpt lat="51.4619309" lon="7.3032962"/>
      <trkpt lat="51.4618555" lon="7.3034535"/>
      <trkpt lat="51.4617864" lon="7.3036093"/>
      <trkpt lat="51.4616785" lon="7.3038241"/>
      <trkpt lat="51.4616307" lon="7.3039915"/>
      <trkpt lat="51.4615933" lon="7.3041420"/>
      <trkpt lat="51.4615736" lon="7.3042319"/>
      <trkpt lat="51.4615352" lon="7.3044194"/>
      <trkpt lat="51.4615092" lon="7.3045612"/>
      <trkpt lat="51.4614712" lon="7.3047814"/>
      <trkpt lat="51.4614694" lon="7.3049002"/>
      <trkpt lat="51.4613888" lon="7.3053204"/>
      <trkpt lat="51.4613314" lon="7.3056271"/>
      <trkpt lat="51.4613182" lon="7.3056976"/>
      <trkpt lat="51.4611594" lon="7.3065368"/>
      <trkpt lat="51.4611422" lon="7.3066298"/>
      <trkpt lat="51.4610525" lon="7.3071156"/>
      <trkpt lat="51.4610257" lon="7.3072605"/>
      <trkpt lat="51.4611226" lon="7.3073057"/>
      <trkpt lat="51.4615551" lon="7.3075074"/>
      <trkpt lat="51.4620460" lon="7.3077366"/>
      <trkpt lat="51.4620529" lon="7.3077397"/>
      <trkpt lat="51.4624318" lon="7.3079164"/>
      <trkpt lat="51.4625106" lon="7.3079453"/>
      <trkpt lat="51.4626004" lon="7.3079460"/>
      <trkpt lat="51.4626442" lon="7.3079364"/>
      <trkpt lat="51.4626973" lon="7.3079183"/>
      <trkpt lat="51.4628244" lon="7.3078451"/>
      <trkpt lat="51.4629555" lon="7.3077696"/>
      <trkpt lat="51.4631099" lon="7.3076802"/>
      <trkpt lat="51.4633770" lon="7.3075256"/>
      <trkpt lat="51.4634749" lon="7.3074689"/>
      <trkpt lat="51.4635403" lon="7.3074310"/>
      <trkpt lat="51.4638632" lon="7.3072374"/>
      <trkpt lat="51.4640875" lon="7.3070898"/>
      <trkpt lat="51.4641182" lon="7.3070693"/>
      <trkpt lat="51.4641814" lon="7.3070301"/>
      <trkpt lat="51.4643354" lon="7.3069345"/>
      <trkpt lat="51.4643531" lon="7.3069237"/>
      <trkpt lat="51.4643936" lon="7.3068990"/>
      <trkpt lat="51.4644143" lon="7.3068850"/>
      <trkpt lat="51.4647050" lon="7.3067062"/>
      <trkpt lat="51.4647435" lon="7.3066820"/>
      <trkpt lat="51.4648580" lon="7.3066101"/>
      <trkpt lat="51.4649067" lon="7.3067294"/>
      <trkpt lat="51.4649663" lon="7.3067929"/>
      <trkpt lat="51.4650033" lon="7.3068323"/>
      <trkpt lat="51.4650540" lon="7.3068669"/>
      <trkpt lat="51.4651233" lon="7.3068882"/>
      <trkpt lat="51.4652613" lon="7.3070007"/>
      <trkpt lat="51.4652760" lon="7.3070127"/>
      <trkpt lat="51.4654577" lon="7.3071407"/>
      <trkpt lat="51.4658160" lon="7.3073930"/>
      <trkpt lat="51.4658998" lon="7.3074912"/>
      <trkpt lat="51.4661764" lon="7.3078653"/>
      <trkpt lat="51.4665098" lon="7.3083033"/>
      <trkpt lat="51.4669186" lon="7.3088027"/>
      <trkpt lat="51.4672801" lon="7.3091880"/>
      <trkpt lat="51.4674441" lon="7.3093543"/>
      <trkpt lat="51.4674509" lon="7.3093602"/>
      <trkpt lat="51.4674758" lon="7.3093836"/>
      <trkpt lat="51.4675703" lon="7.3094726"/>
      <trkpt lat="51.4677777" lon="7.3096967"/>
      <trkpt lat="51.4679850" lon="7.3099126"/>
      <trkpt lat="51.4682066" lon="7.3101396"/>
      <trkpt lat="51.4686252" lon="7.3105602"/>
      <trkpt lat="51.4689840" lon="7.3109278"/>
      <trkpt lat="51.4690199" lon="7.3109624"/>
      <trkpt lat="51.4693734" lon="7.3113071"/>
      <trkpt lat="51.4694962" lon="7.3114695"/>
      <trkpt lat="51.4695379" lon="7.3115382"/>
      <trkpt lat="51.4695674" lon="7.3116198"/>
      <trkpt lat="51.4696037" lon="7.3117228"/>
      <trkpt lat="51.4696831" lon="7.3119475"/>
      <trkpt lat="51.4697889" lon="7.3122470"/>
      <trkpt lat="51.4698823" lon="7.3125115"/>
      <trkpt lat="51.4698978" lon="7.3125555"/>
      <trkpt lat="51.4700126" lon="7.3128806"/>
      <trkpt lat="51.4700380" lon="7.3129580"/>
      <trkpt lat="51.4700700" lon="7.3132169"/>
      <trkpt lat="51.4700758" lon="7.3132635"/>
      <trkpt lat="51.4700902" lon="7.3133800"/>
      <trkpt lat="51.4701164" lon="7.3135924"/>
      <trkpt lat="51.4701461" lon="7.3138319"/>
      <trkpt lat="51.4701682" lon="7.3140111"/>
      <trkpt lat="51.4702089" lon="7.3143400"/>
      <trkpt lat="51.4702056" lon="7.3144253"/>
      <trkpt lat="51.4701994" lon="7.3144829"/>
      <trkpt lat="51.4701916" lon="7.3145390"/>
      <trkpt lat="51.4701709" lon="7.3146380"/>
      <trkpt lat="51.4701394" lon="7.3147564"/>
      <trkpt lat="51.4701159" lon="7.3148420"/>
      <trkpt lat="51.4700605" lon="7.3150436"/>
      <trkpt lat="51.4700073" lon="7.3152374"/>
      <trkpt lat="51.4699974" lon="7.3152733"/>
      <trkpt lat="51.4699515" lon="7.3154404"/>
      <trkpt lat="51.4699618" lon="7.3155644"/>
      <trkpt lat="51.4700069" lon="7.3156815"/>
      <trkpt lat="51.4700637" lon="7.3157417"/>
      <trkpt lat="51.4700729" lon="7.3157514"/>
      <trkpt lat="51.4701466" lon="7.3157898"/>
      <trkpt lat="51.4702210" lon="7.3157557"/>
      <trkpt lat="51.4702898" lon="7.3156746"/>
      <trkpt lat="51.4703377" lon="7.3154929"/>
      <trkpt lat="51.4703946" lon="7.3152771"/>
      <trkpt lat="51.4704470" lon="7.3150785"/>
      <trkpt lat="51.4704553" lon="7.3150470"/>
      <trkpt lat="51.4704900" lon="7.3149153"/>
      <trkpt lat="51.4705017" lon="7.3148708"/>
      <trkpt lat="51.4705630" lon="7.3147529"/>
      <trkpt lat="51.4706679" lon="7.3146130"/>
      <trkpt lat="51.4708703" lon="7.3144636"/>
      <trkpt lat="51.4709371" lon="7.3144112"/>
      <trkpt lat="51.4709641" lon="7.3143900"/>
      <trkpt lat="51.4709898" lon="7.3143699"/>
      <trkpt lat="51.4710163" lon="7.3143491"/>
      <trkpt lat="51.4710679" lon="7.3143087"/>
      <trkpt lat="51.4710961" lon="7.3142866"/>
      <trkpt lat="51.4711439" lon="7.3142491"/>
      <trkpt lat="51.4712498" lon="7.3141661"/>
      <trkpt lat="51.4712908" lon="7.3141339"/>
      <trkpt lat="51.4715037" lon="7.3139732"/>
      <trkpt lat="51.4717646" lon="7.3138459"/>
      <trkpt lat="51.4718549" lon="7.3137898"/>
      <trkpt lat="51.4718811" lon="7.3137729"/>
      <trkpt lat="51.4719098" lon="7.3137543"/>
      <trkpt lat="51.4719745" lon="7.3137059"/>
      <trkpt lat="51.4720216" lon="7.3139336"/>
      <trkpt lat="51.4720587" lon="7.3140934"/>
      <trkpt lat="51.4721537" lon="7.3145530"/>
      <trkpt lat="51.4721887" lon="7.3147201"/>
      <trkpt lat="51.4721938" lon="7.3147446"/>
      <trkpt lat="51.4722467" lon="7.3149859"/>
      <trkpt lat="51.4722700" lon="7.3150766"/>
      <trkpt lat="51.4723006" lon="7.3151697"/>
      <trkpt lat="51.4723902" lon="7.3154417"/>
      <trkpt lat="51.4724530" lon="7.3156352"/>
      <trkpt lat="51.4724880" lon="7.3157703"/>
      <trkpt lat="51.4724955" lon="7.3157990"/>
      <trkpt lat="51.4725100" lon="7.3158551"/>
      <trkpt lat="51.4725147" lon="7.3158732"/>
      <trkpt lat="51.4725819" lon="7.3161327"/>
      <trkpt lat="51.4725899" lon="7.3161632"/>
      <trkpt lat="51.4726641" lon="7.3164474"/>
      <trkpt lat="51.4726956" lon="7.3165548"/>
      <trkpt lat="51.4728022" lon="7.3169278"/>
      <trkpt lat="51.4728157" lon="7.3169730"/>
      <trkpt lat="51.4729524" lon="7.3174302"/>
      <trkpt lat="51.4729856" lon="7.3175381"/>
      <trkpt lat="51.4730400" lon="7.3177210"/>
      <trkpt lat="51.4730685" lon="7.3178187"/>
      <trkpt lat="51.4731487" lon="7.3180940"/>
      <trkpt lat="51.4732175" lon="7.3183332"/>
      <trkpt lat="51.4732452" lon="7.3184295"/>
      <trkpt lat="51.4733209" lon="7.3186972"/>
      <trkpt lat="51.4733530" lon="7.3188090"/>
      <trkpt lat="51.4734198" lon="7.3190420"/>
      <trkpt lat="51.4734603" lon="7.3191904"/>
      <trkpt lat="51.4734770" lon="7.3192544"/>
      <trkpt lat="51.4735067" lon="7.3193879"/>
      <trkpt lat="51.4735541" lon="7.3196282"/>
      <trkpt lat="51.4735864" lon="7.3198525"/>
      <trkpt lat="51.4736059" lon="7.3200202"/>
      <trkpt lat="51.4736315" lon="7.3203329"/>
      <trkpt lat="51.4736376" lon="7.3204354"/>
      <trkpt lat="51.4736396" lon="7.3204820"/>
      <trkpt lat="51.4736445" lon="7.3206085"/>
      <trkpt lat="51.4736468" lon="7.3208599"/>
      <trkpt lat="51.4736474" lon="7.3209306"/>
      <trkpt lat="51.4736479" lon="7.3209878"/>
      <trkpt lat="51.4736495" lon="7.3211643"/>
      <trkpt lat="51.4736500" lon="7.3212410"/>
      <trkpt lat="51.4736508" lon="7.3213749"/>
      <trkpt lat="51.4736512" lon="7.3214394"/>
      <trkpt lat="51.4736516" lon="7.3215094"/>
      <trkpt lat="51.4736521" lon="7.3218410"/>
      <trkpt lat="51.4736526" lon="7.3218823"/>
      <trkpt lat="51.4736524" lon="7.3221012"/>
      <trkpt lat="51.4736320" lon="7.3222506"/>
      <trkpt lat="51.4736315" lon="7.3223106"/>
      <trkpt lat="51.4736280" lon="7.3224644"/>
      <trkpt lat="51.4736177" lon="7.3229256"/>
      <trkpt lat="51.4736135" lon="7.3231081"/>
      <trkpt lat="51.4736086" lon="7.3232347"/>
      <trkpt lat="51.4736083" lon="7.3233831"/>
      <trkpt lat="51.4736178" lon="7.3237215"/>
      <trkpt lat="51.4736244" lon="7.3239379"/>
      <trkpt lat="51.4736272" lon="7.3240122"/>
      <trkpt lat="51.4736288" lon="7.3240745"/>
      <trkpt lat="51.4736349" lon="7.3242854"/>
      <trkpt lat="51.4736377" lon="7.3243696"/>
      <trkpt lat="51.4736386" lon="7.3244067"/>
      <trkpt lat="51.4736393" lon="7.3244313"/>
      <trkpt lat="51.4736419" lon="7.3245152"/>
      <trkpt lat="51.4736985" lon="7.3244020"/>
      <trkpt lat="51.4737406" lon="7.3243253"/>
      <trkpt lat="51.4738352" lon="7.3242894"/>
      <trkpt lat="51.4738793" lon="7.3242725"/>
      <trkpt lat="51.4739181" lon="7.3242577"/>
      <trkpt lat="51.4739873" lon="7.3242337"/>
      <trkpt lat="51.4740273" lon="7.3242213"/>
      <trkpt lat="51.4740867" lon="7.3241984"/>
      <trkpt lat="51.4741723" lon="7.3241583"/>
      <trkpt lat="51.4741972" lon="7.3241456"/>
      <trkpt lat="51.4742396" lon="7.3241233"/>
      <trkpt lat="51.4742490" lon="7.3241176"/>
      <trkpt lat="51.4743320" lon="7.3240716"/>
      <trkpt lat="51.4743840" lon="7.3240397"/>
      <trkpt lat="51.4744106" lon="7.3240226"/>
      <trkpt lat="51.4744444" lon="7.3239989"/>
      <trkpt lat="51.4745355" lon="7.3239350"/>
      <trkpt lat="51.4746801" lon="7.3238326"/>
      <trkpt lat="51.4748194" lon="7.3237223"/>
      <trkpt lat="51.4749763" lon="7.3235986"/>
      <trkpt lat="51.4750173" lon="7.3235683"/>
      <trkpt lat="51.4751146" lon="7.3235027"/>
      <trkpt lat="51.4752037" lon="7.3234458"/>
      <trkpt lat="51.4752918" lon="7.3234016"/>
      <trkpt lat="51.4753520" lon="7.3233757"/>
      <trkpt lat="51.4754416" lon="7.3233401"/>
      <trkpt lat="51.4754823" lon="7.3233276"/>
      <trkpt lat="51.4756051" lon="7.3232919"/>
      <trkpt lat="51.4756368" lon="7.3232829"/>
      <trkpt lat="51.4757489" lon="7.3233392"/>
      <trkpt lat="51.4757911" lon="7.3233376"/>
      <trkpt lat="51.4758176" lon="7.3233373"/>
      <trkpt lat="51.4758702" lon="7.3233373"/>
      <trkpt lat="51.4759514" lon="7.3233424"/>
      <trkpt lat="51.4759909" lon="7.3233469"/>
      <trkpt lat="51.4760192" lon="7.3233508"/>
      <trkpt lat="51.4760906" lon="7.3233647"/>
      <trkpt lat="51.4761781" lon="7.3233863"/>
      <trkpt lat="51.4762245" lon="7.3234002"/>
      <trkpt lat="51.4762704" lon="7.3234172"/>
      <trkpt lat="51.4762746" lon="7.3234186"/>
      <trkpt lat="51.4764278" lon="7.3234450"/>
      <trkpt lat="51.4764984" lon="7.3234545"/>
      <trkpt lat="51.4765696" lon="7.3234455"/>
      <trkpt lat="51.4766291" lon="7.3234380"/>
      <trkpt lat="51.4767313" lon="7.3234681"/>
      <trkpt lat="51.4767908" lon="7.3234835"/>
      <trkpt lat="51.4769135" lon="7.3235580"/>
      <trkpt lat="51.4769226" lon="7.3235624"/>
      <trkpt lat="51.4771557" lon="7.3236680"/>
      <trkpt lat="51.4772113" lon="7.3236932"/>
      <trkpt lat="51.4772368" lon="7.3237035"/>
      <trkpt lat="51.4772939" lon="7.3237267"/>
      <trkpt lat="51.4773448" lon="7.3237422"/>
      <trkpt lat="51.4773917" lon="7.3237518"/>
      <trkpt lat="51.4774386" lon="7.3237569"/>
      <trkpt lat="51.4776791" lon="7.3237434"/>
      <trkpt lat="51.4777485" lon="7.3237352"/>
      <trkpt lat="51.4778163" lon="7.3237026"/>
      <trkpt lat="51.4778863" lon="7.3236689"/>
      <trkpt lat="51.4790785" lon="7.3232126"/>
      <trkpt lat="51.4791543" lon="7.3231875"/>
      <trkpt lat="51.4792524" lon="7.3231716"/>
      <trkpt lat="51.4793278" lon="7.3231731"/>
      <trkpt lat="51.4794060" lon="7.3231951"/>
      <trkpt lat="51.4794875" lon="7.3232480"/>
      <trkpt lat="51.4795661" lon="7.3233228"/>
      <trkpt lat="51.4796535" lon="7.3234538"/>
      <trkpt lat="51.4796914" lon="7.3235357"/>
      <trkpt lat="51.4797271" lon="7.3236192"/>
      <trkpt lat="51.4797555" lon="7.3237262"/>
      <trkpt lat="51.4797646" lon="7.3237716"/>
      <trkpt lat="51.4797774" lon="7.3238353"/>
      <trkpt lat="51.4798049" lon="7.3240638"/>
      <trkpt lat="51.4798205" lon="7.3245032"/>
      <trkpt lat="51.4798337" lon="7.3247314"/>
      <trkpt lat="51.4798444" lon="7.3248482"/>
      <trkpt lat="51.4798555" lon="7.3249466"/>
      <trkpt lat="51.4798849" lon="7.3250972"/>
      <trkpt lat="51.4799212" lon="7.3252418"/>
      <trkpt lat="51.4799645" lon="7.3253765"/>
      <trkpt lat="51.4800147" lon="7.3255055"/>
      <trkpt lat="51.4800687" lon="7.3256255"/>
      <trkpt lat="51.4801306" lon="7.3257357"/>
      <trkpt lat="51.4801913" lon="7.3258210"/>
      <trkpt lat="51.4802717" lon="7.3259249"/>
      <trkpt lat="51.4803268" lon="7.3259852"/>
      <trkpt lat="51.4803814" lon="7.3260355"/>
      <trkpt lat="51.4805872" lon="7.3262222"/>
      <trkpt lat="51.4806895" lon="7.3262833"/>
      <trkpt lat="51.4807692" lon="7.3263042"/>
      <trkpt lat="51.4808416" lon="7.3263156"/>
      <trkpt lat="51.4809248" lon="7.3263167"/>
      <trkpt lat="51.4810535" lon="7.3262665"/>
      <trkpt lat="51.4811096" lon="7.3262541"/>
      <trkpt lat="51.4811645" lon="7.3262558"/>
      <trkpt lat="51.4814218" lon="7.3261111"/>
      <trkpt lat="51.4814156" lon="7.3260660"/>
      <trkpt lat="51.4814038" lon="7.3260239"/>
      <trkpt lat="51.4813788" lon="7.3259733"/>
      <trkpt lat="51.4813459" lon="7.3259362"/>
      <trkpt lat="51.4813077" lon="7.3259157"/>
      <trkpt lat="51.4812675" lon="7.3259135"/>
      <trkpt lat="51.4812399" lon="7.3259231"/>
      <trkpt lat="51.4812139" lon="7.3259414"/>
      <trkpt lat="51.4811909" lon="7.3259677"/>
      <trkpt lat="51.4811716" lon="7.3260010"/>
      <trkpt lat="51.4811540" lon="7.3260499"/>
      <trkpt lat="51.4811446" lon="7.3261042"/>
      <trkpt lat="51.4811437" lon="7.3261568"/>
      <trkpt lat="51.4811505" lon="7.3262083"/>
      <trkpt lat="51.4811645" lon="7.3262558"/>
      <trkpt lat="51.4811851" lon="7.3262968"/>
      <trkpt lat="51.4812158" lon="7.3263334"/>
      <trkpt lat="51.4812516" lon="7.3263553"/>
      <trkpt lat="51.4812897" lon="7.3263607"/>
      <trkpt lat="51.4813162" lon="7.3263545"/>
      <trkpt lat="51.4813414" lon="7.3263404"/>
      <trkpt lat="51.4813645" lon="7.3263188"/>
      <trkpt lat="51.4813847" lon="7.3262905"/>
      <trkpt lat="51.4814037" lon="7.3262494"/>
      <trkpt lat="51.4814165" lon="7.3262025"/>
      <trkpt lat="51.4814221" lon="7.3261572"/>
      <trkpt lat="51.4814218" lon="7.3261111"/>
      <trkpt lat="51.4814165" lon="7.3262025"/>
      <trkpt lat="51.4814684" lon="7.3261518"/>
      <trkpt lat="51.4815375" lon="7.3261148"/>
      <trkpt lat="51.4816096" lon="7.3260762"/>
      <trkpt lat="51.4818848" lon="7.3258824"/>
      <trkpt lat="51.4819872" lon="7.3258280"/>
      <trkpt lat="51.4820452" lon="7.3257972"/>
      <trkpt lat="51.4825702" lon="7.3255400"/>
      <trkpt lat="51.4827162" lon="7.3254636"/>
      <trkpt lat="51.4838125" lon="7.3248943"/>
      <trkpt lat="51.4839064" lon="7.3248485"/>
      <trkpt lat="51.4840439" lon="7.3247811"/>
      <trkpt lat="51.4842028" lon="7.3247032"/>
      <trkpt lat="51.4842907" lon="7.3246820"/>
      <trkpt lat="51.4843986" lon="7.3246581"/>
      <trkpt lat="51.4844626" lon="7.3246503"/>
      <trkpt lat="51.4845184" lon="7.3246534"/>
      <trkpt lat="51.4847189" lon="7.3246785"/>
      <trkpt lat="51.4852940" lon="7.3247541"/>
      <trkpt lat="51.4854572" lon="7.3247753"/>
      <trkpt lat="51.4855472" lon="7.3247870"/>
      <trkpt lat="51.4857146" lon="7.3248087"/>
      <trkpt lat="51.4863610" lon="7.3248927"/>
      <trkpt lat="51.4865307" lon="7.3249147"/>
      <trkpt lat="51.4865763" lon="7.3249206"/>
      <trkpt lat="51.4871392" lon="7.3249931"/>
      <trkpt lat="51.4872436" lon="7.3250078"/>
      <trkpt lat="51.4872877" lon="7.3250141"/>
      <trkpt lat="51.4873317" lon="7.3250203"/>
      <trkpt lat="51.4873720" lon="7.3250250"/>
      <trkpt lat="51.4876868" lon="7.3250614"/>
      <trkpt lat="51.4877737" lon="7.3250713"/>
      <trkpt lat="51.4878784" lon="7.3250833"/>
      <trkpt lat="51.4879539" lon="7.3250919"/>
      <trkpt lat="51.4887588" lon="7.3251838"/>
      <trkpt lat="51.4888017" lon="7.3251887"/>
      <trkpt lat="51.4891183" lon="7.3252249"/>
      <trkpt lat="51.4891842" lon="7.3252311"/>
      <trkpt lat="51.4892032" lon="7.3252329"/>
      <trkpt lat="51.4893301" lon="7.3252491"/>
      <trkpt lat="51.4894673" lon="7.3252676"/>
      <trkpt lat="51.4899892" lon="7.3253380"/>
      <trkpt lat="51.4903879" lon="7.3253855"/>
      <trkpt lat="51.4904197" lon="7.3253893"/>
      <trkpt lat="51.4904575" lon="7.3253941"/>
      <trkpt lat="51.4905117" lon="7.3254011"/>
      <trkpt lat="51.4905423" lon="7.3254050"/>
      <trkpt lat="51.4905756" lon="7.3254085"/>
      <trkpt lat="51.4910562" lon="7.3254593"/>
      <trkpt lat="51.4910705" lon="7.3254607"/>
      <trkpt lat="51.4911196" lon="7.3254664"/>
      <trkpt lat="51.4912441" lon="7.3254810"/>
      <trkpt lat="51.4916792" lon="7.3255292"/>
      <trkpt lat="51.4930518" lon="7.3256885"/>
      <trkpt lat="51.4935371" lon="7.3257469"/>
      <trkpt lat="51.4937315" lon="7.3257741"/>
      <trkpt lat="51.4938393" lon="7.3257848"/>
      <trkpt lat="51.4940322" lon="7.3258040"/>
      <trkpt lat="51.4941174" lon="7.3258125"/>
      <trkpt lat="51.4942749" lon="7.3258331"/>
      <trkpt lat="51.4944748" lon="7.3258973"/>
      <trkpt lat="51.4945097" lon="7.3259072"/>
      <trkpt lat="51.4947337" lon="7.3259440"/>
      <trkpt lat="51.4948161" lon="7.3259562"/>
      <trkpt lat="51.4948711" lon="7.3259643"/>
      <trkpt lat="51.4950184" lon="7.3259907"/>
      <trkpt lat="51.4950353" lon="7.3261664"/>
      <trkpt lat="51.4950461" lon="7.3262748"/>
      <trkpt lat="51.4951023" lon="7.3268402"/>
      <trkpt lat="51.4951323" lon="7.3271742"/>
      <trkpt lat="51.4952089" lon="7.3280837"/>
      <trkpt lat="51.4952199" lon="7.3282090"/>
      <trkpt lat="51.4952309" lon="7.3283430"/>
      <trkpt lat="51.4952454" lon="7.3285187"/>
      <trkpt lat="51.4952918" lon="7.3290588"/>
      <trkpt lat="51.4953331" lon="7.3295996"/>
      <trkpt lat="51.4953762" lon="7.3304667"/>
      <trkpt lat="51.4953825" lon="7.3305944"/>
      <trkpt lat="51.4953950" lon="7.3308328"/>
      <trkpt lat="51.4954111" lon="7.3311204"/>
      <trkpt lat="51.4954216" lon="7.3312665"/>
      <trkpt lat="51.4954394" lon="7.3314079"/>
      <trkpt lat="51.4955242" lon="7.3319847"/>
      <trkpt lat="51.4955506" lon="7.3321671"/>
      <trkpt lat="51.4956166" lon="7.3326223"/>
      <trkpt lat="51.4956303" lon="7.3327622"/>
      <trkpt lat="51.4956357" lon="7.3328423"/>
      <trkpt lat="51.4956399" lon="7.3329059"/>
      <trkpt lat="51.4956496" lon="7.3332432"/>
      <trkpt lat="51.4956474" lon="7.3334734"/>
      <trkpt lat="51.4956443" lon="7.3338084"/>
      <trkpt lat="51.4956434" lon="7.3339062"/>
      <trkpt lat="51.4956413" lon="7.3341442"/>
      <trkpt lat="51.4956401" lon="7.3343838"/>
      <trkpt lat="51.4956374" lon="7.3346478"/>
      <trkpt lat="51.4956528" lon="7.3349190"/>
      <trkpt lat="51.4956971" lon="7.3353083"/>
      <trkpt lat="51.4957111" lon="7.3354133"/>
      <trkpt lat="51.4957340" lon="7.3355034"/>
      <trkpt lat="51.4957683" lon="7.3355888"/>
      <trkpt lat="51.4957744" lon="7.3356012"/>
      <trkpt lat="51.4959306" lon="7.3358290"/>
      <trkpt lat="51.4959854" lon="7.3359038"/>
      <trkpt lat="51.4960500" lon="7.3359918"/>
      <trkpt lat="51.4960898" lon="7.3360470"/>
      <trkpt lat="51.4961549" lon="7.3361374"/>
      <trkpt lat="51.4962079" lon="7.3362573"/>
      <trkpt lat="51.4962544" lon="7.3363861"/>
      <trkpt lat="51.4963084" lon="7.3365931"/>
      <trkpt lat="51.4964377" lon="7.3371386"/>
      <trkpt lat="51.4965786" lon="7.3377443"/>
      <trkpt lat="51.4966956" lon="7.3382484"/>
      <trkpt lat="51.4967371" lon="7.3384254"/>
      <trkpt lat="51.4967954" lon="7.3387108"/>
      <trkpt lat="51.4968191" lon="7.3389112"/>
      <trkpt lat="51.4968235" lon="7.3389979"/>
      <trkpt lat="51.4968439" lon="7.3394012"/>
      <trkpt lat="51.4968516" lon="7.3395536"/>
      <trkpt lat="51.4968687" lon="7.3398925"/>
      <trkpt lat="51.4968858" lon="7.3402332"/>
      <trkpt lat="51.4968920" lon="7.3406142"/>
      <trkpt lat="51.4968729" lon="7.3410070"/>
      <trkpt lat="51.4968652" lon="7.3411650"/>
      <trkpt lat="51.4968291" lon="7.3417312"/>
      <trkpt lat="51.4968226" lon="7.3421611"/>
      <trkpt lat="51.4968213" lon="7.3425177"/>
      <trkpt lat="51.4968249" lon="7.3429079"/>
      <trkpt lat="51.4968362" lon="7.3431595"/>
      <trkpt lat="51.4968948" lon="7.3431313"/>
      <trkpt lat="51.4969622" lon="7.3430801"/>
      <trkpt lat="51.4970093" lon="7.3430443"/>
      <trkpt lat="51.4970923" lon="7.3429454"/>
      <trkpt lat="51.4971756" lon="7.3428304"/>
      <trkpt lat="51.4972533" lon="7.3427188"/>
      <trkpt lat="51.4973052" lon="7.3426421"/>
      <trkpt lat="51.4975483" lon="7.3422868"/>
      <trkpt lat="51.4975653" lon="7.3422551"/>
      <trkpt lat="51.4975873" lon="7.3422112"/>
      <trkpt lat="51.4976001" lon="7.3421578"/>
      <trkpt lat="51.4977245" lon="7.3415335"/>
      <trkpt lat="51.4977584" lon="7.3413631"/>
      <trkpt lat="51.4977896" lon="7.3412067"/>
      <trkpt lat="51.4978751" lon="7.3408547"/>
      <trkpt lat="51.4979017" lon="7.3407570"/>
      <trkpt lat="51.4979331" lon="7.3406676"/>
      <trkpt lat="51.4981556" lon="7.3400373"/>
      <trkpt lat="51.4981927" lon="7.3399375"/>
      <trkpt lat="51.4982583" lon="7.3398296"/>
      <trkpt lat="51.4983993" lon="7.3396676"/>
      <trkpt lat="51.4985078" lon="7.3395732"/>
      <trkpt lat="51.4985448" lon="7.3395411"/>
      <trkpt lat="51.4986327" lon="7.3394771"/>
      <trkpt lat="51.4988449" lon="7.3393226"/>
      <trkpt lat="51.4993190" lon="7.3389647"/>
      <trkpt lat="51.4993652" lon="7.3389542"/>
      <trkpt lat="51.4993587" lon="7.3383176"/>
      <trkpt lat="51.4993550" lon="7.3380475"/>
      <trkpt lat="51.4993517" lon="7.3378900"/>
      <trkpt lat="51.4993472" lon="7.3377897"/>
      <trkpt lat="51.4993390" lon="7.3376575"/>
      <trkpt lat="51.4993273" lon="7.3375212"/>
      <trkpt lat="51.4993100" lon="7.3373782"/>
      <trkpt lat="51.4992800" lon="7.3371939"/>
      <trkpt lat="51.4992569" lon="7.3370531"/>
      <trkpt lat="51.4991947" lon="7.3366909"/>
      <trkpt lat="51.4991912" lon="7.3366747"/>
      <trkpt lat="51.4991570" lon="7.3364698"/>
      <trkpt lat="51.4991477" lon="7.3364162"/>
      <trkpt lat="51.4991312" lon="7.3363209"/>
      <trkpt lat="51.4990229" lon="7.3356188"/>
      <trkpt lat="51.4990175" lon="7.3355837"/>
      <trkpt lat="51.4989805" lon="7.3353084"/>
      <trkpt lat="51.4989571" lon="7.3350920"/>
      <trkpt lat="51.4989455" lon="7.3349783"/>
      <trkpt lat="51.4989237" lon="7.3347510"/>
      <trkpt lat="51.4989084" lon="7.3345576"/>
      <trkpt lat="51.4988937" lon="7.3342858"/>
      <trkpt lat="51.4988902" lon="7.3341926"/>
      <trkpt lat="51.4988877" lon="7.3340345"/>
      <trkpt lat="51.4988859" lon="7.3339218"/>
      <trkpt lat="51.4988841" lon="7.3338090"/>
      <trkpt lat="51.4988897" lon="7.3334786"/>
      <trkpt lat="51.4989007" lon="7.3332051"/>
      <trkpt lat="51.4989048" lon="7.3331014"/>
      <trkpt lat="51.4989134" lon="7.3329565"/>
      <trkpt lat="51.4989226" lon="7.3328151"/>
      <trkpt lat="51.4989383" lon="7.3327194"/>
      <trkpt lat="51.4989562" lon="7.3326393"/>
      <trkpt lat="51.4989863" lon="7.3325219"/>
      <trkpt lat="51.4990075" lon="7.3324713"/>
      <trkpt lat="51.4990249" lon="7.3324269"/>
      <trkpt lat="51.4990478" lon="7.3323814"/>
      <trkpt lat="51.4990652" lon="7.3323484"/>
      <trkpt lat="51.4991022" lon="7.3322887"/>
      <trkpt lat="51.4991130" lon="7.3322733"/>
      <trkpt lat="51.4991622" lon="7.3322147"/>
      <trkpt lat="51.4992306" lon="7.3321526"/>
      <trkpt lat="51.4993017" lon="7.3321076"/>
      <trkpt lat="51.4993697" lon="7.3320786"/>
      <trkpt lat="51.4994370" lon="7.3320708"/>
      <trkpt lat="51.4995030" lon="7.3320672"/>
      <trkpt lat="51.4996424" lon="7.3320708"/>
      <trkpt lat="51.4997717" lon="7.3320792"/>
      <trkpt lat="51.4998640" lon="7.3320832"/>
      <trkpt lat="51.4998999" lon="7.3320781"/>
      <trkpt lat="51.4999574" lon="7.3320594"/>
      <trkpt lat="51.5000094" lon="7.3319953"/>
      <trkpt lat="51.5000410" lon="7.3319154"/>
      <trkpt lat="51.5000678" lon="7.3317578"/>
      <trkpt lat="51.5000745" lon="7.3315831"/>
      <trkpt lat="51.5000847" lon="7.3313447"/>
      <trkpt lat="51.5001017" lon="7.3309936"/>
      <trkpt lat="51.5001099" lon="7.3306936"/>
      <trkpt lat="51.5001228" lon="7.3304242"/>
      <trkpt lat="51.5001405" lon="7.3300569"/>
      <trkpt lat="51.5001542" lon="7.3297918"/>
      <trkpt lat="51.5001619" lon="7.3296257"/>
      <trkpt lat="51.5001739" lon="7.3292988"/>
      <trkpt lat="51.5001768" lon="7.3292140"/>
      <trkpt lat="51.5001973" lon="7.3288666"/>
      <trkpt lat="51.5002377" lon="7.3286726"/>
      <trkpt lat="51.5002914" lon="7.3285449"/>
      <trkpt lat="51.5003213" lon="7.3284851"/>
      <trkpt lat="51.5004518" lon="7.3283155"/>
      <trkpt lat="51.5004942" lon="7.3282610"/>
      <trkpt lat="51.5006919" lon="7.3280012"/>
      <trkpt lat="51.5007810" lon="7.3279034"/>
      <trkpt lat="51.5009207" lon="7.3277501"/>
      <trkpt lat="51.5011750" lon="7.3275095"/>
      <trkpt lat="51.5013034" lon="7.3273984"/>
      <trkpt lat="51.5013385" lon="7.3273658"/>
      <trkpt lat="51.5014343" lon="7.3272776"/>
      <trkpt lat="51.5015161" lon="7.3272004"/>
      <trkpt lat="51.5016881" lon="7.3270390"/>
      <trkpt lat="51.5017553" lon="7.3269676"/>
      <trkpt lat="51.5018243" lon="7.3268751"/>
      <trkpt lat="51.5019320" lon="7.3267020"/>
      <trkpt lat="51.5020557" lon="7.3264610"/>
      <trkpt lat="51.5021130" lon="7.3262777"/>
      <trkpt lat="51.5022016" lon="7.3259608"/>
      <trkpt lat="51.5022371" lon="7.3258074"/>
      <trkpt lat="51.5022724" lon="7.3256368"/>
      <trkpt lat="51.5023122" lon="7.3254462"/>
      <trkpt lat="51.5023328" lon="7.3253473"/>
      <trkpt lat="51.5023769" lon="7.3251552"/>
      <trkpt lat="51.5025027" lon="7.3251214"/>
      <trkpt lat="51.5025421" lon="7.3251133"/>
      <trkpt lat="51.5027329" lon="7.3250741"/>
      <trkpt lat="51.5035945" lon="7.3248971"/>
      <trkpt lat="51.5039385" lon="7.3248238"/>
      <trkpt lat="51.5042705" lon="7.3247602"/>
      <trkpt lat="51.5043923" lon="7.3247368"/>
      <trkpt lat="51.5044559" lon="7.3247228"/>
      <trkpt lat="51.5044799" lon="7.3247175"/>
      <trkpt lat="51.5047298" lon="7.3246605"/>
      <trkpt lat="51.5048227" lon="7.3246413"/>
      <trkpt lat="51.5049318" lon="7.3246178"/>
      <trkpt lat="51.5051398" lon="7.3245749"/>
      <trkpt lat="51.5057113" lon="7.3244642"/>
      <trkpt lat="51.5059728" lon="7.3244138"/>
      <trkpt lat="51.5061115" lon="7.3243872"/>
      <trkpt lat="51.5061604" lon="7.3243776"/>
      <trkpt lat="51.5061707" lon="7.3243756"/>
      <trkpt lat="51.5064102" lon="7.3243148"/>
      <trkpt lat="51.5065839" lon="7.3242673"/>
      <trkpt lat="51.5066172" lon="7.3242586"/>
      <trkpt lat="51.5067703" lon="7.3242188"/>
      <trkpt lat="51.5068838" lon="7.3241804"/>
      <trkpt lat="51.5069136" lon="7.3241703"/>
      <trkpt lat="51.5070929" lon="7.3241101"/>
      <trkpt lat="51.5072001" lon="7.3240641"/>
      <trkpt lat="51.5072537" lon="7.3240398"/>
      <trkpt lat="51.5075449" lon="7.3239096"/>
      <trkpt lat="51.5075827" lon="7.3238927"/>
      <trkpt lat="51.5075979" lon="7.3238853"/>
      <trkpt lat="51.5076544" lon="7.3238578"/>
      <trkpt lat="51.5077391" lon="7.3238165"/>
      <trkpt lat="51.5079294" lon="7.3237242"/>
      <trkpt lat="51.5081595" lon="7.3236186"/>
      <trkpt lat="51.5081902" lon="7.3236047"/>
      <trkpt lat="51.5082549" lon="7.3235733"/>
      <trkpt lat="51.5083995" lon="7.3234998"/>
      <trkpt lat="51.5085291" lon="7.3234347"/>
      <trkpt lat="51.5090615" lon="7.3231689"/>
      <trkpt lat="51.5091520" lon="7.3231234"/>
      <trkpt lat="51.5093861" lon="7.3230057"/>
      <trkpt lat="51.5095331" lon="7.3229386"/>
      <trkpt lat="51.5098146" lon="7.3228088"/>
      <trkpt lat="51.5101879" lon="7.3226225"/>
      <trkpt lat="51.5106686" lon="7.3223828"/>
      <trkpt lat="51.5109344" lon="7.3222498"/>
      <trkpt lat="51.5110939" lon="7.3221699"/>
      <trkpt lat="51.5112710" lon="7.3220812"/>
      <trkpt lat="51.5113638" lon="7.3220382"/>
      <trkpt lat="51.5115287" lon="7.3219549"/>
      <trkpt lat="51.5115996" lon="7.3219172"/>
      <trkpt lat="51.5116440" lon="7.3218941"/>
      <trkpt lat="51.5118968" lon="7.3217728"/>
      <trkpt lat="51.5119780" lon="7.3217337"/>
      <trkpt lat="51.5122537" lon="7.3215988"/>
      <trkpt lat="51.5126810" lon="7.3213898"/>
      <trkpt lat="51.5129441" lon="7.3212899"/>
      <trkpt lat="51.5130619" lon="7.3212551"/>
      <trkpt lat="51.5132048" lon="7.3212304"/>
      <trkpt lat="51.5133143" lon="7.3212176"/>
      <trkpt lat="51.5134146" lon="7.3212199"/>
      <trkpt lat="51.5134858" lon="7.3212212"/>
      <trkpt lat="51.5135387" lon="7.3212235"/>
      <trkpt lat="51.5135614" lon="7.3212251"/>
      <trkpt lat="51.5136811" lon="7.3212323"/>
      <trkpt lat="51.5137725" lon="7.3212498"/>
      <trkpt lat="51.5139235" lon="7.3212901"/>
      <trkpt lat="51.5139693" lon="7.3213037"/>
      <trkpt lat="51.5141566" lon="7.3213923"/>
      <trkpt lat="51.5142909" lon="7.3214762"/>
      <trkpt lat="51.5143071" lon="7.3214863"/>
      <trkpt lat="51.5144618" lon="7.3215860"/>
      <trkpt lat="51.5145142" lon="7.3216274"/>
      <trkpt lat="51.5146162" lon="7.3217057"/>
      <trkpt lat="51.5146452" lon="7.3217285"/>
      <trkpt lat="51.5147670" lon="7.3218272"/>
      <trkpt lat="51.5150416" lon="7.3220512"/>
      <trkpt lat="51.5151140" lon="7.3221103"/>
      <trkpt lat="51.5154066" lon="7.3223454"/>
      <trkpt lat="51.5154365" lon="7.3223690"/>
      <trkpt lat="51.5156444" lon="7.3225330"/>
      <trkpt lat="51.5157248" lon="7.3225983"/>
      <trkpt lat="51.5160784" lon="7.3228953"/>
      <trkpt lat="51.5160960" lon="7.3229085"/>
      <trkpt lat="51.5161515" lon="7.3229518"/>
      <trkpt lat="51.5164600" lon="7.3232040"/>
      <trkpt lat="51.5165810" lon="7.3233019"/>
      <trkpt lat="51.5166966" lon="7.3233966"/>
      <trkpt lat="51.5167978" lon="7.3234808"/>
      <trkpt lat="51.5168602" lon="7.3235324"/>
      <trkpt lat="51.5169775" lon="7.3236314"/>
      <trkpt lat="51.5171744" lon="7.3237812"/>
      <trkpt lat="51.5173141" lon="7.3238961"/>
      <trkpt lat="51.5174892" lon="7.3240459"/>
      <trkpt lat="51.5175704" lon="7.3241097"/>
      <trkpt lat="51.5177009" lon="7.3242154"/>
      <trkpt lat="51.5179099" lon="7.3243836"/>
      <trkpt lat="51.5179378" lon="7.3244061"/>
      <trkpt lat="51.5180592" lon="7.3244913"/>
      <trkpt lat="51.5181772" lon="7.3245786"/>
      <trkpt lat="51.5182094" lon="7.3246024"/>
      <trkpt lat="51.5185073" lon="7.3248228"/>
      <trkpt lat="51.5187216" lon="7.3249927"/>
      <trkpt lat="51.5187568" lon="7.3250206"/>
      <trkpt lat="51.5188257" lon="7.3250758"/>
      <trkpt lat="51.5189353" lon="7.3251635"/>
      <trkpt lat="51.5189544" lon="7.3251789"/>
      <trkpt lat="51.5192152" lon="7.3253475"/>
      <trkpt lat="51.5193225" lon="7.3254053"/>
      <trkpt lat="51.5194330" lon="7.3254581"/>
      <trkpt lat="51.5195694" lon="7.3255004"/>
      <trkpt lat="51.5196696" lon="7.3255176"/>
      <trkpt lat="51.5197061" lon="7.3255239"/>
      <trkpt lat="51.5198424" lon="7.3255344"/>
      <trkpt lat="51.5199566" lon="7.3255396"/>
      <trkpt lat="51.5200453" lon="7.3255317"/>
      <trkpt lat="51.5201507" lon="7.3255161"/>
      <trkpt lat="51.5202069" lon="7.3255032"/>
      <trkpt lat="51.5203664" lon="7.3254691"/>
      <trkpt lat="51.5204566" lon="7.3254449"/>
      <trkpt lat="51.5205539" lon="7.3254184"/>
      <trkpt lat="51.5205991" lon="7.3254067"/>
      <trkpt lat="51.5206896" lon="7.3253832"/>
      <trkpt lat="51.5210217" lon="7.3252950"/>
      <trkpt lat="51.5211235" lon="7.3252684"/>
      <trkpt lat="51.5211612" lon="7.3252584"/>
      <trkpt lat="51.5212006" lon="7.3252474"/>
      <trkpt lat="51.5213014" lon="7.3252109"/>
      <trkpt lat="51.5215076" lon="7.3251530"/>
      <trkpt lat="51.5216909" lon="7.3251035"/>
      <trkpt lat="51.5219041" lon="7.3250451"/>
      <trkpt lat="51.5219540" lon="7.3250310"/>
      <trkpt lat="51.5220226" lon="7.3250137"/>
      <trkpt lat="51.5220552" lon="7.3250048"/>
      <trkpt lat="51.5225581" lon="7.3248682"/>
      <trkpt lat="51.5227217" lon="7.3248258"/>
      <trkpt lat="51.5227409" lon="7.3248209"/>
      <trkpt lat="51.5229303" lon="7.3247627"/>
      <trkpt lat="51.5231023" lon="7.3246932"/>
      <trkpt lat="51.5233033" lon="7.3246297"/>
      <trkpt lat="51.5234065" lon="7.3246007"/>
      <trkpt lat="51.5236568" lon="7.3245331"/>
      <trkpt lat="51.5237444" lon="7.3245110"/>
      <trkpt lat="51.5238080" lon="7.3244960"/>
      <trkpt lat="51.5242287" lon="7.3243653"/>
      <trkpt lat="51.5244374" lon="7.3243004"/>
      <trkpt lat="51.5245306" lon="7.3242702"/>
      <trkpt lat="51.5246385" lon="7.3242306"/>
      <trkpt lat="51.5247992" lon="7.3241717"/>
      <trkpt lat="51.5249507" lon="7.3241099"/>
      <trkpt lat="51.5252927" lon="7.3239368"/>
      <trkpt lat="51.5255066" lon="7.3238324"/>
      <trkpt lat="51.5256490" lon="7.3237634"/>
      <trkpt lat="51.5257554" lon="7.3237118"/>
      <trkpt lat="51.5257844" lon="7.3236977"/>
      <trkpt lat="51.5258096" lon="7.3236845"/>
      <trkpt lat="51.5258284" lon="7.3236744"/>
      <trkpt lat="51.5258728" lon="7.3236504"/>
      <trkpt lat="51.5258888" lon="7.3236423"/>
      <trkpt lat="51.5261661" lon="7.3235101"/>
      <trkpt lat="51.5263289" lon="7.3234263"/>
      <trkpt lat="51.5263905" lon="7.3233919"/>
      <trkpt lat="51.5264203" lon="7.3233773"/>
      <trkpt lat="51.5266106" lon="7.3232836"/>
      <trkpt lat="51.5266404" lon="7.3232690"/>
      <trkpt lat="51.5267989" lon="7.3231911"/>
      <trkpt lat="51.5270018" lon="7.3230913"/>
      <trkpt lat="51.5270552" lon="7.3230650"/>
      <trkpt lat="51.5270977" lon="7.3230441"/>
      <trkpt lat="51.5271722" lon="7.3230074"/>
      <trkpt lat="51.5273005" lon="7.3229444"/>
      <trkpt lat="51.5273152" lon="7.3229371"/>
      <trkpt lat="51.5273678" lon="7.3229113"/>
      <trkpt lat="51.5275219" lon="7.3228355"/>
      <trkpt lat="51.5276478" lon="7.3227736"/>
      <trkpt lat="51.5277038" lon="7.3227460"/>
      <trkpt lat="51.5280204" lon="7.3225903"/>
      <trkpt lat="51.5280817" lon="7.3225602"/>
      <trkpt lat="51.5284446" lon="7.3223817"/>
      <trkpt lat="51.5285085" lon="7.3223503"/>
      <trkpt lat="51.5285475" lon="7.3223311"/>
      <trkpt lat="51.5286685" lon="7.3222716"/>
      <trkpt lat="51.5287420" lon="7.3222355"/>
      <trkpt lat="51.5287641" lon="7.3222246"/>
      <trkpt lat="51.5288058" lon="7.3222041"/>
      <trkpt lat="51.5288299" lon="7.3221896"/>
      <trkpt lat="51.5290691" lon="7.3220669"/>
      <trkpt lat="51.5291213" lon="7.3220399"/>
      <trkpt lat="51.5293628" lon="7.3219148"/>
      <trkpt lat="51.5297312" lon="7.3217316"/>
      <trkpt lat="51.5297864" lon="7.3217041"/>
      <trkpt lat="51.5301163" lon="7.3215401"/>
      <trkpt lat="51.5304215" lon="7.3213884"/>
      <trkpt lat="51.5306046" lon="7.3212957"/>
      <trkpt lat="51.5308713" lon="7.3211621"/>
      <trkpt lat="51.5310074" lon="7.3210917"/>
      <trkpt lat="51.5310565" lon="7.3210620"/>
      <trkpt lat="51.5313028" lon="7.3209395"/>
      <trkpt lat="51.5317166" lon="7.3207336"/>
      <trkpt lat="51.5317425" lon="7.3207207"/>
      <trkpt lat="51.5318888" lon="7.3206479"/>
      <trkpt lat="51.5321031" lon="7.3205413"/>
      <trkpt lat="51.5325672" lon="7.3203103"/>
      <trkpt lat="51.5327661" lon="7.3202113"/>
      <trkpt lat="51.5330916" lon="7.3200494"/>
      <trkpt lat="51.5336942" lon="7.3197495"/>
      <trkpt lat="51.5339406" lon="7.3196265"/>
      <trkpt lat="51.5344249" lon="7.3193951"/>
      <trkpt lat="51.5347954" lon="7.3192224"/>
      <trkpt lat="51.5350150" lon="7.3191223"/>
      <trkpt lat="51.5351923" lon="7.3190458"/>
      <trkpt lat="51.5353805" lon="7.3189746"/>
      <trkpt lat="51.5354433" lon="7.3189529"/>
      <trkpt lat="51.5355704" lon="7.3189129"/>
      <trkpt lat="51.5358526" lon="7.3188305"/>
      <trkpt lat="51.5361686" lon="7.3187383"/>
      <trkpt lat="51.5365011" lon="7.3186499"/>
      <trkpt lat="51.5365169" lon="7.3186462"/>
      <trkpt lat="51.5365663" lon="7.3186348"/>
      <trkpt lat="51.5368903" lon="7.3185475"/>
      <trkpt lat="51.5370409" lon="7.3185068"/>
      <trkpt lat="51.5375307" lon="7.3183555"/>
      <trkpt lat="51.5378122" lon="7.3182814"/>
      <trkpt lat="51.5379209" lon="7.3182594"/>
      <trkpt lat="51.5386563" lon="7.3180673"/>
      <trkpt lat="51.5388359" lon="7.3180212"/>
      <trkpt lat="51.5388744" lon="7.3180115"/>
      <trkpt lat="51.5389154" lon="7.3180011"/>
      <trkpt lat="51.5389562" lon="7.3179903"/>
      <trkpt lat="51.5391355" lon="7.3179454"/>
      <trkpt lat="51.5393054" lon="7.3179052"/>
      <trkpt lat="51.5395323" lon="7.3178451"/>
      <trkpt lat="51.5396284" lon="7.3178207"/>
      <trkpt lat="51.5401897" lon="7.3176807"/>
      <trkpt lat="51.5407108" lon="7.3175444"/>
      <trkpt lat="51.5411249" lon="7.3174418"/>
      <trkpt lat="51.5413256" lon="7.3173916"/>
      <trkpt lat="51.5415178" lon="7.3173436"/>
      <trkpt lat="51.5418546" lon="7.3172648"/>
      <trkpt lat="51.5420503" lon="7.3172090"/>
      <trkpt lat="51.5422936" lon="7.3171386"/>
      <trkpt lat="51.5424468" lon="7.3170825"/>
      <trkpt lat="51.5425338" lon="7.3170509"/>
      <trkpt lat="51.5426637" lon="7.3169771"/>
      <trkpt lat="51.5429295" lon="7.3168100"/>
      <trkpt lat="51.5430419" lon="7.3167403"/>
      <trkpt lat="51.5431894" lon="7.3166501"/>
      <trkpt lat="51.5432683" lon="7.3165981"/>
      <trkpt lat="51.5433791" lon="7.3165265"/>
      <trkpt lat="51.5436063" lon="7.3163786"/>
      <trkpt lat="51.5437163" lon="7.3163069"/>
      <trkpt lat="51.5439111" lon="7.3161767"/>
      <trkpt lat="51.5440449" lon="7.3160824"/>
      <trkpt lat="51.5441556" lon="7.3160237"/>
      <trkpt lat="51.5442945" lon="7.3159779"/>
      <trkpt lat="51.5443749" lon="7.3159550"/>
      <trkpt lat="51.5445033" lon="7.3159347"/>
      <trkpt lat="51.5447173" lon="7.3159489"/>
      <trkpt lat="51.5448712" lon="7.3159791"/>
      <trkpt lat="51.5449334" lon="7.3159949"/>
      <trkpt lat="51.5450212" lon="7.3157100"/>
      <trkpt lat="51.5450336" lon="7.3156386"/>
      <trkpt lat="51.5450565" lon="7.3155638"/>
      <trkpt lat="51.5450878" lon="7.3154907"/>
      <trkpt lat="51.5451270" lon="7.3154213"/>
      <trkpt lat="51.5451849" lon="7.3153462"/>
      <trkpt lat="51.5453187" lon="7.3152444"/>
      <trkpt lat="51.5459631" lon="7.3148339"/>
      <trkpt lat="51.5461769" lon="7.3146962"/>
      <trkpt lat="51.5463465" lon="7.3145859"/>
      <trkpt lat="51.5466058" lon="7.3144201"/>
      <trkpt lat="51.5467025" lon="7.3143600"/>
      <trkpt lat="51.5467637" lon="7.3143181"/>
      <trkpt lat="51.5469350" lon="7.3141914"/>
      <trkpt lat="51.5471163" lon="7.3140343"/>
      <trkpt lat="51.5474247" lon="7.3137410"/>
      <trkpt lat="51.5475589" lon="7.3135967"/>
      <trkpt lat="51.5478132" lon="7.3133451"/>
      <trkpt lat="51.5480418" lon="7.3130469"/>
      <trkpt lat="51.5480657" lon="7.3130139"/>
      <trkpt lat="51.5481098" lon="7.3129529"/>
      <trkpt lat="51.5481409" lon="7.3129031"/>
      <trkpt lat="51.5482244" lon="7.3127682"/>
      <trkpt lat="51.5483323" lon="7.3126052"/>
      <trkpt lat="51.5484555" lon="7.3124193"/>
      <trkpt lat="51.5485726" lon="7.3122751"/>
      <trkpt lat="51.5486786" lon="7.3121611"/>
      <trkpt lat="51.5487853" lon="7.3120531"/>
      <trkpt lat="51.5488511" lon="7.3119698"/>
      <trkpt lat="51.5490259" lon="7.3117038"/>
      <trkpt lat="51.5491572" lon="7.3114168"/>
      <trkpt lat="51.5493762" lon="7.3108368"/>
      <trkpt lat="51.5494785" lon="7.3105620"/>
      <trkpt lat="51.5495020" lon="7.3105015"/>
      <trkpt lat="51.5495253" lon="7.3104416"/>
      <trkpt lat="51.5496333" lon="7.3101431"/>
      <trkpt lat="51.5496495" lon="7.3101001"/>
      <trkpt lat="51.5497424" lon="7.3098606"/>
      <trkpt lat="51.5498092" lon="7.3096620"/>
      <trkpt lat="51.5498778" lon="7.3094213"/>
      <trkpt lat="51.5499216" lon="7.3092632"/>
      <trkpt lat="51.5500183" lon="7.3088689"/>
      <trkpt lat="51.5500861" lon="7.3085592"/>
      <trkpt lat="51.5501275" lon="7.3082457"/>
      <trkpt lat="51.5501405" lon="7.3081076"/>
      <trkpt lat="51.5501484" lon="7.3079655"/>
      <trkpt lat="51.5501501" lon="7.3078313"/>
      <trkpt lat="51.5501359" lon="7.3076939"/>
      <trkpt lat="51.5501097" lon="7.3075741"/>
      <trkpt lat="51.5500742" lon="7.3074833"/>
      <trkpt lat="51.5500296" lon="7.3074009"/>
      <trkpt lat="51.5500004" lon="7.3073519"/>
      <trkpt lat="51.5499362" lon="7.3072715"/>
      <trkpt lat="51.5498016" lon="7.3071831"/>
      <trkpt lat="51.5496826" lon="7.3071541"/>
      <trkpt lat="51.5495710" lon="7.3071774"/>
      <trkpt lat="51.5494223" lon="7.3072571"/>
      <trkpt lat="51.5493192" lon="7.3073629"/>
      <trkpt lat="51.5492617" lon="7.3074219"/>
      <trkpt lat="51.5489878" lon="7.3078004"/>
      <trkpt lat="51.5489946" lon="7.3079011"/>
      <trkpt lat="51.5490083" lon="7.3079799"/>
      <trkpt lat="51.5490292" lon="7.3080385"/>
      <trkpt lat="51.5490521" lon="7.3080833"/>
      <trkpt lat="51.5492523" lon="7.3084673"/>
      <trkpt lat="51.5494280" lon="7.3087826"/>
      <trkpt lat="51.5496004" lon="7.3090207"/>
    </trkseg>
  </trk>
</gpx>