<?xml version="1.0" encoding="UTF-8"?>
<gpx version="1.1" creator="Linienjagd Castrop-Rauxel" xmlns="http://www.topografix.com/GPX/1/1">
  <metadata><name>Linie 481 – komplette Linie</name><desc>Bus 481: Castrop =&gt; Becklem | 16.74 km | 35 Haltestellen</desc></metadata>
  <wpt lat="51.5491719" lon="7.3085843"><name>01 Castrop Münsterplatz</name><sym>Flag</sym></wpt>
  <wpt lat="51.5472252" lon="7.3116389"><name>02 Castrop Markt</name><sym>Flag</sym></wpt>
  <wpt lat="51.5448048" lon="7.3142836"><name>03 Beethovenstraße</name><sym>Flag</sym></wpt>
  <wpt lat="51.5501337" lon="7.3146592"><name>04 Kolpingstraße</name><sym>Flag</sym></wpt>
  <wpt lat="51.5514661" lon="7.3132261"><name>05 Ackerstraße</name><sym>Flag</sym></wpt>
  <wpt lat="51.5555167" lon="7.3107807"><name>06 Castrop Betriebshof</name><sym>Flag</sym></wpt>
  <wpt lat="51.5581128" lon="7.3118004"><name>07 Orionstraße</name><sym>Flag</sym></wpt>
  <wpt lat="51.5659681" lon="7.3170890"><name>08 Grutholzallee</name><sym>Flag</sym></wpt>
  <wpt lat="51.5676066" lon="7.3186192"><name>09 Evangelisches Krankenhaus</name><sym>Flag</sym></wpt>
  <wpt lat="51.5660578" lon="7.3171501"><name>10 Grutholzallee</name><sym>Flag</sym></wpt>
  <wpt lat="51.5655878" lon="7.3091845"><name>11 Rathaus/Europaplatz</name><sym>Flag</sym></wpt>
  <wpt lat="51.5671126" lon="7.3078032"><name>12 Liebigstraße</name><sym>Flag</sym></wpt>
  <wpt lat="51.5697241" lon="7.3066903"><name>13 Schulstraße</name><sym>Flag</sym></wpt>
  <wpt lat="51.5726603" lon="7.3049110"><name>14 Castrop-Rauxel Hbf</name><sym>Flag</sym></wpt>
  <wpt lat="51.5713240" lon="7.2974190"><name>15 Vördestraße</name><sym>Flag</sym></wpt>
  <wpt lat="51.5693262" lon="7.2981464"><name>16 Waldfriedhof</name><sym>Flag</sym></wpt>
  <wpt lat="51.5707022" lon="7.3000628"><name>17 Moritzstraße</name><sym>Flag</sym></wpt>
  <wpt lat="51.5729972" lon="7.3053114"><name>18 Castrop-Rauxel Hbf</name><sym>Flag</sym></wpt>
  <wpt lat="51.5764474" lon="7.3042046"><name>19 Zeche Victor I/II</name><sym>Flag</sym></wpt>
  <wpt lat="51.5812348" lon="7.3043325"><name>20 Siemensstraße</name><sym>Flag</sym></wpt>
  <wpt lat="51.5839712" lon="7.3044088"><name>21 Hannemannstraße</name><sym>Flag</sym></wpt>
  <wpt lat="51.5882697" lon="7.3037993"><name>22 Lessingstraße</name><sym>Flag</sym></wpt>
  <wpt lat="51.5931576" lon="7.3030470"><name>23 Gotenstraße</name><sym>Flag</sym></wpt>
  <wpt lat="51.5943394" lon="7.3069140"><name>24 Habinghorst Friedhof</name><sym>Flag</sym></wpt>
  <wpt lat="51.5931209" lon="7.3140547"><name>25 Dünnebank</name><sym>Flag</sym></wpt>
  <wpt lat="51.5938925" lon="7.3203985"><name>26 Borghagener Straße</name><sym>Flag</sym></wpt>
  <wpt lat="51.5972347" lon="7.3209509"><name>27 Insterburger Straße</name><sym>Flag</sym></wpt>
  <wpt lat="51.6000087" lon="7.3192045"><name>28 Hagenstraße</name><sym>Flag</sym></wpt>
  <wpt lat="51.5997872" lon="7.3136852"><name>29 Vockmannshof</name><sym>Flag</sym></wpt>
  <wpt lat="51.5995681" lon="7.3116151"><name>30 Henrichenburg Mitte</name><sym>Flag</sym></wpt>
  <wpt lat="51.5993845" lon="7.3059235"><name>31 Schöttelkamp</name><sym>Flag</sym></wpt>
  <wpt lat="51.6006811" lon="7.3001925"><name>32 Wartburg</name><sym>Flag</sym></wpt>
  <wpt lat="51.6072669" lon="7.3051230"><name>33 Becklemer Straße</name><sym>Flag</sym></wpt>
  <wpt lat="51.6098500" lon="7.3023858"><name>34 Becklem Waldstraße</name><sym>Flag</sym></wpt>
  <wpt lat="51.6112774" lon="7.3004856"><name>35 Becklemer Heide</name><sym>Flag</sym></wpt>
  <trk><name>Linie 481 – komplette Linie</name>
    <trkseg>
      <trkpt lat="51.5491719" lon="7.3085843"/>
      <trkpt lat="51.5492175" lon="7.3086793"/>
      <trkpt lat="51.5493265" lon="7.3088877"/>
      <trkpt lat="51.5493442" lon="7.3089234"/>
      <trkpt lat="51.5493716" lon="7.3089642"/>
      <trkpt lat="51.5494510" lon="7.3090787"/>
      <trkpt lat="51.5495623" lon="7.3092147"/>
      <trkpt lat="51.5497556" lon="7.3093970"/>
      <trkpt lat="51.5497782" lon="7.3094102"/>
      <trkpt lat="51.5498277" lon="7.3094217"/>
      <trkpt lat="51.5498778" lon="7.3094213"/>
      <trkpt lat="51.5499216" lon="7.3092632"/>
      <trkpt lat="51.5500183" lon="7.3088689"/>
      <trkpt lat="51.5500861" lon="7.3085592"/>
      <trkpt lat="51.5501275" lon="7.3082457"/>
      <trkpt lat="51.5501405" lon="7.3081076"/>
      <trkpt lat="51.5501484" lon="7.3079655"/>
      <trkpt lat="51.5501501" lon="7.3078313"/>
      <trkpt lat="51.5501359" lon="7.3076939"/>
      <trkpt lat="51.5501097" lon="7.3075741"/>
      <trkpt lat="51.5500742" lon="7.3074833"/>
      <trkpt lat="51.5500296" lon="7.3074009"/>
      <trkpt lat="51.5500004" lon="7.3073519"/>
      <trkpt lat="51.5499362" lon="7.3072715"/>
      <trkpt lat="51.5498016" lon="7.3071831"/>
      <trkpt lat="51.5496826" lon="7.3071541"/>
      <trkpt lat="51.5495710" lon="7.3071774"/>
      <trkpt lat="51.5494223" lon="7.3072571"/>
      <trkpt lat="51.5493192" lon="7.3073629"/>
      <trkpt lat="51.5492617" lon="7.3074219"/>
      <trkpt lat="51.5489878" lon="7.3078004"/>
      <trkpt lat="51.5488302" lon="7.3079988"/>
      <trkpt lat="51.5486032" lon="7.3083351"/>
      <trkpt lat="51.5484041" lon="7.3086302"/>
      <trkpt lat="51.5483191" lon="7.3087551"/>
      <trkpt lat="51.5481937" lon="7.3089462"/>
      <trkpt lat="51.5481153" lon="7.3090587"/>
      <trkpt lat="51.5478953" lon="7.3093684"/>
      <trkpt lat="51.5478191" lon="7.3094521"/>
      <trkpt lat="51.5477714" lon="7.3095112"/>
      <trkpt lat="51.5476991" lon="7.3096055"/>
      <trkpt lat="51.5476578" lon="7.3096780"/>
      <trkpt lat="51.5475212" lon="7.3100626"/>
      <trkpt lat="51.5474194" lon="7.3103523"/>
      <trkpt lat="51.5473913" lon="7.3104341"/>
      <trkpt lat="51.5473235" lon="7.3106318"/>
      <trkpt lat="51.5472785" lon="7.3107833"/>
      <trkpt lat="51.5472610" lon="7.3109405"/>
      <trkpt lat="51.5472526" lon="7.3111102"/>
      <trkpt lat="51.5472502" lon="7.3111589"/>
      <trkpt lat="51.5472443" lon="7.3113088"/>
      <trkpt lat="51.5472422" lon="7.3113609"/>
      <trkpt lat="51.5472310" lon="7.3115380"/>
      <trkpt lat="51.5472252" lon="7.3116389"/>
      <trkpt lat="51.5472111" lon="7.3117066"/>
      <trkpt lat="51.5471837" lon="7.3117722"/>
      <trkpt lat="51.5471523" lon="7.3118012"/>
      <trkpt lat="51.5470995" lon="7.3118252"/>
      <trkpt lat="51.5470138" lon="7.3118364"/>
      <trkpt lat="51.5467637" lon="7.3118677"/>
      <trkpt lat="51.5467250" lon="7.3118812"/>
      <trkpt lat="51.5466882" lon="7.3118940"/>
      <trkpt lat="51.5466457" lon="7.3119177"/>
      <trkpt lat="51.5466174" lon="7.3119335"/>
      <trkpt lat="51.5465526" lon="7.3120034"/>
      <trkpt lat="51.5465042" lon="7.3120762"/>
      <trkpt lat="51.5462885" lon="7.3124136"/>
      <trkpt lat="51.5462795" lon="7.3124256"/>
      <trkpt lat="51.5462425" lon="7.3124724"/>
      <trkpt lat="51.5462055" lon="7.3125160"/>
      <trkpt lat="51.5459321" lon="7.3127515"/>
      <trkpt lat="51.5458196" lon="7.3128498"/>
      <trkpt lat="51.5456847" lon="7.3129596"/>
      <trkpt lat="51.5454617" lon="7.3131616"/>
      <trkpt lat="51.5453271" lon="7.3132682"/>
      <trkpt lat="51.5453258" lon="7.3132693"/>
      <trkpt lat="51.5451610" lon="7.3134077"/>
      <trkpt lat="51.5449436" lon="7.3135592"/>
      <trkpt lat="51.5448944" lon="7.3136035"/>
      <trkpt lat="51.5448521" lon="7.3136563"/>
      <trkpt lat="51.5448228" lon="7.3137143"/>
      <trkpt lat="51.5447840" lon="7.3138203"/>
      <trkpt lat="51.5447708" lon="7.3139012"/>
      <trkpt lat="51.5447658" lon="7.3139964"/>
      <trkpt lat="51.5447681" lon="7.3140718"/>
      <trkpt lat="51.5448048" lon="7.3142836"/>
      <trkpt lat="51.5448362" lon="7.3144509"/>
      <trkpt lat="51.5448669" lon="7.3146220"/>
      <trkpt lat="51.5449800" lon="7.3152514"/>
      <trkpt lat="51.5449872" lon="7.3152917"/>
      <trkpt lat="51.5449893" lon="7.3152973"/>
      <trkpt lat="51.5449793" lon="7.3154099"/>
      <trkpt lat="51.5449693" lon="7.3154941"/>
      <trkpt lat="51.5449493" lon="7.3155927"/>
      <trkpt lat="51.5449329" lon="7.3156775"/>
      <trkpt lat="51.5449334" lon="7.3159949"/>
      <trkpt lat="51.5452732" lon="7.3162522"/>
      <trkpt lat="51.5454385" lon="7.3163939"/>
      <trkpt lat="51.5455417" lon="7.3164996"/>
      <trkpt lat="51.5456299" lon="7.3166035"/>
      <trkpt lat="51.5457335" lon="7.3167433"/>
      <trkpt lat="51.5457915" lon="7.3168325"/>
      <trkpt lat="51.5458135" lon="7.3168663"/>
      <trkpt lat="51.5459586" lon="7.3171244"/>
      <trkpt lat="51.5464492" lon="7.3180998"/>
      <trkpt lat="51.5465730" lon="7.3182742"/>
      <trkpt lat="51.5467578" lon="7.3184681"/>
      <trkpt lat="51.5469501" lon="7.3185983"/>
      <trkpt lat="51.5470568" lon="7.3186513"/>
      <trkpt lat="51.5472962" lon="7.3187117"/>
      <trkpt lat="51.5475027" lon="7.3187524"/>
      <trkpt lat="51.5475320" lon="7.3187582"/>
      <trkpt lat="51.5476650" lon="7.3187714"/>
      <trkpt lat="51.5477617" lon="7.3187671"/>
      <trkpt lat="51.5478507" lon="7.3187520"/>
      <trkpt lat="51.5478636" lon="7.3187501"/>
      <trkpt lat="51.5480036" lon="7.3186867"/>
      <trkpt lat="51.5481425" lon="7.3186021"/>
      <trkpt lat="51.5483059" lon="7.3184006"/>
      <trkpt lat="51.5484425" lon="7.3182296"/>
      <trkpt lat="51.5485526" lon="7.3180671"/>
      <trkpt lat="51.5486839" lon="7.3178302"/>
      <trkpt lat="51.5488513" lon="7.3174295"/>
      <trkpt lat="51.5489583" lon="7.3171149"/>
      <trkpt lat="51.5493707" lon="7.3159021"/>
      <trkpt lat="51.5494478" lon="7.3156873"/>
      <trkpt lat="51.5495570" lon="7.3154452"/>
      <trkpt lat="51.5496223" lon="7.3153229"/>
      <trkpt lat="51.5497009" lon="7.3151942"/>
      <trkpt lat="51.5501337" lon="7.3146592"/>
      <trkpt lat="51.5503619" lon="7.3143788"/>
      <trkpt lat="51.5504187" lon="7.3143094"/>
      <trkpt lat="51.5506489" lon="7.3140355"/>
      <trkpt lat="51.5512121" lon="7.3134273"/>
      <trkpt lat="51.5512671" lon="7.3133719"/>
      <trkpt lat="51.5512827" lon="7.3133551"/>
      <trkpt lat="51.5514661" lon="7.3132261"/>
      <trkpt lat="51.5515230" lon="7.3131664"/>
      <trkpt lat="51.5517382" lon="7.3129465"/>
      <trkpt lat="51.5517718" lon="7.3129128"/>
      <trkpt lat="51.5518974" lon="7.3127794"/>
      <trkpt lat="51.5521878" lon="7.3124753"/>
      <trkpt lat="51.5523187" lon="7.3122785"/>
      <trkpt lat="51.5525674" lon="7.3120861"/>
      <trkpt lat="51.5527460" lon="7.3119505"/>
      <trkpt lat="51.5528649" lon="7.3118755"/>
      <trkpt lat="51.5531150" lon="7.3117265"/>
      <trkpt lat="51.5533146" lon="7.3116243"/>
      <trkpt lat="51.5534019" lon="7.3116535"/>
      <trkpt lat="51.5535140" lon="7.3116210"/>
      <trkpt lat="51.5536176" lon="7.3115975"/>
      <trkpt lat="51.5536522" lon="7.3115924"/>
      <trkpt lat="51.5537172" lon="7.3115836"/>
      <trkpt lat="51.5537753" lon="7.3115804"/>
      <trkpt lat="51.5539243" lon="7.3115871"/>
      <trkpt lat="51.5540978" lon="7.3116287"/>
      <trkpt lat="51.5542195" lon="7.3116837"/>
      <trkpt lat="51.5543216" lon="7.3117440"/>
      <trkpt lat="51.5544213" lon="7.3118193"/>
      <trkpt lat="51.5545307" lon="7.3119156"/>
      <trkpt lat="51.5545643" lon="7.3118880"/>
      <trkpt lat="51.5545845" lon="7.3118685"/>
      <trkpt lat="51.5546107" lon="7.3118432"/>
      <trkpt lat="51.5546673" lon="7.3117908"/>
      <trkpt lat="51.5547189" lon="7.3117060"/>
      <trkpt lat="51.5547132" lon="7.3112916"/>
      <trkpt lat="51.5547158" lon="7.3112265"/>
      <trkpt lat="51.5547260" lon="7.3111562"/>
      <trkpt lat="51.5547462" lon="7.3111010"/>
      <trkpt lat="51.5548025" lon="7.3109759"/>
      <trkpt lat="51.5548787" lon="7.3109581"/>
      <trkpt lat="51.5549339" lon="7.3109009"/>
      <trkpt lat="51.5549884" lon="7.3108899"/>
      <trkpt lat="51.5550635" lon="7.3108746"/>
      <trkpt lat="51.5552056" lon="7.3108460"/>
      <trkpt lat="51.5552761" lon="7.3108314"/>
      <trkpt lat="51.5555167" lon="7.3107807"/>
      <trkpt lat="51.5555824" lon="7.3107691"/>
      <trkpt lat="51.5557517" lon="7.3107347"/>
      <trkpt lat="51.5559932" lon="7.3106857"/>
      <trkpt lat="51.5560681" lon="7.3106704"/>
      <trkpt lat="51.5563656" lon="7.3106100"/>
      <trkpt lat="51.5565228" lon="7.3105780"/>
      <trkpt lat="51.5570697" lon="7.3104669"/>
      <trkpt lat="51.5571427" lon="7.3104521"/>
      <trkpt lat="51.5572382" lon="7.3104326"/>
      <trkpt lat="51.5575950" lon="7.3103385"/>
      <trkpt lat="51.5576857" lon="7.3103748"/>
      <trkpt lat="51.5577970" lon="7.3103549"/>
      <trkpt lat="51.5579966" lon="7.3103292"/>
      <trkpt lat="51.5580111" lon="7.3105126"/>
      <trkpt lat="51.5580903" lon="7.3115174"/>
      <trkpt lat="51.5581128" lon="7.3118004"/>
      <trkpt lat="51.5581192" lon="7.3118840"/>
      <trkpt lat="51.5581914" lon="7.3127981"/>
      <trkpt lat="51.5582064" lon="7.3130771"/>
      <trkpt lat="51.5582146" lon="7.3133456"/>
      <trkpt lat="51.5582185" lon="7.3134332"/>
      <trkpt lat="51.5582223" lon="7.3136258"/>
      <trkpt lat="51.5582231" lon="7.3138680"/>
      <trkpt lat="51.5582197" lon="7.3139158"/>
      <trkpt lat="51.5582045" lon="7.3140528"/>
      <trkpt lat="51.5581819" lon="7.3142336"/>
      <trkpt lat="51.5582827" lon="7.3142564"/>
      <trkpt lat="51.5583965" lon="7.3142894"/>
      <trkpt lat="51.5600417" lon="7.3147602"/>
      <trkpt lat="51.5605251" lon="7.3148666"/>
      <trkpt lat="51.5609033" lon="7.3149013"/>
      <trkpt lat="51.5610406" lon="7.3149107"/>
      <trkpt lat="51.5612816" lon="7.3149321"/>
      <trkpt lat="51.5615043" lon="7.3149552"/>
      <trkpt lat="51.5616001" lon="7.3149651"/>
      <trkpt lat="51.5620473" lon="7.3149620"/>
      <trkpt lat="51.5642992" lon="7.3149353"/>
      <trkpt lat="51.5648918" lon="7.3149233"/>
      <trkpt lat="51.5656865" lon="7.3149140"/>
      <trkpt lat="51.5657244" lon="7.3149136"/>
      <trkpt lat="51.5658517" lon="7.3149121"/>
      <trkpt lat="51.5658642" lon="7.3151526"/>
      <trkpt lat="51.5659528" lon="7.3165136"/>
      <trkpt lat="51.5659668" lon="7.3169958"/>
      <trkpt lat="51.5659681" lon="7.3170890"/>
      <trkpt lat="51.5659713" lon="7.3173291"/>
      <trkpt lat="51.5659730" lon="7.3174621"/>
      <trkpt lat="51.5659787" lon="7.3176680"/>
      <trkpt lat="51.5659936" lon="7.3177599"/>
      <trkpt lat="51.5660152" lon="7.3178130"/>
      <trkpt lat="51.5660835" lon="7.3178672"/>
      <trkpt lat="51.5662307" lon="7.3178476"/>
      <trkpt lat="51.5665445" lon="7.3178068"/>
      <trkpt lat="51.5669203" lon="7.3177580"/>
      <trkpt lat="51.5670216" lon="7.3177391"/>
      <trkpt lat="51.5675492" lon="7.3176408"/>
      <trkpt lat="51.5675760" lon="7.3179703"/>
      <trkpt lat="51.5676066" lon="7.3186192"/>
      <trkpt lat="51.5676178" lon="7.3189281"/>
      <trkpt lat="51.5679031" lon="7.3189136"/>
      <trkpt lat="51.5679692" lon="7.3189110"/>
      <trkpt lat="51.5679667" lon="7.3188390"/>
      <trkpt lat="51.5679574" lon="7.3186700"/>
      <trkpt lat="51.5679489" lon="7.3184418"/>
      <trkpt lat="51.5679405" lon="7.3182043"/>
      <trkpt lat="51.5679387" lon="7.3181527"/>
      <trkpt lat="51.5679359" lon="7.3180669"/>
      <trkpt lat="51.5679245" lon="7.3176567"/>
      <trkpt lat="51.5679211" lon="7.3175719"/>
      <trkpt lat="51.5678057" lon="7.3175933"/>
      <trkpt lat="51.5675766" lon="7.3176358"/>
      <trkpt lat="51.5675492" lon="7.3176408"/>
      <trkpt lat="51.5670216" lon="7.3177391"/>
      <trkpt lat="51.5669203" lon="7.3177580"/>
      <trkpt lat="51.5665445" lon="7.3178068"/>
      <trkpt lat="51.5662307" lon="7.3178476"/>
      <trkpt lat="51.5660835" lon="7.3178672"/>
      <trkpt lat="51.5660705" lon="7.3175528"/>
      <trkpt lat="51.5660578" lon="7.3171501"/>
      <trkpt lat="51.5660527" lon="7.3169892"/>
      <trkpt lat="51.5660455" lon="7.3167591"/>
      <trkpt lat="51.5660309" lon="7.3164669"/>
      <trkpt lat="51.5660194" lon="7.3162596"/>
      <trkpt lat="51.5659756" lon="7.3151999"/>
      <trkpt lat="51.5659736" lon="7.3151440"/>
      <trkpt lat="51.5659640" lon="7.3149105"/>
      <trkpt lat="51.5659596" lon="7.3147413"/>
      <trkpt lat="51.5659373" lon="7.3144951"/>
      <trkpt lat="51.5658887" lon="7.3138257"/>
      <trkpt lat="51.5658231" lon="7.3128862"/>
      <trkpt lat="51.5657477" lon="7.3117166"/>
      <trkpt lat="51.5657474" lon="7.3117107"/>
      <trkpt lat="51.5657325" lon="7.3114791"/>
      <trkpt lat="51.5657131" lon="7.3111785"/>
      <trkpt lat="51.5656720" lon="7.3105188"/>
      <trkpt lat="51.5656677" lon="7.3104498"/>
      <trkpt lat="51.5656203" lon="7.3096889"/>
      <trkpt lat="51.5655878" lon="7.3091845"/>
      <trkpt lat="51.5655794" lon="7.3090312"/>
      <trkpt lat="51.5655766" lon="7.3089743"/>
      <trkpt lat="51.5655660" lon="7.3088143"/>
      <trkpt lat="51.5655676" lon="7.3086575"/>
      <trkpt lat="51.5655891" lon="7.3086279"/>
      <trkpt lat="51.5656062" lon="7.3085915"/>
      <trkpt lat="51.5656179" lon="7.3085499"/>
      <trkpt lat="51.5656542" lon="7.3084754"/>
      <trkpt lat="51.5656965" lon="7.3084387"/>
      <trkpt lat="51.5657369" lon="7.3084036"/>
      <trkpt lat="51.5658225" lon="7.3083230"/>
      <trkpt lat="51.5659747" lon="7.3082624"/>
      <trkpt lat="51.5660662" lon="7.3082238"/>
      <trkpt lat="51.5662034" lon="7.3081660"/>
      <trkpt lat="51.5663393" lon="7.3081088"/>
      <trkpt lat="51.5664245" lon="7.3080729"/>
      <trkpt lat="51.5665268" lon="7.3080434"/>
      <trkpt lat="51.5665456" lon="7.3080392"/>
      <trkpt lat="51.5665969" lon="7.3080189"/>
      <trkpt lat="51.5666572" lon="7.3079967"/>
      <trkpt lat="51.5667992" lon="7.3079364"/>
      <trkpt lat="51.5668826" lon="7.3079009"/>
      <trkpt lat="51.5669581" lon="7.3078688"/>
      <trkpt lat="51.5671126" lon="7.3078032"/>
      <trkpt lat="51.5672115" lon="7.3077611"/>
      <trkpt lat="51.5674096" lon="7.3076758"/>
      <trkpt lat="51.5674637" lon="7.3076515"/>
      <trkpt lat="51.5677509" lon="7.3075225"/>
      <trkpt lat="51.5680526" lon="7.3073996"/>
      <trkpt lat="51.5681115" lon="7.3073758"/>
      <trkpt lat="51.5682005" lon="7.3073398"/>
      <trkpt lat="51.5683483" lon="7.3072828"/>
      <trkpt lat="51.5683960" lon="7.3072613"/>
      <trkpt lat="51.5685333" lon="7.3071993"/>
      <trkpt lat="51.5687465" lon="7.3071041"/>
      <trkpt lat="51.5690207" lon="7.3070186"/>
      <trkpt lat="51.5694124" lon="7.3068488"/>
      <trkpt lat="51.5695481" lon="7.3067690"/>
      <trkpt lat="51.5697241" lon="7.3066903"/>
      <trkpt lat="51.5699860" lon="7.3065922"/>
      <trkpt lat="51.5701979" lon="7.3065188"/>
      <trkpt lat="51.5702850" lon="7.3064871"/>
      <trkpt lat="51.5708025" lon="7.3062555"/>
      <trkpt lat="51.5709051" lon="7.3062107"/>
      <trkpt lat="51.5710234" lon="7.3061600"/>
      <trkpt lat="51.5711378" lon="7.3061087"/>
      <trkpt lat="51.5711689" lon="7.3060962"/>
      <trkpt lat="51.5717040" lon="7.3058438"/>
      <trkpt lat="51.5718536" lon="7.3057848"/>
      <trkpt lat="51.5721570" lon="7.3056570"/>
      <trkpt lat="51.5723227" lon="7.3055940"/>
      <trkpt lat="51.5727986" lon="7.3054100"/>
      <trkpt lat="51.5727456" lon="7.3052138"/>
      <trkpt lat="51.5726603" lon="7.3049110"/>
      <trkpt lat="51.5726352" lon="7.3047942"/>
      <trkpt lat="51.5726200" lon="7.3047110"/>
      <trkpt lat="51.5725885" lon="7.3045326"/>
      <trkpt lat="51.5725073" lon="7.3040839"/>
      <trkpt lat="51.5724395" lon="7.3037047"/>
      <trkpt lat="51.5721568" lon="7.3019384"/>
      <trkpt lat="51.5719919" lon="7.3008479"/>
      <trkpt lat="51.5717942" lon="7.2996103"/>
      <trkpt lat="51.5713240" lon="7.2974190"/>
      <trkpt lat="51.5712544" lon="7.2970948"/>
      <trkpt lat="51.5711901" lon="7.2967780"/>
      <trkpt lat="51.5710531" lon="7.2968534"/>
      <trkpt lat="51.5708343" lon="7.2969790"/>
      <trkpt lat="51.5705303" lon="7.2971457"/>
      <trkpt lat="51.5703904" lon="7.2972115"/>
      <trkpt lat="51.5702011" lon="7.2972897"/>
      <trkpt lat="51.5699140" lon="7.2974203"/>
      <trkpt lat="51.5696619" lon="7.2974951"/>
      <trkpt lat="51.5692121" lon="7.2976339"/>
      <trkpt lat="51.5692890" lon="7.2979763"/>
      <trkpt lat="51.5693262" lon="7.2981464"/>
      <trkpt lat="51.5693706" lon="7.2983540"/>
      <trkpt lat="51.5695325" lon="7.2990763"/>
      <trkpt lat="51.5696409" lon="7.2995667"/>
      <trkpt lat="51.5696513" lon="7.2996139"/>
      <trkpt lat="51.5697733" lon="7.3001494"/>
      <trkpt lat="51.5698327" lon="7.3004106"/>
      <trkpt lat="51.5698944" lon="7.3003863"/>
      <trkpt lat="51.5707022" lon="7.3000628"/>
      <trkpt lat="51.5711797" lon="7.2998697"/>
      <trkpt lat="51.5716899" lon="7.2996544"/>
      <trkpt lat="51.5717942" lon="7.2996103"/>
      <trkpt lat="51.5719919" lon="7.3008479"/>
      <trkpt lat="51.5721568" lon="7.3019384"/>
      <trkpt lat="51.5724395" lon="7.3037047"/>
      <trkpt lat="51.5725073" lon="7.3040839"/>
      <trkpt lat="51.5725885" lon="7.3045326"/>
      <trkpt lat="51.5726200" lon="7.3047110"/>
      <trkpt lat="51.5726352" lon="7.3047942"/>
      <trkpt lat="51.5726603" lon="7.3049110"/>
      <trkpt lat="51.5727456" lon="7.3052138"/>
      <trkpt lat="51.5727986" lon="7.3054100"/>
      <trkpt lat="51.5729972" lon="7.3053114"/>
      <trkpt lat="51.5732835" lon="7.3051883"/>
      <trkpt lat="51.5732939" lon="7.3051840"/>
      <trkpt lat="51.5733208" lon="7.3051722"/>
      <trkpt lat="51.5734124" lon="7.3051323"/>
      <trkpt lat="51.5735423" lon="7.3050928"/>
      <trkpt lat="51.5736126" lon="7.3050586"/>
      <trkpt lat="51.5738406" lon="7.3049592"/>
      <trkpt lat="51.5742710" lon="7.3047703"/>
      <trkpt lat="51.5745293" lon="7.3046667"/>
      <trkpt lat="51.5746749" lon="7.3045971"/>
      <trkpt lat="51.5750021" lon="7.3044486"/>
      <trkpt lat="51.5752130" lon="7.3043654"/>
      <trkpt lat="51.5753632" lon="7.3043100"/>
      <trkpt lat="51.5754871" lon="7.3042766"/>
      <trkpt lat="51.5755286" lon="7.3042644"/>
      <trkpt lat="51.5755671" lon="7.3042530"/>
      <trkpt lat="51.5756693" lon="7.3042392"/>
      <trkpt lat="51.5757616" lon="7.3042317"/>
      <trkpt lat="51.5757666" lon="7.3042785"/>
      <trkpt lat="51.5757785" lon="7.3043219"/>
      <trkpt lat="51.5757964" lon="7.3043595"/>
      <trkpt lat="51.5758194" lon="7.3043890"/>
      <trkpt lat="51.5758462" lon="7.3044089"/>
      <trkpt lat="51.5758751" lon="7.3044179"/>
      <trkpt lat="51.5759045" lon="7.3044154"/>
      <trkpt lat="51.5759292" lon="7.3044041"/>
      <trkpt lat="51.5759519" lon="7.3043847"/>
      <trkpt lat="51.5759716" lon="7.3043581"/>
      <trkpt lat="51.5759873" lon="7.3043255"/>
      <trkpt lat="51.5759985" lon="7.3042883"/>
      <trkpt lat="51.5760046" lon="7.3042482"/>
      <trkpt lat="51.5760053" lon="7.3042068"/>
      <trkpt lat="51.5759963" lon="7.3041462"/>
      <trkpt lat="51.5759758" lon="7.3040931"/>
      <trkpt lat="51.5759461" lon="7.3040530"/>
      <trkpt lat="51.5759100" lon="7.3040300"/>
      <trkpt lat="51.5758877" lon="7.3040255"/>
      <trkpt lat="51.5758654" lon="7.3040276"/>
      <trkpt lat="51.5758436" lon="7.3040362"/>
      <trkpt lat="51.5758232" lon="7.3040511"/>
      <trkpt lat="51.5758048" lon="7.3040718"/>
      <trkpt lat="51.5757890" lon="7.3040975"/>
      <trkpt lat="51.5757765" lon="7.3041274"/>
      <trkpt lat="51.5757676" lon="7.3041605"/>
      <trkpt lat="51.5757626" lon="7.3041957"/>
      <trkpt lat="51.5757616" lon="7.3042317"/>
      <trkpt lat="51.5760053" lon="7.3042068"/>
      <trkpt lat="51.5760920" lon="7.3042074"/>
      <trkpt lat="51.5764474" lon="7.3042046"/>
      <trkpt lat="51.5765074" lon="7.3042084"/>
      <trkpt lat="51.5766069" lon="7.3042233"/>
      <trkpt lat="51.5767178" lon="7.3042392"/>
      <trkpt lat="51.5768299" lon="7.3042464"/>
      <trkpt lat="51.5769763" lon="7.3042489"/>
      <trkpt lat="51.5771947" lon="7.3042479"/>
      <trkpt lat="51.5774093" lon="7.3042445"/>
      <trkpt lat="51.5774764" lon="7.3042427"/>
      <trkpt lat="51.5778798" lon="7.3042330"/>
      <trkpt lat="51.5783454" lon="7.3042559"/>
      <trkpt lat="51.5784641" lon="7.3042648"/>
      <trkpt lat="51.5785218" lon="7.3042654"/>
      <trkpt lat="51.5785786" lon="7.3042629"/>
      <trkpt lat="51.5786146" lon="7.3042616"/>
      <trkpt lat="51.5788166" lon="7.3042658"/>
      <trkpt lat="51.5789128" lon="7.3042721"/>
      <trkpt lat="51.5791132" lon="7.3042838"/>
      <trkpt lat="51.5791975" lon="7.3042995"/>
      <trkpt lat="51.5792954" lon="7.3043177"/>
      <trkpt lat="51.5793664" lon="7.3043426"/>
      <trkpt lat="51.5796414" lon="7.3043567"/>
      <trkpt lat="51.5796329" lon="7.3043009"/>
      <trkpt lat="51.5796159" lon="7.3042504"/>
      <trkpt lat="51.5795914" lon="7.3042085"/>
      <trkpt lat="51.5795611" lon="7.3041780"/>
      <trkpt lat="51.5795270" lon="7.3041610"/>
      <trkpt lat="51.5794913" lon="7.3041586"/>
      <trkpt lat="51.5794616" lon="7.3041681"/>
      <trkpt lat="51.5794339" lon="7.3041877"/>
      <trkpt lat="51.5794094" lon="7.3042165"/>
      <trkpt lat="51.5793895" lon="7.3042531"/>
      <trkpt lat="51.5793749" lon="7.3042958"/>
      <trkpt lat="51.5793664" lon="7.3043426"/>
      <trkpt lat="51.5793647" lon="7.3043987"/>
      <trkpt lat="51.5793718" lon="7.3044538"/>
      <trkpt lat="51.5793872" lon="7.3045043"/>
      <trkpt lat="51.5794099" lon="7.3045470"/>
      <trkpt lat="51.5794385" lon="7.3045792"/>
      <trkpt lat="51.5794712" lon="7.3045990"/>
      <trkpt lat="51.5795059" lon="7.3046050"/>
      <trkpt lat="51.5795405" lon="7.3045969"/>
      <trkpt lat="51.5795706" lon="7.3045770"/>
      <trkpt lat="51.5795971" lon="7.3045464"/>
      <trkpt lat="51.5796184" lon="7.3045067"/>
      <trkpt lat="51.5796334" lon="7.3044601"/>
      <trkpt lat="51.5796412" lon="7.3044092"/>
      <trkpt lat="51.5796414" lon="7.3043567"/>
      <trkpt lat="51.5797143" lon="7.3043426"/>
      <trkpt lat="51.5798664" lon="7.3043134"/>
      <trkpt lat="51.5801577" lon="7.3042978"/>
      <trkpt lat="51.5803058" lon="7.3043042"/>
      <trkpt lat="51.5804425" lon="7.3043108"/>
      <trkpt lat="51.5806338" lon="7.3043184"/>
      <trkpt lat="51.5809221" lon="7.3043309"/>
      <trkpt lat="51.5812348" lon="7.3043325"/>
      <trkpt lat="51.5815419" lon="7.3043448"/>
      <trkpt lat="51.5817505" lon="7.3043522"/>
      <trkpt lat="51.5820051" lon="7.3043512"/>
      <trkpt lat="51.5822231" lon="7.3043623"/>
      <trkpt lat="51.5825266" lon="7.3043688"/>
      <trkpt lat="51.5827526" lon="7.3043805"/>
      <trkpt lat="51.5831416" lon="7.3043958"/>
      <trkpt lat="51.5831781" lon="7.3043972"/>
      <trkpt lat="51.5833140" lon="7.3044043"/>
      <trkpt lat="51.5834385" lon="7.3044107"/>
      <trkpt lat="51.5835528" lon="7.3044103"/>
      <trkpt lat="51.5835870" lon="7.3044102"/>
      <trkpt lat="51.5837324" lon="7.3044096"/>
      <trkpt lat="51.5839170" lon="7.3044089"/>
      <trkpt lat="51.5839712" lon="7.3044088"/>
      <trkpt lat="51.5842355" lon="7.3044077"/>
      <trkpt lat="51.5843583" lon="7.3044048"/>
      <trkpt lat="51.5844346" lon="7.3044029"/>
      <trkpt lat="51.5847379" lon="7.3043797"/>
      <trkpt lat="51.5852352" lon="7.3043239"/>
      <trkpt lat="51.5854099" lon="7.3042976"/>
      <trkpt lat="51.5854573" lon="7.3042882"/>
      <trkpt lat="51.5857605" lon="7.3042349"/>
      <trkpt lat="51.5862698" lon="7.3041498"/>
      <trkpt lat="51.5867667" lon="7.3040665"/>
      <trkpt lat="51.5872991" lon="7.3039796"/>
      <trkpt lat="51.5873623" lon="7.3039707"/>
      <trkpt lat="51.5877531" lon="7.3038979"/>
      <trkpt lat="51.5879452" lon="7.3038631"/>
      <trkpt lat="51.5882001" lon="7.3038121"/>
      <trkpt lat="51.5882697" lon="7.3037993"/>
      <trkpt lat="51.5883530" lon="7.3037856"/>
      <trkpt lat="51.5887699" lon="7.3037201"/>
      <trkpt lat="51.5889055" lon="7.3036972"/>
      <trkpt lat="51.5890904" lon="7.3036706"/>
      <trkpt lat="51.5894370" lon="7.3036207"/>
      <trkpt lat="51.5899614" lon="7.3035452"/>
      <trkpt lat="51.5901327" lon="7.3035213"/>
      <trkpt lat="51.5903743" lon="7.3034877"/>
      <trkpt lat="51.5910753" lon="7.3033772"/>
      <trkpt lat="51.5920479" lon="7.3032285"/>
      <trkpt lat="51.5926143" lon="7.3031250"/>
      <trkpt lat="51.5927250" lon="7.3031091"/>
      <trkpt lat="51.5929404" lon="7.3030782"/>
      <trkpt lat="51.5930826" lon="7.3030577"/>
      <trkpt lat="51.5931576" lon="7.3030470"/>
      <trkpt lat="51.5932443" lon="7.3030349"/>
      <trkpt lat="51.5937309" lon="7.3029647"/>
      <trkpt lat="51.5937929" lon="7.3029558"/>
      <trkpt lat="51.5939515" lon="7.3029420"/>
      <trkpt lat="51.5940781" lon="7.3029427"/>
      <trkpt lat="51.5942219" lon="7.3029436"/>
      <trkpt lat="51.5945636" lon="7.3029839"/>
      <trkpt lat="51.5948523" lon="7.3030179"/>
      <trkpt lat="51.5951498" lon="7.3030481"/>
      <trkpt lat="51.5953984" lon="7.3030556"/>
      <trkpt lat="51.5956343" lon="7.3030591"/>
      <trkpt lat="51.5956574" lon="7.3032582"/>
      <trkpt lat="51.5956461" lon="7.3034064"/>
      <trkpt lat="51.5956238" lon="7.3035077"/>
      <trkpt lat="51.5954893" lon="7.3039108"/>
      <trkpt lat="51.5953421" lon="7.3043639"/>
      <trkpt lat="51.5952223" lon="7.3046929"/>
      <trkpt lat="51.5950381" lon="7.3051411"/>
      <trkpt lat="51.5947773" lon="7.3057071"/>
      <trkpt lat="51.5946262" lon="7.3060717"/>
      <trkpt lat="51.5944833" lon="7.3064503"/>
      <trkpt lat="51.5943394" lon="7.3069140"/>
      <trkpt lat="51.5941368" lon="7.3075578"/>
      <trkpt lat="51.5940337" lon="7.3078827"/>
      <trkpt lat="51.5939703" lon="7.3080888"/>
      <trkpt lat="51.5937399" lon="7.3088229"/>
      <trkpt lat="51.5935723" lon="7.3093451"/>
      <trkpt lat="51.5934574" lon="7.3097577"/>
      <trkpt lat="51.5934058" lon="7.3100852"/>
      <trkpt lat="51.5933609" lon="7.3103600"/>
      <trkpt lat="51.5932825" lon="7.3108548"/>
      <trkpt lat="51.5932343" lon="7.3115907"/>
      <trkpt lat="51.5932172" lon="7.3120424"/>
      <trkpt lat="51.5932161" lon="7.3120697"/>
      <trkpt lat="51.5931608" lon="7.3135280"/>
      <trkpt lat="51.5931366" lon="7.3138938"/>
      <trkpt lat="51.5931209" lon="7.3140547"/>
      <trkpt lat="51.5931134" lon="7.3141278"/>
      <trkpt lat="51.5930716" lon="7.3145265"/>
      <trkpt lat="51.5930499" lon="7.3147579"/>
      <trkpt lat="51.5930361" lon="7.3148995"/>
      <trkpt lat="51.5930014" lon="7.3152785"/>
      <trkpt lat="51.5929832" lon="7.3155762"/>
      <trkpt lat="51.5929803" lon="7.3158423"/>
      <trkpt lat="51.5929928" lon="7.3163056"/>
      <trkpt lat="51.5930020" lon="7.3165087"/>
      <trkpt lat="51.5930632" lon="7.3177348"/>
      <trkpt lat="51.5930995" lon="7.3184605"/>
      <trkpt lat="51.5931249" lon="7.3190847"/>
      <trkpt lat="51.5931262" lon="7.3193298"/>
      <trkpt lat="51.5931217" lon="7.3195745"/>
      <trkpt lat="51.5930912" lon="7.3200794"/>
      <trkpt lat="51.5930585" lon="7.3203298"/>
      <trkpt lat="51.5931825" lon="7.3203324"/>
      <trkpt lat="51.5933893" lon="7.3203367"/>
      <trkpt lat="51.5938925" lon="7.3203985"/>
      <trkpt lat="51.5940044" lon="7.3204106"/>
      <trkpt lat="51.5942016" lon="7.3204365"/>
      <trkpt lat="51.5945961" lon="7.3204804"/>
      <trkpt lat="51.5953134" lon="7.3205748"/>
      <trkpt lat="51.5954388" lon="7.3205936"/>
      <trkpt lat="51.5956812" lon="7.3206324"/>
      <trkpt lat="51.5958203" lon="7.3206564"/>
      <trkpt lat="51.5960644" lon="7.3207106"/>
      <trkpt lat="51.5963390" lon="7.3207628"/>
      <trkpt lat="51.5965007" lon="7.3207969"/>
      <trkpt lat="51.5967569" lon="7.3208515"/>
      <trkpt lat="51.5969148" lon="7.3208872"/>
      <trkpt lat="51.5972347" lon="7.3209509"/>
      <trkpt lat="51.5972621" lon="7.3209556"/>
      <trkpt lat="51.5974194" lon="7.3209887"/>
      <trkpt lat="51.5976010" lon="7.3210278"/>
      <trkpt lat="51.5977384" lon="7.3210278"/>
      <trkpt lat="51.5978826" lon="7.3210064"/>
      <trkpt lat="51.5979973" lon="7.3209652"/>
      <trkpt lat="51.5981406" lon="7.3208771"/>
      <trkpt lat="51.5989835" lon="7.3202511"/>
      <trkpt lat="51.5990975" lon="7.3201666"/>
      <trkpt lat="51.5999586" lon="7.3195328"/>
      <trkpt lat="51.6000742" lon="7.3194477"/>
      <trkpt lat="51.6000087" lon="7.3192045"/>
      <trkpt lat="51.5999881" lon="7.3191183"/>
      <trkpt lat="51.5997851" lon="7.3182799"/>
      <trkpt lat="51.5996632" lon="7.3178420"/>
      <trkpt lat="51.5995851" lon="7.3174592"/>
      <trkpt lat="51.5995356" lon="7.3170429"/>
      <trkpt lat="51.5994891" lon="7.3165103"/>
      <trkpt lat="51.5994553" lon="7.3160765"/>
      <trkpt lat="51.5994478" lon="7.3159242"/>
      <trkpt lat="51.5994470" lon="7.3157787"/>
      <trkpt lat="51.5994562" lon="7.3156399"/>
      <trkpt lat="51.5994775" lon="7.3154868"/>
      <trkpt lat="51.5997117" lon="7.3141186"/>
      <trkpt lat="51.5997341" lon="7.3139880"/>
      <trkpt lat="51.5997491" lon="7.3139027"/>
      <trkpt lat="51.5997872" lon="7.3136852"/>
      <trkpt lat="51.5997998" lon="7.3136041"/>
      <trkpt lat="51.5998036" lon="7.3134942"/>
      <trkpt lat="51.5997908" lon="7.3134124"/>
      <trkpt lat="51.5997617" lon="7.3133181"/>
      <trkpt lat="51.5997257" lon="7.3132611"/>
      <trkpt lat="51.5996707" lon="7.3132129"/>
      <trkpt lat="51.5996142" lon="7.3131896"/>
      <trkpt lat="51.5991076" lon="7.3130541"/>
      <trkpt lat="51.5990677" lon="7.3130434"/>
      <trkpt lat="51.5989989" lon="7.3130130"/>
      <trkpt lat="51.5989607" lon="7.3129849"/>
      <trkpt lat="51.5989462" lon="7.3129369"/>
      <trkpt lat="51.5989353" lon="7.3128903"/>
      <trkpt lat="51.5989307" lon="7.3128310"/>
      <trkpt lat="51.5989355" lon="7.3127666"/>
      <trkpt lat="51.5989808" lon="7.3124851"/>
      <trkpt lat="51.5990960" lon="7.3125477"/>
      <trkpt lat="51.5993498" lon="7.3127142"/>
      <trkpt lat="51.5995850" lon="7.3129219"/>
      <trkpt lat="51.5996418" lon="7.3129721"/>
      <trkpt lat="51.5997267" lon="7.3130471"/>
      <trkpt lat="51.5998988" lon="7.3131726"/>
      <trkpt lat="51.6000110" lon="7.3132407"/>
      <trkpt lat="51.6001152" lon="7.3133029"/>
      <trkpt lat="51.6001474" lon="7.3131469"/>
      <trkpt lat="51.6003222" lon="7.3121119"/>
      <trkpt lat="51.6003510" lon="7.3119414"/>
      <trkpt lat="51.6001193" lon="7.3118449"/>
      <trkpt lat="51.5999239" lon="7.3117635"/>
      <trkpt lat="51.5998069" lon="7.3117148"/>
      <trkpt lat="51.5997814" lon="7.3117042"/>
      <trkpt lat="51.5995903" lon="7.3116247"/>
      <trkpt lat="51.5995681" lon="7.3116151"/>
      <trkpt lat="51.5994610" lon="7.3115707"/>
      <trkpt lat="51.5993706" lon="7.3115331"/>
      <trkpt lat="51.5993341" lon="7.3115178"/>
      <trkpt lat="51.5991782" lon="7.3114529"/>
      <trkpt lat="51.5991248" lon="7.3114307"/>
      <trkpt lat="51.5990196" lon="7.3114019"/>
      <trkpt lat="51.5990306" lon="7.3109514"/>
      <trkpt lat="51.5990332" lon="7.3108426"/>
      <trkpt lat="51.5990355" lon="7.3107481"/>
      <trkpt lat="51.5990417" lon="7.3104955"/>
      <trkpt lat="51.5990435" lon="7.3104183"/>
      <trkpt lat="51.5990480" lon="7.3102313"/>
      <trkpt lat="51.5990542" lon="7.3099785"/>
      <trkpt lat="51.5991066" lon="7.3093875"/>
      <trkpt lat="51.5991791" lon="7.3087863"/>
      <trkpt lat="51.5992513" lon="7.3082353"/>
      <trkpt lat="51.5992860" lon="7.3080386"/>
      <trkpt lat="51.5993222" lon="7.3078523"/>
      <trkpt lat="51.5993902" lon="7.3074386"/>
      <trkpt lat="51.5994011" lon="7.3071616"/>
      <trkpt lat="51.5993963" lon="7.3067426"/>
      <trkpt lat="51.5993919" lon="7.3063724"/>
      <trkpt lat="51.5993895" lon="7.3061645"/>
      <trkpt lat="51.5993845" lon="7.3059235"/>
      <trkpt lat="51.5993824" lon="7.3058328"/>
      <trkpt lat="51.5993808" lon="7.3057602"/>
      <trkpt lat="51.5993766" lon="7.3056244"/>
      <trkpt lat="51.5993591" lon="7.3052966"/>
      <trkpt lat="51.5993509" lon="7.3051320"/>
      <trkpt lat="51.5993188" lon="7.3048909"/>
      <trkpt lat="51.5992237" lon="7.3045514"/>
      <trkpt lat="51.5991443" lon="7.3043322"/>
      <trkpt lat="51.5990013" lon="7.3039449"/>
      <trkpt lat="51.5988152" lon="7.3034325"/>
      <trkpt lat="51.5987651" lon="7.3032375"/>
      <trkpt lat="51.5987177" lon="7.3026643"/>
      <trkpt lat="51.5987048" lon="7.3025438"/>
      <trkpt lat="51.5991441" lon="7.3024659"/>
      <trkpt lat="51.5992226" lon="7.3024290"/>
      <trkpt lat="51.5993130" lon="7.3023506"/>
      <trkpt lat="51.5994292" lon="7.3022101"/>
      <trkpt lat="51.5998511" lon="7.3016249"/>
      <trkpt lat="51.5999506" lon="7.3014754"/>
      <trkpt lat="51.6000083" lon="7.3013376"/>
      <trkpt lat="51.6000460" lon="7.3012069"/>
      <trkpt lat="51.6000631" lon="7.3011478"/>
      <trkpt lat="51.6001478" lon="7.3009431"/>
      <trkpt lat="51.6002566" lon="7.3007645"/>
      <trkpt lat="51.6003696" lon="7.3006187"/>
      <trkpt lat="51.6004463" lon="7.3005149"/>
      <trkpt lat="51.6005273" lon="7.3004011"/>
      <trkpt lat="51.6005347" lon="7.3003909"/>
      <trkpt lat="51.6005843" lon="7.3003218"/>
      <trkpt lat="51.6006811" lon="7.3001925"/>
      <trkpt lat="51.6009911" lon="7.2997588"/>
      <trkpt lat="51.6012450" lon="7.2994030"/>
      <trkpt lat="51.6014607" lon="7.2991123"/>
      <trkpt lat="51.6016828" lon="7.2988159"/>
      <trkpt lat="51.6020436" lon="7.2984879"/>
      <trkpt lat="51.6025505" lon="7.2981470"/>
      <trkpt lat="51.6029380" lon="7.2978840"/>
      <trkpt lat="51.6031091" lon="7.2977742"/>
      <trkpt lat="51.6032196" lon="7.2977126"/>
      <trkpt lat="51.6032397" lon="7.2977935"/>
      <trkpt lat="51.6032885" lon="7.2979869"/>
      <trkpt lat="51.6034517" lon="7.2988693"/>
      <trkpt lat="51.6035886" lon="7.2997178"/>
      <trkpt lat="51.6036859" lon="7.3004323"/>
      <trkpt lat="51.6039599" lon="7.3024138"/>
      <trkpt lat="51.6042110" lon="7.3042316"/>
      <trkpt lat="51.6043663" lon="7.3053261"/>
      <trkpt lat="51.6044628" lon="7.3058139"/>
      <trkpt lat="51.6045484" lon="7.3061237"/>
      <trkpt lat="51.6047543" lon="7.3067017"/>
      <trkpt lat="51.6049413" lon="7.3070955"/>
      <trkpt lat="51.6051497" lon="7.3074446"/>
      <trkpt lat="51.6051866" lon="7.3073933"/>
      <trkpt lat="51.6052338" lon="7.3073277"/>
      <trkpt lat="51.6055877" lon="7.3069506"/>
      <trkpt lat="51.6056444" lon="7.3068922"/>
      <trkpt lat="51.6058190" lon="7.3067122"/>
      <trkpt lat="51.6060172" lon="7.3064937"/>
      <trkpt lat="51.6066331" lon="7.3058145"/>
      <trkpt lat="51.6070799" lon="7.3053280"/>
      <trkpt lat="51.6072669" lon="7.3051230"/>
      <trkpt lat="51.6073131" lon="7.3050707"/>
      <trkpt lat="51.6074958" lon="7.3048761"/>
      <trkpt lat="51.6076915" lon="7.3046675"/>
      <trkpt lat="51.6079801" lon="7.3043435"/>
      <trkpt lat="51.6086280" lon="7.3036355"/>
      <trkpt lat="51.6092244" lon="7.3029920"/>
      <trkpt lat="51.6093859" lon="7.3028178"/>
      <trkpt lat="51.6096541" lon="7.3025721"/>
      <trkpt lat="51.6096813" lon="7.3025452"/>
      <trkpt lat="51.6098500" lon="7.3023858"/>
      <trkpt lat="51.6098990" lon="7.3023256"/>
      <trkpt lat="51.6099656" lon="7.3022303"/>
      <trkpt lat="51.6099801" lon="7.3022017"/>
      <trkpt lat="51.6100810" lon="7.3022989"/>
      <trkpt lat="51.6102622" lon="7.3022467"/>
      <trkpt lat="51.6102969" lon="7.3022579"/>
      <trkpt lat="51.6103205" lon="7.3022655"/>
      <trkpt lat="51.6105195" lon="7.3022749"/>
      <trkpt lat="51.6105790" lon="7.3023022"/>
      <trkpt lat="51.6106594" lon="7.3022842"/>
      <trkpt lat="51.6110122" lon="7.3022914"/>
      <trkpt lat="51.6113203" lon="7.3022977"/>
      <trkpt lat="51.6113066" lon="7.3016744"/>
      <trkpt lat="51.6112891" lon="7.3016261"/>
      <trkpt lat="51.6112812" lon="7.3011876"/>
      <trkpt lat="51.6112892" lon="7.3011324"/>
      <trkpt lat="51.6112840" lon="7.3009609"/>
      <trkpt lat="51.6112818" lon="7.3007854"/>
      <trkpt lat="51.6112774" lon="7.3004856"/>
    </trkseg>
  </trk>
</gpx>