<?xml version="1.0" encoding="UTF-8"?>
<gpx version="1.1" creator="Linienjagd Castrop-Rauxel" xmlns="http://www.topografix.com/GPX/1/1">
  <metadata><name>Linie NE11 – komplette Linie</name><desc>Bus NE11: Ickern =&gt; Reinoldikirche | 26.05 km | 42 Haltestellen</desc></metadata>
  <wpt lat="51.5921927" lon="7.3383003"><name>01 Ickern Markt</name><sym>Flag</sym></wpt>
  <wpt lat="51.5911752" lon="7.3351543"><name>02 Heinestraße</name><sym>Flag</sym></wpt>
  <wpt lat="51.5929218" lon="7.3325291"><name>03 Ickern Friedhof</name><sym>Flag</sym></wpt>
  <wpt lat="51.5938768" lon="7.3295898"><name>04 In der Wanne</name><sym>Flag</sym></wpt>
  <wpt lat="51.5959644" lon="7.3303469"><name>05 Waldenburger Straße</name><sym>Flag</sym></wpt>
  <wpt lat="51.5968602" lon="7.3235014"><name>06 Stettiner Straße</name><sym>Flag</sym></wpt>
  <wpt lat="51.6000087" lon="7.3192045"><name>07 Hagenstraße</name><sym>Flag</sym></wpt>
  <wpt lat="51.5995681" lon="7.3116151"><name>08 Henrichenburg Mitte</name><sym>Flag</sym></wpt>
  <wpt lat="51.5929556" lon="7.3107499"><name>09 Heerstraße</name><sym>Flag</sym></wpt>
  <wpt lat="51.5882577" lon="7.3095087"><name>10 Römerstraße</name><sym>Flag</sym></wpt>
  <wpt lat="51.5849195" lon="7.3097961"><name>11 Habinghorster Straße</name><sym>Flag</sym></wpt>
  <wpt lat="51.5834664" lon="7.3054864"><name>12 Habinghorst Schulzentrum</name><sym>Flag</sym></wpt>
  <wpt lat="51.5806338" lon="7.3043184"><name>13 Siemensstraße</name><sym>Flag</sym></wpt>
  <wpt lat="51.5768299" lon="7.3042464"><name>14 Zeche Victor I/II</name><sym>Flag</sym></wpt>
  <wpt lat="51.5729972" lon="7.3053114"><name>15 Castrop-Rauxel Hbf</name><sym>Flag</sym></wpt>
  <wpt lat="51.5702850" lon="7.3064871"><name>16 Schulstraße</name><sym>Flag</sym></wpt>
  <wpt lat="51.5665268" lon="7.3080434"><name>17 Liebigstraße</name><sym>Flag</sym></wpt>
  <wpt lat="51.5644247" lon="7.3089598"><name>18 Europaplatz</name><sym>Flag</sym></wpt>
  <wpt lat="51.5621916" lon="7.3094929"><name>19 Rosenstraße</name><sym>Flag</sym></wpt>
  <wpt lat="51.5584745" lon="7.3101940"><name>20 Lunastraße</name><sym>Flag</sym></wpt>
  <wpt lat="51.5552056" lon="7.3108460"><name>21 Castrop Betriebshof</name><sym>Flag</sym></wpt>
  <wpt lat="51.5533138" lon="7.3103264"><name>22 Engelsburgplatz</name><sym>Flag</sym></wpt>
  <wpt lat="51.5491719" lon="7.3085843"><name>23 Castrop Münsterplatz</name><sym>Flag</sym></wpt>
  <wpt lat="51.5472252" lon="7.3116389"><name>24 Castrop Markt</name><sym>Flag</sym></wpt>
  <wpt lat="51.5448048" lon="7.3142836"><name>25 Beethovenstraße</name><sym>Flag</sym></wpt>
  <wpt lat="51.5477156" lon="7.3195222"><name>26 Goldschmieding</name><sym>Flag</sym></wpt>
  <wpt lat="51.5442303" lon="7.3290814"><name>27 Grimbergstraße</name><sym>Flag</sym></wpt>
  <wpt lat="51.5422163" lon="7.3327016"><name>28 Neuroder Platz</name><sym>Flag</sym></wpt>
  <wpt lat="51.5404592" lon="7.3358808"><name>29 Schweriner Hellweg</name><sym>Flag</sym></wpt>
  <wpt lat="51.5344773" lon="7.3423405"><name>30 Pankok</name><sym>Flag</sym></wpt>
  <wpt lat="51.5316994" lon="7.3480547"><name>31 Vincennesstraße</name><sym>Flag</sym></wpt>
  <wpt lat="51.5293335" lon="7.3543139"><name>32 Frohlinde Denkmal</name><sym>Flag</sym></wpt>
  <wpt lat="51.5269829" lon="7.3598601"><name>33 Fühlestraße</name><sym>Flag</sym></wpt>
  <wpt lat="51.5260502" lon="7.3641306"><name>34 Heckelbeckstraße</name><sym>Flag</sym></wpt>
  <wpt lat="51.5240288" lon="7.3690757"><name>35 Zollernstraße/Kirchlinde Krankenhaus</name><sym>Flag</sym></wpt>
  <wpt lat="51.5218391" lon="7.3702437"><name>36 Kirchlinde Zentrum</name><sym>Flag</sym></wpt>
  <wpt lat="51.5168556" lon="7.3730873"><name>37 Bärenbruch</name><sym>Flag</sym></wpt>
  <wpt lat="51.5239764" lon="7.4457533"><name>38 Hafen</name><sym>Flag</sym></wpt>
  <wpt lat="51.5238106" lon="7.4518716"><name>39 Schützenstraße</name><sym>Flag</sym></wpt>
  <wpt lat="51.5197376" lon="7.4534233"><name>40 Kirchenstraße</name><sym>Flag</sym></wpt>
  <wpt lat="51.5200471" lon="7.4593302"><name>41 Steinwache/DO-Hbf Nord</name><sym>Flag</sym></wpt>
  <wpt lat="51.5154195" lon="7.4686873"><name>42 Reinoldikirche</name><sym>Flag</sym></wpt>
  <trk><name>Linie NE11 – komplette Linie</name>
    <trkseg>
      <trkpt lat="51.5910264" lon="7.3362059"/>
      <trkpt lat="51.5910666" lon="7.3362483"/>
      <trkpt lat="51.5911256" lon="7.3363249"/>
      <trkpt lat="51.5911752" lon="7.3364465"/>
      <trkpt lat="51.5912628" lon="7.3366866"/>
      <trkpt lat="51.5914173" lon="7.3371575"/>
      <trkpt lat="51.5916029" lon="7.3375092"/>
      <trkpt lat="51.5918826" lon="7.3378964"/>
      <trkpt lat="51.5921673" lon="7.3382670"/>
      <trkpt lat="51.5921927" lon="7.3383003"/>
    </trkseg>
    <trkseg>
      <trkpt lat="51.5910264" lon="7.3362059"/>
      <trkpt lat="51.5911283" lon="7.3354690"/>
      <trkpt lat="51.5911752" lon="7.3351543"/>
      <trkpt lat="51.5912305" lon="7.3347870"/>
      <trkpt lat="51.5912733" lon="7.3346551"/>
      <trkpt lat="51.5915564" lon="7.3338964"/>
      <trkpt lat="51.5916053" lon="7.3337747"/>
      <trkpt lat="51.5917402" lon="7.3335202"/>
      <trkpt lat="51.5923722" lon="7.3328963"/>
      <trkpt lat="51.5927453" lon="7.3325393"/>
      <trkpt lat="51.5928813" lon="7.3325298"/>
      <trkpt lat="51.5929218" lon="7.3325291"/>
      <trkpt lat="51.5930178" lon="7.3325270"/>
      <trkpt lat="51.5930158" lon="7.3323009"/>
      <trkpt lat="51.5930117" lon="7.3319581"/>
      <trkpt lat="51.5930064" lon="7.3316769"/>
      <trkpt lat="51.5929982" lon="7.3308634"/>
      <trkpt lat="51.5929831" lon="7.3297788"/>
      <trkpt lat="51.5929896" lon="7.3295949"/>
      <trkpt lat="51.5930183" lon="7.3293506"/>
      <trkpt lat="51.5930355" lon="7.3293593"/>
      <trkpt lat="51.5930535" lon="7.3293592"/>
      <trkpt lat="51.5930707" lon="7.3293505"/>
      <trkpt lat="51.5930855" lon="7.3293339"/>
      <trkpt lat="51.5930966" lon="7.3293109"/>
      <trkpt lat="51.5931028" lon="7.3292837"/>
      <trkpt lat="51.5931038" lon="7.3292566"/>
      <trkpt lat="51.5931001" lon="7.3292301"/>
      <trkpt lat="51.5930919" lon="7.3292064"/>
      <trkpt lat="51.5930799" lon="7.3291873"/>
      <trkpt lat="51.5930650" lon="7.3291744"/>
      <trkpt lat="51.5930486" lon="7.3291688"/>
      <trkpt lat="51.5930317" lon="7.3291708"/>
      <trkpt lat="51.5930179" lon="7.3291786"/>
      <trkpt lat="51.5930057" lon="7.3291915"/>
      <trkpt lat="51.5929959" lon="7.3292089"/>
      <trkpt lat="51.5929889" lon="7.3292296"/>
      <trkpt lat="51.5929850" lon="7.3292574"/>
      <trkpt lat="51.5929864" lon="7.3292857"/>
      <trkpt lat="51.5929928" lon="7.3293122"/>
      <trkpt lat="51.5930038" lon="7.3293345"/>
      <trkpt lat="51.5930183" lon="7.3293506"/>
      <trkpt lat="51.5930355" lon="7.3293593"/>
      <trkpt lat="51.5931028" lon="7.3292837"/>
      <trkpt lat="51.5933910" lon="7.3294048"/>
      <trkpt lat="51.5936450" lon="7.3295004"/>
      <trkpt lat="51.5938768" lon="7.3295898"/>
      <trkpt lat="51.5945551" lon="7.3298356"/>
      <trkpt lat="51.5946628" lon="7.3298739"/>
      <trkpt lat="51.5950118" lon="7.3299957"/>
      <trkpt lat="51.5950398" lon="7.3300052"/>
      <trkpt lat="51.5951744" lon="7.3300494"/>
      <trkpt lat="51.5954950" lon="7.3301652"/>
      <trkpt lat="51.5956050" lon="7.3301959"/>
      <trkpt lat="51.5957434" lon="7.3302496"/>
      <trkpt lat="51.5959060" lon="7.3303208"/>
      <trkpt lat="51.5959644" lon="7.3303469"/>
      <trkpt lat="51.5960304" lon="7.3303738"/>
      <trkpt lat="51.5962897" lon="7.3304947"/>
      <trkpt lat="51.5963229" lon="7.3305147"/>
      <trkpt lat="51.5963592" lon="7.3302176"/>
      <trkpt lat="51.5963684" lon="7.3301061"/>
      <trkpt lat="51.5964310" lon="7.3293451"/>
      <trkpt lat="51.5964591" lon="7.3289832"/>
      <trkpt lat="51.5964707" lon="7.3288694"/>
      <trkpt lat="51.5965105" lon="7.3284299"/>
      <trkpt lat="51.5966141" lon="7.3273722"/>
      <trkpt lat="51.5966281" lon="7.3272469"/>
      <trkpt lat="51.5966629" lon="7.3269359"/>
      <trkpt lat="51.5967598" lon="7.3259195"/>
      <trkpt lat="51.5967939" lon="7.3253740"/>
      <trkpt lat="51.5967987" lon="7.3252972"/>
      <trkpt lat="51.5968419" lon="7.3244513"/>
      <trkpt lat="51.5968493" lon="7.3242562"/>
      <trkpt lat="51.5968548" lon="7.3240573"/>
      <trkpt lat="51.5968578" lon="7.3238379"/>
      <trkpt lat="51.5968598" lon="7.3235317"/>
      <trkpt lat="51.5968602" lon="7.3235014"/>
      <trkpt lat="51.5968604" lon="7.3234155"/>
      <trkpt lat="51.5968601" lon="7.3232093"/>
      <trkpt lat="51.5968599" lon="7.3231752"/>
      <trkpt lat="51.5968628" lon="7.3229971"/>
      <trkpt lat="51.5968676" lon="7.3227691"/>
      <trkpt lat="51.5968738" lon="7.3224897"/>
      <trkpt lat="51.5968783" lon="7.3223239"/>
      <trkpt lat="51.5968904" lon="7.3218700"/>
      <trkpt lat="51.5968922" lon="7.3218155"/>
      <trkpt lat="51.5969031" lon="7.3214180"/>
      <trkpt lat="51.5969148" lon="7.3208872"/>
      <trkpt lat="51.5972347" lon="7.3209509"/>
      <trkpt lat="51.5972621" lon="7.3209556"/>
      <trkpt lat="51.5974194" lon="7.3209887"/>
      <trkpt lat="51.5976010" lon="7.3210278"/>
      <trkpt lat="51.5977384" lon="7.3210278"/>
      <trkpt lat="51.5978826" lon="7.3210064"/>
      <trkpt lat="51.5979973" lon="7.3209652"/>
      <trkpt lat="51.5981406" lon="7.3208771"/>
      <trkpt lat="51.5989835" lon="7.3202511"/>
      <trkpt lat="51.5990975" lon="7.3201666"/>
      <trkpt lat="51.5999586" lon="7.3195328"/>
      <trkpt lat="51.6000742" lon="7.3194477"/>
      <trkpt lat="51.6000087" lon="7.3192045"/>
      <trkpt lat="51.5999881" lon="7.3191183"/>
      <trkpt lat="51.5997851" lon="7.3182799"/>
      <trkpt lat="51.5996632" lon="7.3178420"/>
      <trkpt lat="51.5995851" lon="7.3174592"/>
      <trkpt lat="51.5995356" lon="7.3170429"/>
      <trkpt lat="51.5994891" lon="7.3165103"/>
      <trkpt lat="51.5994553" lon="7.3160765"/>
      <trkpt lat="51.5994478" lon="7.3159242"/>
      <trkpt lat="51.5994470" lon="7.3157787"/>
      <trkpt lat="51.5994562" lon="7.3156399"/>
      <trkpt lat="51.5994775" lon="7.3154868"/>
      <trkpt lat="51.5997117" lon="7.3141186"/>
      <trkpt lat="51.5997341" lon="7.3139880"/>
      <trkpt lat="51.5997491" lon="7.3139027"/>
      <trkpt lat="51.5997872" lon="7.3136852"/>
      <trkpt lat="51.5997998" lon="7.3136041"/>
      <trkpt lat="51.5998036" lon="7.3134942"/>
      <trkpt lat="51.5997908" lon="7.3134124"/>
      <trkpt lat="51.5997617" lon="7.3133181"/>
      <trkpt lat="51.5997257" lon="7.3132611"/>
      <trkpt lat="51.5996707" lon="7.3132129"/>
      <trkpt lat="51.5996142" lon="7.3131896"/>
      <trkpt lat="51.5991076" lon="7.3130541"/>
      <trkpt lat="51.5990677" lon="7.3130434"/>
      <trkpt lat="51.5989989" lon="7.3130130"/>
      <trkpt lat="51.5989607" lon="7.3129849"/>
      <trkpt lat="51.5989462" lon="7.3129369"/>
      <trkpt lat="51.5989353" lon="7.3128903"/>
      <trkpt lat="51.5989307" lon="7.3128310"/>
      <trkpt lat="51.5989355" lon="7.3127666"/>
      <trkpt lat="51.5989808" lon="7.3124851"/>
      <trkpt lat="51.5990960" lon="7.3125477"/>
      <trkpt lat="51.5993498" lon="7.3127142"/>
      <trkpt lat="51.5995850" lon="7.3129219"/>
      <trkpt lat="51.5996418" lon="7.3129721"/>
      <trkpt lat="51.5997267" lon="7.3130471"/>
      <trkpt lat="51.5998988" lon="7.3131726"/>
      <trkpt lat="51.6000110" lon="7.3132407"/>
      <trkpt lat="51.6001152" lon="7.3133029"/>
      <trkpt lat="51.6001474" lon="7.3131469"/>
      <trkpt lat="51.6003222" lon="7.3121119"/>
      <trkpt lat="51.6003510" lon="7.3119414"/>
      <trkpt lat="51.6001193" lon="7.3118449"/>
      <trkpt lat="51.5999239" lon="7.3117635"/>
      <trkpt lat="51.5998069" lon="7.3117148"/>
      <trkpt lat="51.5997814" lon="7.3117042"/>
      <trkpt lat="51.5995903" lon="7.3116247"/>
      <trkpt lat="51.5995681" lon="7.3116151"/>
      <trkpt lat="51.5994610" lon="7.3115707"/>
      <trkpt lat="51.5993706" lon="7.3115331"/>
      <trkpt lat="51.5993341" lon="7.3115178"/>
      <trkpt lat="51.5991782" lon="7.3114529"/>
      <trkpt lat="51.5991248" lon="7.3114307"/>
      <trkpt lat="51.5990196" lon="7.3114019"/>
      <trkpt lat="51.5990188" lon="7.3115719"/>
      <trkpt lat="51.5989938" lon="7.3117266"/>
      <trkpt lat="51.5989806" lon="7.3121168"/>
      <trkpt lat="51.5989788" lon="7.3121691"/>
      <trkpt lat="51.5989738" lon="7.3123167"/>
      <trkpt lat="51.5989808" lon="7.3124851"/>
      <trkpt lat="51.5987509" lon="7.3123923"/>
      <trkpt lat="51.5987099" lon="7.3123757"/>
      <trkpt lat="51.5985790" lon="7.3123273"/>
      <trkpt lat="51.5984058" lon="7.3122710"/>
      <trkpt lat="51.5982407" lon="7.3122255"/>
      <trkpt lat="51.5981411" lon="7.3121971"/>
      <trkpt lat="51.5977738" lon="7.3120898"/>
      <trkpt lat="51.5974183" lon="7.3119902"/>
      <trkpt lat="51.5970227" lon="7.3118778"/>
      <trkpt lat="51.5968788" lon="7.3118375"/>
      <trkpt lat="51.5965350" lon="7.3117410"/>
      <trkpt lat="51.5964147" lon="7.3117063"/>
      <trkpt lat="51.5961799" lon="7.3116421"/>
      <trkpt lat="51.5960592" lon="7.3116051"/>
      <trkpt lat="51.5958122" lon="7.3115353"/>
      <trkpt lat="51.5954385" lon="7.3114295"/>
      <trkpt lat="51.5951533" lon="7.3113497"/>
      <trkpt lat="51.5947933" lon="7.3112536"/>
      <trkpt lat="51.5945123" lon="7.3111778"/>
      <trkpt lat="51.5943500" lon="7.3111319"/>
      <trkpt lat="51.5932825" lon="7.3108548"/>
      <trkpt lat="51.5929556" lon="7.3107499"/>
      <trkpt lat="51.5927690" lon="7.3106968"/>
      <trkpt lat="51.5926064" lon="7.3106521"/>
      <trkpt lat="51.5924691" lon="7.3106143"/>
      <trkpt lat="51.5921019" lon="7.3105134"/>
      <trkpt lat="51.5920489" lon="7.3104988"/>
      <trkpt lat="51.5915412" lon="7.3103540"/>
      <trkpt lat="51.5911396" lon="7.3102239"/>
      <trkpt lat="51.5908056" lon="7.3101211"/>
      <trkpt lat="51.5906139" lon="7.3100656"/>
      <trkpt lat="51.5901523" lon="7.3099155"/>
      <trkpt lat="51.5895620" lon="7.3097303"/>
      <trkpt lat="51.5891154" lon="7.3095894"/>
      <trkpt lat="51.5889123" lon="7.3095253"/>
      <trkpt lat="51.5887200" lon="7.3094973"/>
      <trkpt lat="51.5885961" lon="7.3094906"/>
      <trkpt lat="51.5882577" lon="7.3095087"/>
      <trkpt lat="51.5882112" lon="7.3095131"/>
      <trkpt lat="51.5879799" lon="7.3095440"/>
      <trkpt lat="51.5874879" lon="7.3096025"/>
      <trkpt lat="51.5863927" lon="7.3096887"/>
      <trkpt lat="51.5860827" lon="7.3097099"/>
      <trkpt lat="51.5850877" lon="7.3097781"/>
      <trkpt lat="51.5849765" lon="7.3097894"/>
      <trkpt lat="51.5849195" lon="7.3097961"/>
      <trkpt lat="51.5846845" lon="7.3098262"/>
      <trkpt lat="51.5845496" lon="7.3098592"/>
      <trkpt lat="51.5842831" lon="7.3099308"/>
      <trkpt lat="51.5842461" lon="7.3099407"/>
      <trkpt lat="51.5840917" lon="7.3099807"/>
      <trkpt lat="51.5840435" lon="7.3096733"/>
      <trkpt lat="51.5840304" lon="7.3095899"/>
      <trkpt lat="51.5839355" lon="7.3089021"/>
      <trkpt lat="51.5838788" lon="7.3084868"/>
      <trkpt lat="51.5838188" lon="7.3080525"/>
      <trkpt lat="51.5837833" lon="7.3077999"/>
      <trkpt lat="51.5837636" lon="7.3076540"/>
      <trkpt lat="51.5837231" lon="7.3073632"/>
      <trkpt lat="51.5836310" lon="7.3066964"/>
      <trkpt lat="51.5836001" lon="7.3064723"/>
      <trkpt lat="51.5835538" lon="7.3061368"/>
      <trkpt lat="51.5835064" lon="7.3057936"/>
      <trkpt lat="51.5834664" lon="7.3054864"/>
      <trkpt lat="51.5834529" lon="7.3053475"/>
      <trkpt lat="51.5834389" lon="7.3051088"/>
      <trkpt lat="51.5834387" lon="7.3046528"/>
      <trkpt lat="51.5834386" lon="7.3045962"/>
      <trkpt lat="51.5834385" lon="7.3044107"/>
      <trkpt lat="51.5833140" lon="7.3044043"/>
      <trkpt lat="51.5831781" lon="7.3043972"/>
      <trkpt lat="51.5831416" lon="7.3043958"/>
      <trkpt lat="51.5827526" lon="7.3043805"/>
      <trkpt lat="51.5825266" lon="7.3043688"/>
      <trkpt lat="51.5822231" lon="7.3043623"/>
      <trkpt lat="51.5820051" lon="7.3043512"/>
      <trkpt lat="51.5817505" lon="7.3043522"/>
      <trkpt lat="51.5815419" lon="7.3043448"/>
      <trkpt lat="51.5812348" lon="7.3043325"/>
      <trkpt lat="51.5809221" lon="7.3043309"/>
      <trkpt lat="51.5806338" lon="7.3043184"/>
      <trkpt lat="51.5804425" lon="7.3043108"/>
      <trkpt lat="51.5803058" lon="7.3043042"/>
      <trkpt lat="51.5801577" lon="7.3042978"/>
      <trkpt lat="51.5798664" lon="7.3043134"/>
      <trkpt lat="51.5797143" lon="7.3043426"/>
      <trkpt lat="51.5796414" lon="7.3043567"/>
      <trkpt lat="51.5796329" lon="7.3043009"/>
      <trkpt lat="51.5796159" lon="7.3042504"/>
      <trkpt lat="51.5795914" lon="7.3042085"/>
      <trkpt lat="51.5795611" lon="7.3041780"/>
      <trkpt lat="51.5795270" lon="7.3041610"/>
      <trkpt lat="51.5794913" lon="7.3041586"/>
      <trkpt lat="51.5794616" lon="7.3041681"/>
      <trkpt lat="51.5794339" lon="7.3041877"/>
      <trkpt lat="51.5794094" lon="7.3042165"/>
      <trkpt lat="51.5793895" lon="7.3042531"/>
      <trkpt lat="51.5793749" lon="7.3042958"/>
      <trkpt lat="51.5793664" lon="7.3043426"/>
      <trkpt lat="51.5793647" lon="7.3043987"/>
      <trkpt lat="51.5793718" lon="7.3044538"/>
      <trkpt lat="51.5793872" lon="7.3045043"/>
      <trkpt lat="51.5794099" lon="7.3045470"/>
      <trkpt lat="51.5794385" lon="7.3045792"/>
      <trkpt lat="51.5794712" lon="7.3045990"/>
      <trkpt lat="51.5795059" lon="7.3046050"/>
      <trkpt lat="51.5795405" lon="7.3045969"/>
      <trkpt lat="51.5795706" lon="7.3045770"/>
      <trkpt lat="51.5795971" lon="7.3045464"/>
      <trkpt lat="51.5796184" lon="7.3045067"/>
      <trkpt lat="51.5796334" lon="7.3044601"/>
      <trkpt lat="51.5796412" lon="7.3044092"/>
      <trkpt lat="51.5796414" lon="7.3043567"/>
      <trkpt lat="51.5793664" lon="7.3043426"/>
      <trkpt lat="51.5792954" lon="7.3043177"/>
      <trkpt lat="51.5791975" lon="7.3042995"/>
      <trkpt lat="51.5791132" lon="7.3042838"/>
      <trkpt lat="51.5789128" lon="7.3042721"/>
      <trkpt lat="51.5788166" lon="7.3042658"/>
      <trkpt lat="51.5786146" lon="7.3042616"/>
      <trkpt lat="51.5785786" lon="7.3042629"/>
      <trkpt lat="51.5785218" lon="7.3042654"/>
      <trkpt lat="51.5784641" lon="7.3042648"/>
      <trkpt lat="51.5783454" lon="7.3042559"/>
      <trkpt lat="51.5778798" lon="7.3042330"/>
      <trkpt lat="51.5774764" lon="7.3042427"/>
      <trkpt lat="51.5774093" lon="7.3042445"/>
      <trkpt lat="51.5771947" lon="7.3042479"/>
      <trkpt lat="51.5769763" lon="7.3042489"/>
      <trkpt lat="51.5768299" lon="7.3042464"/>
      <trkpt lat="51.5767178" lon="7.3042392"/>
      <trkpt lat="51.5766069" lon="7.3042233"/>
      <trkpt lat="51.5765074" lon="7.3042084"/>
      <trkpt lat="51.5764474" lon="7.3042046"/>
      <trkpt lat="51.5760920" lon="7.3042074"/>
      <trkpt lat="51.5760053" lon="7.3042068"/>
      <trkpt lat="51.5757616" lon="7.3042317"/>
      <trkpt lat="51.5757666" lon="7.3042785"/>
      <trkpt lat="51.5757785" lon="7.3043219"/>
      <trkpt lat="51.5757964" lon="7.3043595"/>
      <trkpt lat="51.5758194" lon="7.3043890"/>
      <trkpt lat="51.5758462" lon="7.3044089"/>
      <trkpt lat="51.5758751" lon="7.3044179"/>
      <trkpt lat="51.5759045" lon="7.3044154"/>
      <trkpt lat="51.5759292" lon="7.3044041"/>
      <trkpt lat="51.5759519" lon="7.3043847"/>
      <trkpt lat="51.5759716" lon="7.3043581"/>
      <trkpt lat="51.5759873" lon="7.3043255"/>
      <trkpt lat="51.5759985" lon="7.3042883"/>
      <trkpt lat="51.5760046" lon="7.3042482"/>
      <trkpt lat="51.5760053" lon="7.3042068"/>
      <trkpt lat="51.5759963" lon="7.3041462"/>
      <trkpt lat="51.5759758" lon="7.3040931"/>
      <trkpt lat="51.5759461" lon="7.3040530"/>
      <trkpt lat="51.5759100" lon="7.3040300"/>
      <trkpt lat="51.5758877" lon="7.3040255"/>
      <trkpt lat="51.5758654" lon="7.3040276"/>
      <trkpt lat="51.5758436" lon="7.3040362"/>
      <trkpt lat="51.5758232" lon="7.3040511"/>
      <trkpt lat="51.5758048" lon="7.3040718"/>
      <trkpt lat="51.5757890" lon="7.3040975"/>
      <trkpt lat="51.5757765" lon="7.3041274"/>
      <trkpt lat="51.5757676" lon="7.3041605"/>
      <trkpt lat="51.5757626" lon="7.3041957"/>
      <trkpt lat="51.5757616" lon="7.3042317"/>
      <trkpt lat="51.5756693" lon="7.3042392"/>
      <trkpt lat="51.5755671" lon="7.3042530"/>
      <trkpt lat="51.5755286" lon="7.3042644"/>
      <trkpt lat="51.5754871" lon="7.3042766"/>
      <trkpt lat="51.5753632" lon="7.3043100"/>
      <trkpt lat="51.5752130" lon="7.3043654"/>
      <trkpt lat="51.5750021" lon="7.3044486"/>
      <trkpt lat="51.5746749" lon="7.3045971"/>
      <trkpt lat="51.5745293" lon="7.3046667"/>
      <trkpt lat="51.5742710" lon="7.3047703"/>
      <trkpt lat="51.5738406" lon="7.3049592"/>
      <trkpt lat="51.5736126" lon="7.3050586"/>
      <trkpt lat="51.5735423" lon="7.3050928"/>
      <trkpt lat="51.5734124" lon="7.3051323"/>
      <trkpt lat="51.5733208" lon="7.3051722"/>
      <trkpt lat="51.5732939" lon="7.3051840"/>
      <trkpt lat="51.5732835" lon="7.3051883"/>
      <trkpt lat="51.5729972" lon="7.3053114"/>
      <trkpt lat="51.5727986" lon="7.3054100"/>
      <trkpt lat="51.5723227" lon="7.3055940"/>
      <trkpt lat="51.5721570" lon="7.3056570"/>
      <trkpt lat="51.5718536" lon="7.3057848"/>
      <trkpt lat="51.5717040" lon="7.3058438"/>
      <trkpt lat="51.5711689" lon="7.3060962"/>
      <trkpt lat="51.5711378" lon="7.3061087"/>
      <trkpt lat="51.5710234" lon="7.3061600"/>
      <trkpt lat="51.5709051" lon="7.3062107"/>
      <trkpt lat="51.5708025" lon="7.3062555"/>
      <trkpt lat="51.5702850" lon="7.3064871"/>
      <trkpt lat="51.5701979" lon="7.3065188"/>
      <trkpt lat="51.5699860" lon="7.3065922"/>
      <trkpt lat="51.5697241" lon="7.3066903"/>
      <trkpt lat="51.5695481" lon="7.3067690"/>
      <trkpt lat="51.5694124" lon="7.3068488"/>
      <trkpt lat="51.5690207" lon="7.3070186"/>
      <trkpt lat="51.5687465" lon="7.3071041"/>
      <trkpt lat="51.5685333" lon="7.3071993"/>
      <trkpt lat="51.5683960" lon="7.3072613"/>
      <trkpt lat="51.5683483" lon="7.3072828"/>
      <trkpt lat="51.5682005" lon="7.3073398"/>
      <trkpt lat="51.5681115" lon="7.3073758"/>
      <trkpt lat="51.5680526" lon="7.3073996"/>
      <trkpt lat="51.5677509" lon="7.3075225"/>
      <trkpt lat="51.5674637" lon="7.3076515"/>
      <trkpt lat="51.5674096" lon="7.3076758"/>
      <trkpt lat="51.5672115" lon="7.3077611"/>
      <trkpt lat="51.5671126" lon="7.3078032"/>
      <trkpt lat="51.5669581" lon="7.3078688"/>
      <trkpt lat="51.5668826" lon="7.3079009"/>
      <trkpt lat="51.5667992" lon="7.3079364"/>
      <trkpt lat="51.5666572" lon="7.3079967"/>
      <trkpt lat="51.5665969" lon="7.3080189"/>
      <trkpt lat="51.5665456" lon="7.3080392"/>
      <trkpt lat="51.5665268" lon="7.3080434"/>
      <trkpt lat="51.5664245" lon="7.3080729"/>
      <trkpt lat="51.5663393" lon="7.3081088"/>
      <trkpt lat="51.5662034" lon="7.3081660"/>
      <trkpt lat="51.5660662" lon="7.3082238"/>
      <trkpt lat="51.5659747" lon="7.3082624"/>
      <trkpt lat="51.5658225" lon="7.3083230"/>
      <trkpt lat="51.5656849" lon="7.3083321"/>
      <trkpt lat="51.5656268" lon="7.3083360"/>
      <trkpt lat="51.5655657" lon="7.3083095"/>
      <trkpt lat="51.5655270" lon="7.3082819"/>
      <trkpt lat="51.5655075" lon="7.3082763"/>
      <trkpt lat="51.5654876" lon="7.3082755"/>
      <trkpt lat="51.5654679" lon="7.3082796"/>
      <trkpt lat="51.5654488" lon="7.3082884"/>
      <trkpt lat="51.5654307" lon="7.3083019"/>
      <trkpt lat="51.5654141" lon="7.3083196"/>
      <trkpt lat="51.5654000" lon="7.3083403"/>
      <trkpt lat="51.5653879" lon="7.3083640"/>
      <trkpt lat="51.5653780" lon="7.3083904"/>
      <trkpt lat="51.5653707" lon="7.3084188"/>
      <trkpt lat="51.5653661" lon="7.3084486"/>
      <trkpt lat="51.5653642" lon="7.3084792"/>
      <trkpt lat="51.5652854" lon="7.3085172"/>
      <trkpt lat="51.5648350" lon="7.3087370"/>
      <trkpt lat="51.5647242" lon="7.3087997"/>
      <trkpt lat="51.5646520" lon="7.3088584"/>
      <trkpt lat="51.5644247" lon="7.3089598"/>
      <trkpt lat="51.5642856" lon="7.3090327"/>
      <trkpt lat="51.5642624" lon="7.3090394"/>
      <trkpt lat="51.5641811" lon="7.3090629"/>
      <trkpt lat="51.5639311" lon="7.3091874"/>
      <trkpt lat="51.5639342" lon="7.3092346"/>
      <trkpt lat="51.5639435" lon="7.3092797"/>
      <trkpt lat="51.5639653" lon="7.3093337"/>
      <trkpt lat="51.5639958" lon="7.3093754"/>
      <trkpt lat="51.5640325" lon="7.3094010"/>
      <trkpt lat="51.5640782" lon="7.3094081"/>
      <trkpt lat="51.5641228" lon="7.3093904"/>
      <trkpt lat="51.5641550" lon="7.3093589"/>
      <trkpt lat="51.5641806" lon="7.3093145"/>
      <trkpt lat="51.5641977" lon="7.3092607"/>
      <trkpt lat="51.5642051" lon="7.3092013"/>
      <trkpt lat="51.5642003" lon="7.3091289"/>
      <trkpt lat="51.5641811" lon="7.3090629"/>
      <trkpt lat="51.5641509" lon="7.3090122"/>
      <trkpt lat="51.5641123" lon="7.3089793"/>
      <trkpt lat="51.5641007" lon="7.3089761"/>
      <trkpt lat="51.5640693" lon="7.3089676"/>
      <trkpt lat="51.5640261" lon="7.3089782"/>
      <trkpt lat="51.5639873" lon="7.3090101"/>
      <trkpt lat="51.5639622" lon="7.3090482"/>
      <trkpt lat="51.5639439" lon="7.3090952"/>
      <trkpt lat="51.5639344" lon="7.3091402"/>
      <trkpt lat="51.5639311" lon="7.3091874"/>
      <trkpt lat="51.5639439" lon="7.3090952"/>
      <trkpt lat="51.5639134" lon="7.3091175"/>
      <trkpt lat="51.5638404" lon="7.3091405"/>
      <trkpt lat="51.5636350" lon="7.3092051"/>
      <trkpt lat="51.5632865" lon="7.3092742"/>
      <trkpt lat="51.5626236" lon="7.3094166"/>
      <trkpt lat="51.5624469" lon="7.3094439"/>
      <trkpt lat="51.5624119" lon="7.3094508"/>
      <trkpt lat="51.5623302" lon="7.3094669"/>
      <trkpt lat="51.5621916" lon="7.3094929"/>
      <trkpt lat="51.5620238" lon="7.3095325"/>
      <trkpt lat="51.5619025" lon="7.3095542"/>
      <trkpt lat="51.5616577" lon="7.3095941"/>
      <trkpt lat="51.5616218" lon="7.3096019"/>
      <trkpt lat="51.5615170" lon="7.3096218"/>
      <trkpt lat="51.5613670" lon="7.3096467"/>
      <trkpt lat="51.5612500" lon="7.3096662"/>
      <trkpt lat="51.5611662" lon="7.3096781"/>
      <trkpt lat="51.5611503" lon="7.3096806"/>
      <trkpt lat="51.5609859" lon="7.3097072"/>
      <trkpt lat="51.5604623" lon="7.3097914"/>
      <trkpt lat="51.5604392" lon="7.3097952"/>
      <trkpt lat="51.5604044" lon="7.3098006"/>
      <trkpt lat="51.5603541" lon="7.3098083"/>
      <trkpt lat="51.5602141" lon="7.3098423"/>
      <trkpt lat="51.5601405" lon="7.3098546"/>
      <trkpt lat="51.5597843" lon="7.3099432"/>
      <trkpt lat="51.5596382" lon="7.3099762"/>
      <trkpt lat="51.5594332" lon="7.3100194"/>
      <trkpt lat="51.5590879" lon="7.3100751"/>
      <trkpt lat="51.5589829" lon="7.3100981"/>
      <trkpt lat="51.5587868" lon="7.3101374"/>
      <trkpt lat="51.5587610" lon="7.3101419"/>
      <trkpt lat="51.5584745" lon="7.3101940"/>
      <trkpt lat="51.5584694" lon="7.3101947"/>
      <trkpt lat="51.5583849" lon="7.3101535"/>
      <trkpt lat="51.5582940" lon="7.3101489"/>
      <trkpt lat="51.5581818" lon="7.3101600"/>
      <trkpt lat="51.5580628" lon="7.3101828"/>
      <trkpt lat="51.5579862" lon="7.3101974"/>
      <trkpt lat="51.5577884" lon="7.3102352"/>
      <trkpt lat="51.5577661" lon="7.3102395"/>
      <trkpt lat="51.5576795" lon="7.3102561"/>
      <trkpt lat="51.5575950" lon="7.3103385"/>
      <trkpt lat="51.5572382" lon="7.3104326"/>
      <trkpt lat="51.5571427" lon="7.3104521"/>
      <trkpt lat="51.5570697" lon="7.3104669"/>
      <trkpt lat="51.5565228" lon="7.3105780"/>
      <trkpt lat="51.5563656" lon="7.3106100"/>
      <trkpt lat="51.5560681" lon="7.3106704"/>
      <trkpt lat="51.5559932" lon="7.3106857"/>
      <trkpt lat="51.5557517" lon="7.3107347"/>
      <trkpt lat="51.5555824" lon="7.3107691"/>
      <trkpt lat="51.5555167" lon="7.3107807"/>
      <trkpt lat="51.5552761" lon="7.3108314"/>
      <trkpt lat="51.5552056" lon="7.3108460"/>
      <trkpt lat="51.5550635" lon="7.3108746"/>
      <trkpt lat="51.5549884" lon="7.3108899"/>
      <trkpt lat="51.5549339" lon="7.3109009"/>
      <trkpt lat="51.5548687" lon="7.3108523"/>
      <trkpt lat="51.5547272" lon="7.3108790"/>
      <trkpt lat="51.5546982" lon="7.3108844"/>
      <trkpt lat="51.5546193" lon="7.3108972"/>
      <trkpt lat="51.5544330" lon="7.3109139"/>
      <trkpt lat="51.5543591" lon="7.3109126"/>
      <trkpt lat="51.5543200" lon="7.3109119"/>
      <trkpt lat="51.5542137" lon="7.3108991"/>
      <trkpt lat="51.5541019" lon="7.3108669"/>
      <trkpt lat="51.5539843" lon="7.3108160"/>
      <trkpt lat="51.5538378" lon="7.3107371"/>
      <trkpt lat="51.5537495" lon="7.3106743"/>
      <trkpt lat="51.5537164" lon="7.3106533"/>
      <trkpt lat="51.5534330" lon="7.3104364"/>
      <trkpt lat="51.5533138" lon="7.3103264"/>
      <trkpt lat="51.5531978" lon="7.3102026"/>
      <trkpt lat="51.5530222" lon="7.3099715"/>
      <trkpt lat="51.5529061" lon="7.3097665"/>
      <trkpt lat="51.5527495" lon="7.3094194"/>
      <trkpt lat="51.5526983" lon="7.3092802"/>
      <trkpt lat="51.5525522" lon="7.3087925"/>
      <trkpt lat="51.5524563" lon="7.3084773"/>
      <trkpt lat="51.5523716" lon="7.3082020"/>
      <trkpt lat="51.5523439" lon="7.3081184"/>
      <trkpt lat="51.5523288" lon="7.3080727"/>
      <trkpt lat="51.5522824" lon="7.3079326"/>
      <trkpt lat="51.5522555" lon="7.3078646"/>
      <trkpt lat="51.5522085" lon="7.3077543"/>
      <trkpt lat="51.5521495" lon="7.3076090"/>
      <trkpt lat="51.5521241" lon="7.3075409"/>
      <trkpt lat="51.5521017" lon="7.3074833"/>
      <trkpt lat="51.5519266" lon="7.3071234"/>
      <trkpt lat="51.5517708" lon="7.3068725"/>
      <trkpt lat="51.5516503" lon="7.3066932"/>
      <trkpt lat="51.5515537" lon="7.3065654"/>
      <trkpt lat="51.5513657" lon="7.3063446"/>
      <trkpt lat="51.5512634" lon="7.3062381"/>
      <trkpt lat="51.5511579" lon="7.3061362"/>
      <trkpt lat="51.5510706" lon="7.3060609"/>
      <trkpt lat="51.5509979" lon="7.3060020"/>
      <trkpt lat="51.5508139" lon="7.3058720"/>
      <trkpt lat="51.5506760" lon="7.3057870"/>
      <trkpt lat="51.5505224" lon="7.3057097"/>
      <trkpt lat="51.5504269" lon="7.3056675"/>
      <trkpt lat="51.5502535" lon="7.3056038"/>
      <trkpt lat="51.5500800" lon="7.3055615"/>
      <trkpt lat="51.5499437" lon="7.3055310"/>
      <trkpt lat="51.5497935" lon="7.3055220"/>
      <trkpt lat="51.5495219" lon="7.3055453"/>
      <trkpt lat="51.5494217" lon="7.3055291"/>
      <trkpt lat="51.5492966" lon="7.3055242"/>
      <trkpt lat="51.5492492" lon="7.3055009"/>
      <trkpt lat="51.5492112" lon="7.3054799"/>
      <trkpt lat="51.5491481" lon="7.3053808"/>
      <trkpt lat="51.5491076" lon="7.3052418"/>
      <trkpt lat="51.5491047" lon="7.3051451"/>
      <trkpt lat="51.5491166" lon="7.3050343"/>
      <trkpt lat="51.5491711" lon="7.3048217"/>
      <trkpt lat="51.5492356" lon="7.3047583"/>
      <trkpt lat="51.5492838" lon="7.3047216"/>
      <trkpt lat="51.5494052" lon="7.3046833"/>
      <trkpt lat="51.5495363" lon="7.3046552"/>
      <trkpt lat="51.5498658" lon="7.3046508"/>
      <trkpt lat="51.5501087" lon="7.3046653"/>
      <trkpt lat="51.5501131" lon="7.3049542"/>
      <trkpt lat="51.5501234" lon="7.3052619"/>
      <trkpt lat="51.5501419" lon="7.3055598"/>
      <trkpt lat="51.5501993" lon="7.3062938"/>
      <trkpt lat="51.5502437" lon="7.3066489"/>
      <trkpt lat="51.5502466" lon="7.3070324"/>
      <trkpt lat="51.5502152" lon="7.3071784"/>
      <trkpt lat="51.5501467" lon="7.3072658"/>
      <trkpt lat="51.5500901" lon="7.3072942"/>
      <trkpt lat="51.5500254" lon="7.3072845"/>
      <trkpt lat="51.5499163" lon="7.3072122"/>
      <trkpt lat="51.5498016" lon="7.3071831"/>
      <trkpt lat="51.5496826" lon="7.3071541"/>
      <trkpt lat="51.5495710" lon="7.3071774"/>
      <trkpt lat="51.5494223" lon="7.3072571"/>
      <trkpt lat="51.5493192" lon="7.3073629"/>
      <trkpt lat="51.5492617" lon="7.3074219"/>
      <trkpt lat="51.5489878" lon="7.3078004"/>
      <trkpt lat="51.5489809" lon="7.3078957"/>
      <trkpt lat="51.5489835" lon="7.3079770"/>
      <trkpt lat="51.5490498" lon="7.3082507"/>
      <trkpt lat="51.5491719" lon="7.3085843"/>
      <trkpt lat="51.5492175" lon="7.3086793"/>
      <trkpt lat="51.5493265" lon="7.3088877"/>
      <trkpt lat="51.5493442" lon="7.3089234"/>
      <trkpt lat="51.5493716" lon="7.3089642"/>
      <trkpt lat="51.5494510" lon="7.3090787"/>
      <trkpt lat="51.5495623" lon="7.3092147"/>
      <trkpt lat="51.5497556" lon="7.3093970"/>
      <trkpt lat="51.5497782" lon="7.3094102"/>
      <trkpt lat="51.5498277" lon="7.3094217"/>
      <trkpt lat="51.5498778" lon="7.3094213"/>
      <trkpt lat="51.5499216" lon="7.3092632"/>
      <trkpt lat="51.5500183" lon="7.3088689"/>
      <trkpt lat="51.5500861" lon="7.3085592"/>
      <trkpt lat="51.5501275" lon="7.3082457"/>
      <trkpt lat="51.5501405" lon="7.3081076"/>
      <trkpt lat="51.5501484" lon="7.3079655"/>
      <trkpt lat="51.5501501" lon="7.3078313"/>
      <trkpt lat="51.5501359" lon="7.3076939"/>
      <trkpt lat="51.5501097" lon="7.3075741"/>
      <trkpt lat="51.5500742" lon="7.3074833"/>
      <trkpt lat="51.5500296" lon="7.3074009"/>
      <trkpt lat="51.5500004" lon="7.3073519"/>
      <trkpt lat="51.5499362" lon="7.3072715"/>
      <trkpt lat="51.5498016" lon="7.3071831"/>
      <trkpt lat="51.5496826" lon="7.3071541"/>
      <trkpt lat="51.5495710" lon="7.3071774"/>
      <trkpt lat="51.5494223" lon="7.3072571"/>
      <trkpt lat="51.5493192" lon="7.3073629"/>
      <trkpt lat="51.5492617" lon="7.3074219"/>
      <trkpt lat="51.5489878" lon="7.3078004"/>
      <trkpt lat="51.5488302" lon="7.3079988"/>
      <trkpt lat="51.5486032" lon="7.3083351"/>
      <trkpt lat="51.5484041" lon="7.3086302"/>
      <trkpt lat="51.5483191" lon="7.3087551"/>
      <trkpt lat="51.5481937" lon="7.3089462"/>
      <trkpt lat="51.5481153" lon="7.3090587"/>
      <trkpt lat="51.5478953" lon="7.3093684"/>
      <trkpt lat="51.5478191" lon="7.3094521"/>
      <trkpt lat="51.5477714" lon="7.3095112"/>
      <trkpt lat="51.5476991" lon="7.3096055"/>
      <trkpt lat="51.5476578" lon="7.3096780"/>
      <trkpt lat="51.5475212" lon="7.3100626"/>
      <trkpt lat="51.5474194" lon="7.3103523"/>
      <trkpt lat="51.5473913" lon="7.3104341"/>
      <trkpt lat="51.5473235" lon="7.3106318"/>
      <trkpt lat="51.5472785" lon="7.3107833"/>
      <trkpt lat="51.5472610" lon="7.3109405"/>
      <trkpt lat="51.5472526" lon="7.3111102"/>
      <trkpt lat="51.5472502" lon="7.3111589"/>
      <trkpt lat="51.5472443" lon="7.3113088"/>
      <trkpt lat="51.5472422" lon="7.3113609"/>
      <trkpt lat="51.5472310" lon="7.3115380"/>
      <trkpt lat="51.5472252" lon="7.3116389"/>
      <trkpt lat="51.5472111" lon="7.3117066"/>
      <trkpt lat="51.5471837" lon="7.3117722"/>
      <trkpt lat="51.5471523" lon="7.3118012"/>
      <trkpt lat="51.5470995" lon="7.3118252"/>
      <trkpt lat="51.5470138" lon="7.3118364"/>
      <trkpt lat="51.5467637" lon="7.3118677"/>
      <trkpt lat="51.5467250" lon="7.3118812"/>
      <trkpt lat="51.5466882" lon="7.3118940"/>
      <trkpt lat="51.5466457" lon="7.3119177"/>
      <trkpt lat="51.5466174" lon="7.3119335"/>
      <trkpt lat="51.5465526" lon="7.3120034"/>
      <trkpt lat="51.5465042" lon="7.3120762"/>
      <trkpt lat="51.5462885" lon="7.3124136"/>
      <trkpt lat="51.5462795" lon="7.3124256"/>
      <trkpt lat="51.5462425" lon="7.3124724"/>
      <trkpt lat="51.5462055" lon="7.3125160"/>
      <trkpt lat="51.5459321" lon="7.3127515"/>
      <trkpt lat="51.5458196" lon="7.3128498"/>
      <trkpt lat="51.5456847" lon="7.3129596"/>
      <trkpt lat="51.5454617" lon="7.3131616"/>
      <trkpt lat="51.5453271" lon="7.3132682"/>
      <trkpt lat="51.5453258" lon="7.3132693"/>
      <trkpt lat="51.5451610" lon="7.3134077"/>
      <trkpt lat="51.5449436" lon="7.3135592"/>
      <trkpt lat="51.5448944" lon="7.3136035"/>
      <trkpt lat="51.5448521" lon="7.3136563"/>
      <trkpt lat="51.5448228" lon="7.3137143"/>
      <trkpt lat="51.5447840" lon="7.3138203"/>
      <trkpt lat="51.5447708" lon="7.3139012"/>
      <trkpt lat="51.5447658" lon="7.3139964"/>
      <trkpt lat="51.5447681" lon="7.3140718"/>
      <trkpt lat="51.5448048" lon="7.3142836"/>
      <trkpt lat="51.5448362" lon="7.3144509"/>
      <trkpt lat="51.5448669" lon="7.3146220"/>
      <trkpt lat="51.5449800" lon="7.3152514"/>
      <trkpt lat="51.5449872" lon="7.3152917"/>
      <trkpt lat="51.5449893" lon="7.3152973"/>
      <trkpt lat="51.5449793" lon="7.3154099"/>
      <trkpt lat="51.5449693" lon="7.3154941"/>
      <trkpt lat="51.5449493" lon="7.3155927"/>
      <trkpt lat="51.5449329" lon="7.3156775"/>
      <trkpt lat="51.5449334" lon="7.3159949"/>
      <trkpt lat="51.5452732" lon="7.3162522"/>
      <trkpt lat="51.5454385" lon="7.3163939"/>
      <trkpt lat="51.5455417" lon="7.3164996"/>
      <trkpt lat="51.5456299" lon="7.3166035"/>
      <trkpt lat="51.5457335" lon="7.3167433"/>
      <trkpt lat="51.5457915" lon="7.3168325"/>
      <trkpt lat="51.5458135" lon="7.3168663"/>
      <trkpt lat="51.5459586" lon="7.3171244"/>
      <trkpt lat="51.5464492" lon="7.3180998"/>
      <trkpt lat="51.5465730" lon="7.3182742"/>
      <trkpt lat="51.5467578" lon="7.3184681"/>
      <trkpt lat="51.5469501" lon="7.3185983"/>
      <trkpt lat="51.5470568" lon="7.3186513"/>
      <trkpt lat="51.5472962" lon="7.3187117"/>
      <trkpt lat="51.5475027" lon="7.3187524"/>
      <trkpt lat="51.5475320" lon="7.3187582"/>
      <trkpt lat="51.5476650" lon="7.3187714"/>
      <trkpt lat="51.5476510" lon="7.3190252"/>
      <trkpt lat="51.5477156" lon="7.3195222"/>
      <trkpt lat="51.5477470" lon="7.3197641"/>
      <trkpt lat="51.5477714" lon="7.3199910"/>
      <trkpt lat="51.5477749" lon="7.3201990"/>
      <trkpt lat="51.5477561" lon="7.3204980"/>
      <trkpt lat="51.5477504" lon="7.3206316"/>
      <trkpt lat="51.5476276" lon="7.3209971"/>
      <trkpt lat="51.5475039" lon="7.3213655"/>
      <trkpt lat="51.5471764" lon="7.3222955"/>
      <trkpt lat="51.5470007" lon="7.3228165"/>
      <trkpt lat="51.5466998" lon="7.3236862"/>
      <trkpt lat="51.5464071" lon="7.3245582"/>
      <trkpt lat="51.5463981" lon="7.3245953"/>
      <trkpt lat="51.5463323" lon="7.3247832"/>
      <trkpt lat="51.5461900" lon="7.3251441"/>
      <trkpt lat="51.5461102" lon="7.3253201"/>
      <trkpt lat="51.5460169" lon="7.3254897"/>
      <trkpt lat="51.5456548" lon="7.3261422"/>
      <trkpt lat="51.5453019" lon="7.3266956"/>
      <trkpt lat="51.5451520" lon="7.3269967"/>
      <trkpt lat="51.5450315" lon="7.3272978"/>
      <trkpt lat="51.5449888" lon="7.3274159"/>
      <trkpt lat="51.5448181" lon="7.3279108"/>
      <trkpt lat="51.5446461" lon="7.3283412"/>
      <trkpt lat="51.5445244" lon="7.3286001"/>
      <trkpt lat="51.5443713" lon="7.3288690"/>
      <trkpt lat="51.5442303" lon="7.3290814"/>
      <trkpt lat="51.5441656" lon="7.3291776"/>
      <trkpt lat="51.5438999" lon="7.3295297"/>
      <trkpt lat="51.5438610" lon="7.3295840"/>
      <trkpt lat="51.5436492" lon="7.3298673"/>
      <trkpt lat="51.5434373" lon="7.3301852"/>
      <trkpt lat="51.5431663" lon="7.3306147"/>
      <trkpt lat="51.5431131" lon="7.3307139"/>
      <trkpt lat="51.5429246" lon="7.3310653"/>
      <trkpt lat="51.5428133" lon="7.3312676"/>
      <trkpt lat="51.5427753" lon="7.3313473"/>
      <trkpt lat="51.5424707" lon="7.3319858"/>
      <trkpt lat="51.5423485" lon="7.3322894"/>
      <trkpt lat="51.5423104" lon="7.3323902"/>
      <trkpt lat="51.5422945" lon="7.3324399"/>
      <trkpt lat="51.5422697" lon="7.3325243"/>
      <trkpt lat="51.5422163" lon="7.3327016"/>
      <trkpt lat="51.5422053" lon="7.3327455"/>
      <trkpt lat="51.5421899" lon="7.3328510"/>
      <trkpt lat="51.5421888" lon="7.3329057"/>
      <trkpt lat="51.5421879" lon="7.3329532"/>
      <trkpt lat="51.5421380" lon="7.3329633"/>
      <trkpt lat="51.5421134" lon="7.3329819"/>
      <trkpt lat="51.5420919" lon="7.3330087"/>
      <trkpt lat="51.5420751" lon="7.3330412"/>
      <trkpt lat="51.5420629" lon="7.3330788"/>
      <trkpt lat="51.5420556" lon="7.3331238"/>
      <trkpt lat="51.5420545" lon="7.3331602"/>
      <trkpt lat="51.5420576" lon="7.3331963"/>
      <trkpt lat="51.5420725" lon="7.3332547"/>
      <trkpt lat="51.5420980" lon="7.3333027"/>
      <trkpt lat="51.5420485" lon="7.3334046"/>
      <trkpt lat="51.5419908" lon="7.3335362"/>
      <trkpt lat="51.5418654" lon="7.3338377"/>
      <trkpt lat="51.5418299" lon="7.3339102"/>
      <trkpt lat="51.5417473" lon="7.3340791"/>
      <trkpt lat="51.5416430" lon="7.3342679"/>
      <trkpt lat="51.5416183" lon="7.3343125"/>
      <trkpt lat="51.5414752" lon="7.3345172"/>
      <trkpt lat="51.5411396" lon="7.3349769"/>
      <trkpt lat="51.5409649" lon="7.3352122"/>
      <trkpt lat="51.5408450" lon="7.3353896"/>
      <trkpt lat="51.5407110" lon="7.3355728"/>
      <trkpt lat="51.5406573" lon="7.3356432"/>
      <trkpt lat="51.5405271" lon="7.3358022"/>
      <trkpt lat="51.5404592" lon="7.3358808"/>
      <trkpt lat="51.5402815" lon="7.3360829"/>
      <trkpt lat="51.5401729" lon="7.3361928"/>
      <trkpt lat="51.5400557" lon="7.3363116"/>
      <trkpt lat="51.5399261" lon="7.3364499"/>
      <trkpt lat="51.5395935" lon="7.3368839"/>
      <trkpt lat="51.5394038" lon="7.3371451"/>
      <trkpt lat="51.5393066" lon="7.3372725"/>
      <trkpt lat="51.5389995" lon="7.3376537"/>
      <trkpt lat="51.5387225" lon="7.3379496"/>
      <trkpt lat="51.5378857" lon="7.3387350"/>
      <trkpt lat="51.5376927" lon="7.3389149"/>
      <trkpt lat="51.5373789" lon="7.3392072"/>
      <trkpt lat="51.5370914" lon="7.3394733"/>
      <trkpt lat="51.5369700" lon="7.3395846"/>
      <trkpt lat="51.5364045" lon="7.3401059"/>
      <trkpt lat="51.5357197" lon="7.3407023"/>
      <trkpt lat="51.5354474" lon="7.3409842"/>
      <trkpt lat="51.5352240" lon="7.3412401"/>
      <trkpt lat="51.5348587" lon="7.3417075"/>
      <trkpt lat="51.5347074" lon="7.3419131"/>
      <trkpt lat="51.5345771" lon="7.3421468"/>
      <trkpt lat="51.5344773" lon="7.3423405"/>
      <trkpt lat="51.5343830" lon="7.3425188"/>
      <trkpt lat="51.5337401" lon="7.3437540"/>
      <trkpt lat="51.5332105" lon="7.3447033"/>
      <trkpt lat="51.5324409" lon="7.3460391"/>
      <trkpt lat="51.5323025" lon="7.3463113"/>
      <trkpt lat="51.5322098" lon="7.3464981"/>
      <trkpt lat="51.5321260" lon="7.3466697"/>
      <trkpt lat="51.5320226" lon="7.3469596"/>
      <trkpt lat="51.5319567" lon="7.3471497"/>
      <trkpt lat="51.5318962" lon="7.3473311"/>
      <trkpt lat="51.5317616" lon="7.3478091"/>
      <trkpt lat="51.5316994" lon="7.3480547"/>
      <trkpt lat="51.5316680" lon="7.3482122"/>
      <trkpt lat="51.5316348" lon="7.3483723"/>
      <trkpt lat="51.5315158" lon="7.3490779"/>
      <trkpt lat="51.5314638" lon="7.3494583"/>
      <trkpt lat="51.5313262" lon="7.3504660"/>
      <trkpt lat="51.5312541" lon="7.3509009"/>
      <trkpt lat="51.5312167" lon="7.3511012"/>
      <trkpt lat="51.5311723" lon="7.3513024"/>
      <trkpt lat="51.5311003" lon="7.3515420"/>
      <trkpt lat="51.5310062" lon="7.3517777"/>
      <trkpt lat="51.5308603" lon="7.3520820"/>
      <trkpt lat="51.5306246" lon="7.3525009"/>
      <trkpt lat="51.5305614" lon="7.3526131"/>
      <trkpt lat="51.5303328" lon="7.3529912"/>
      <trkpt lat="51.5302115" lon="7.3531709"/>
      <trkpt lat="51.5300919" lon="7.3533481"/>
      <trkpt lat="51.5299979" lon="7.3534783"/>
      <trkpt lat="51.5298542" lon="7.3536658"/>
      <trkpt lat="51.5296701" lon="7.3539002"/>
      <trkpt lat="51.5296254" lon="7.3539554"/>
      <trkpt lat="51.5295078" lon="7.3541007"/>
      <trkpt lat="51.5294762" lon="7.3541377"/>
      <trkpt lat="51.5293335" lon="7.3543139"/>
      <trkpt lat="51.5292511" lon="7.3544206"/>
      <trkpt lat="51.5288694" lon="7.3548728"/>
      <trkpt lat="51.5288445" lon="7.3549023"/>
      <trkpt lat="51.5287067" lon="7.3550776"/>
      <trkpt lat="51.5286807" lon="7.3551107"/>
      <trkpt lat="51.5285885" lon="7.3552276"/>
      <trkpt lat="51.5285123" lon="7.3553145"/>
      <trkpt lat="51.5284044" lon="7.3554787"/>
      <trkpt lat="51.5283026" lon="7.3556371"/>
      <trkpt lat="51.5282778" lon="7.3556822"/>
      <trkpt lat="51.5282596" lon="7.3557151"/>
      <trkpt lat="51.5280815" lon="7.3561919"/>
      <trkpt lat="51.5279703" lon="7.3565256"/>
      <trkpt lat="51.5278293" lon="7.3569855"/>
      <trkpt lat="51.5277627" lon="7.3572060"/>
      <trkpt lat="51.5276744" lon="7.3574809"/>
      <trkpt lat="51.5275234" lon="7.3578960"/>
      <trkpt lat="51.5272312" lon="7.3586202"/>
      <trkpt lat="51.5271639" lon="7.3587637"/>
      <trkpt lat="51.5270908" lon="7.3590390"/>
      <trkpt lat="51.5270348" lon="7.3594874"/>
      <trkpt lat="51.5270128" lon="7.3596436"/>
      <trkpt lat="51.5269829" lon="7.3598601"/>
      <trkpt lat="51.5269615" lon="7.3600073"/>
      <trkpt lat="51.5269208" lon="7.3602523"/>
      <trkpt lat="51.5267888" lon="7.3608550"/>
      <trkpt lat="51.5266972" lon="7.3612691"/>
      <trkpt lat="51.5265901" lon="7.3617533"/>
      <trkpt lat="51.5265811" lon="7.3617943"/>
      <trkpt lat="51.5265409" lon="7.3619759"/>
      <trkpt lat="51.5265236" lon="7.3620538"/>
      <trkpt lat="51.5264306" lon="7.3624716"/>
      <trkpt lat="51.5263325" lon="7.3629121"/>
      <trkpt lat="51.5263253" lon="7.3629459"/>
      <trkpt lat="51.5262621" lon="7.3632267"/>
      <trkpt lat="51.5262356" lon="7.3633455"/>
      <trkpt lat="51.5261899" lon="7.3635481"/>
      <trkpt lat="51.5261183" lon="7.3638597"/>
      <trkpt lat="51.5260951" lon="7.3639609"/>
      <trkpt lat="51.5260697" lon="7.3640604"/>
      <trkpt lat="51.5260502" lon="7.3641306"/>
      <trkpt lat="51.5259554" lon="7.3644433"/>
      <trkpt lat="51.5259134" lon="7.3645635"/>
      <trkpt lat="51.5258118" lon="7.3648543"/>
      <trkpt lat="51.5256719" lon="7.3652460"/>
      <trkpt lat="51.5256009" lon="7.3654524"/>
      <trkpt lat="51.5255942" lon="7.3654719"/>
      <trkpt lat="51.5255727" lon="7.3655347"/>
      <trkpt lat="51.5255099" lon="7.3657160"/>
      <trkpt lat="51.5254622" lon="7.3658360"/>
      <trkpt lat="51.5254380" lon="7.3659026"/>
      <trkpt lat="51.5254194" lon="7.3659539"/>
      <trkpt lat="51.5254070" lon="7.3659880"/>
      <trkpt lat="51.5252941" lon="7.3662989"/>
      <trkpt lat="51.5252563" lon="7.3664021"/>
      <trkpt lat="51.5252328" lon="7.3664663"/>
      <trkpt lat="51.5252286" lon="7.3664778"/>
      <trkpt lat="51.5251535" lon="7.3666730"/>
      <trkpt lat="51.5248856" lon="7.3674171"/>
      <trkpt lat="51.5248835" lon="7.3674229"/>
      <trkpt lat="51.5248552" lon="7.3675010"/>
      <trkpt lat="51.5248448" lon="7.3675297"/>
      <trkpt lat="51.5248230" lon="7.3675898"/>
      <trkpt lat="51.5247827" lon="7.3677015"/>
      <trkpt lat="51.5247771" lon="7.3677173"/>
      <trkpt lat="51.5247561" lon="7.3677902"/>
      <trkpt lat="51.5247489" lon="7.3678151"/>
      <trkpt lat="51.5247380" lon="7.3678505"/>
      <trkpt lat="51.5247277" lon="7.3678980"/>
      <trkpt lat="51.5247161" lon="7.3679909"/>
      <trkpt lat="51.5247147" lon="7.3680976"/>
      <trkpt lat="51.5247273" lon="7.3682463"/>
      <trkpt lat="51.5247432" lon="7.3684132"/>
      <trkpt lat="51.5247719" lon="7.3687641"/>
      <trkpt lat="51.5247770" lon="7.3689068"/>
      <trkpt lat="51.5247767" lon="7.3689663"/>
      <trkpt lat="51.5247754" lon="7.3690114"/>
      <trkpt lat="51.5246962" lon="7.3690170"/>
      <trkpt lat="51.5246078" lon="7.3690233"/>
      <trkpt lat="51.5243699" lon="7.3690451"/>
      <trkpt lat="51.5241546" lon="7.3690633"/>
      <trkpt lat="51.5240288" lon="7.3690757"/>
      <trkpt lat="51.5239392" lon="7.3690823"/>
      <trkpt lat="51.5237361" lon="7.3690973"/>
      <trkpt lat="51.5236210" lon="7.3691058"/>
      <trkpt lat="51.5235600" lon="7.3691105"/>
      <trkpt lat="51.5234748" lon="7.3691170"/>
      <trkpt lat="51.5233932" lon="7.3691214"/>
      <trkpt lat="51.5232212" lon="7.3691323"/>
      <trkpt lat="51.5231260" lon="7.3691394"/>
      <trkpt lat="51.5230689" lon="7.3691436"/>
      <trkpt lat="51.5226721" lon="7.3691598"/>
      <trkpt lat="51.5226179" lon="7.3691620"/>
      <trkpt lat="51.5224117" lon="7.3691688"/>
      <trkpt lat="51.5222971" lon="7.3691759"/>
      <trkpt lat="51.5222609" lon="7.3691775"/>
      <trkpt lat="51.5220251" lon="7.3691874"/>
      <trkpt lat="51.5219916" lon="7.3691970"/>
      <trkpt lat="51.5216881" lon="7.3693817"/>
      <trkpt lat="51.5216160" lon="7.3694252"/>
      <trkpt lat="51.5216542" lon="7.3695941"/>
      <trkpt lat="51.5217979" lon="7.3701030"/>
      <trkpt lat="51.5218033" lon="7.3701196"/>
      <trkpt lat="51.5218391" lon="7.3702437"/>
      <trkpt lat="51.5220183" lon="7.3708595"/>
      <trkpt lat="51.5221848" lon="7.3714312"/>
      <trkpt lat="51.5221981" lon="7.3714769"/>
      <trkpt lat="51.5222683" lon="7.3717195"/>
      <trkpt lat="51.5221374" lon="7.3717554"/>
      <trkpt lat="51.5221058" lon="7.3717623"/>
      <trkpt lat="51.5217106" lon="7.3718490"/>
      <trkpt lat="51.5216859" lon="7.3718541"/>
      <trkpt lat="51.5216520" lon="7.3718610"/>
      <trkpt lat="51.5214346" lon="7.3719055"/>
      <trkpt lat="51.5213004" lon="7.3719329"/>
      <trkpt lat="51.5211920" lon="7.3719596"/>
      <trkpt lat="51.5209880" lon="7.3720108"/>
      <trkpt lat="51.5208372" lon="7.3720501"/>
      <trkpt lat="51.5206762" lon="7.3720921"/>
      <trkpt lat="51.5204743" lon="7.3721373"/>
      <trkpt lat="51.5203977" lon="7.3721550"/>
      <trkpt lat="51.5201856" lon="7.3722095"/>
      <trkpt lat="51.5198563" lon="7.3722924"/>
      <trkpt lat="51.5197101" lon="7.3723293"/>
      <trkpt lat="51.5195954" lon="7.3723579"/>
      <trkpt lat="51.5195063" lon="7.3723440"/>
      <trkpt lat="51.5194590" lon="7.3723458"/>
      <trkpt lat="51.5194289" lon="7.3723466"/>
      <trkpt lat="51.5192861" lon="7.3723819"/>
      <trkpt lat="51.5192628" lon="7.3723877"/>
      <trkpt lat="51.5191762" lon="7.3724167"/>
      <trkpt lat="51.5190948" lon="7.3724475"/>
      <trkpt lat="51.5190260" lon="7.3724755"/>
      <trkpt lat="51.5189228" lon="7.3725038"/>
      <trkpt lat="51.5181285" lon="7.3727150"/>
      <trkpt lat="51.5181024" lon="7.3727220"/>
      <trkpt lat="51.5180003" lon="7.3727496"/>
      <trkpt lat="51.5170596" lon="7.3730035"/>
      <trkpt lat="51.5169839" lon="7.3730260"/>
      <trkpt lat="51.5169267" lon="7.3730509"/>
      <trkpt lat="51.5168556" lon="7.3730873"/>
      <trkpt lat="51.5168042" lon="7.3731183"/>
      <trkpt lat="51.5166625" lon="7.3732297"/>
      <trkpt lat="51.5165005" lon="7.3733896"/>
      <trkpt lat="51.5163828" lon="7.3735437"/>
      <trkpt lat="51.5162782" lon="7.3737212"/>
      <trkpt lat="51.5161575" lon="7.3739608"/>
      <trkpt lat="51.5160739" lon="7.3741613"/>
      <trkpt lat="51.5160140" lon="7.3743582"/>
      <trkpt lat="51.5159566" lon="7.3746693"/>
      <trkpt lat="51.5159493" lon="7.3747094"/>
      <trkpt lat="51.5159323" lon="7.3748017"/>
      <trkpt lat="51.5158990" lon="7.3750211"/>
      <trkpt lat="51.5158687" lon="7.3751647"/>
      <trkpt lat="51.5159208" lon="7.3753160"/>
      <trkpt lat="51.5159521" lon="7.3753292"/>
      <trkpt lat="51.5161688" lon="7.3754100"/>
      <trkpt lat="51.5163199" lon="7.3754555"/>
      <trkpt lat="51.5164393" lon="7.3755158"/>
      <trkpt lat="51.5165270" lon="7.3755823"/>
      <trkpt lat="51.5166201" lon="7.3757219"/>
      <trkpt lat="51.5166918" lon="7.3758708"/>
      <trkpt lat="51.5167372" lon="7.3760273"/>
      <trkpt lat="51.5167729" lon="7.3762625"/>
      <trkpt lat="51.5168195" lon="7.3766742"/>
      <trkpt lat="51.5168730" lon="7.3772845"/>
      <trkpt lat="51.5169668" lon="7.3778411"/>
      <trkpt lat="51.5170584" lon="7.3790474"/>
      <trkpt lat="51.5171193" lon="7.3796463"/>
      <trkpt lat="51.5172028" lon="7.3802234"/>
      <trkpt lat="51.5172947" lon="7.3807100"/>
      <trkpt lat="51.5173713" lon="7.3811434"/>
      <trkpt lat="51.5173801" lon="7.3811832"/>
      <trkpt lat="51.5173911" lon="7.3812333"/>
      <trkpt lat="51.5174857" lon="7.3816613"/>
      <trkpt lat="51.5176067" lon="7.3821677"/>
      <trkpt lat="51.5178106" lon="7.3829304"/>
      <trkpt lat="51.5180365" lon="7.3836812"/>
      <trkpt lat="51.5182836" lon="7.3844344"/>
      <trkpt lat="51.5185410" lon="7.3851490"/>
      <trkpt lat="51.5190972" lon="7.3864936"/>
      <trkpt lat="51.5193673" lon="7.3871088"/>
      <trkpt lat="51.5196370" lon="7.3876913"/>
      <trkpt lat="51.5204099" lon="7.3893422"/>
      <trkpt lat="51.5206382" lon="7.3898481"/>
      <trkpt lat="51.5208563" lon="7.3903676"/>
      <trkpt lat="51.5210312" lon="7.3908093"/>
      <trkpt lat="51.5213252" lon="7.3916501"/>
      <trkpt lat="51.5215515" lon="7.3923418"/>
      <trkpt lat="51.5217395" lon="7.3930184"/>
      <trkpt lat="51.5218943" lon="7.3936308"/>
      <trkpt lat="51.5220241" lon="7.3942084"/>
      <trkpt lat="51.5221222" lon="7.3946870"/>
      <trkpt lat="51.5222541" lon="7.3953903"/>
      <trkpt lat="51.5222819" lon="7.3955703"/>
      <trkpt lat="51.5223020" lon="7.3956979"/>
      <trkpt lat="51.5223258" lon="7.3958417"/>
      <trkpt lat="51.5223680" lon="7.3961156"/>
      <trkpt lat="51.5225477" lon="7.3973997"/>
      <trkpt lat="51.5227319" lon="7.3991710"/>
      <trkpt lat="51.5228550" lon="7.4009050"/>
      <trkpt lat="51.5229550" lon="7.4026450"/>
      <trkpt lat="51.5230051" lon="7.4041283"/>
      <trkpt lat="51.5230101" lon="7.4051548"/>
      <trkpt lat="51.5230086" lon="7.4061842"/>
      <trkpt lat="51.5229876" lon="7.4071688"/>
      <trkpt lat="51.5229504" lon="7.4082796"/>
      <trkpt lat="51.5229200" lon="7.4088173"/>
      <trkpt lat="51.5228958" lon="7.4092784"/>
      <trkpt lat="51.5228698" lon="7.4096992"/>
      <trkpt lat="51.5228543" lon="7.4100404"/>
      <trkpt lat="51.5227915" lon="7.4110340"/>
      <trkpt lat="51.5227257" lon="7.4119078"/>
      <trkpt lat="51.5225904" lon="7.4137077"/>
      <trkpt lat="51.5225246" lon="7.4145994"/>
      <trkpt lat="51.5224692" lon="7.4154041"/>
      <trkpt lat="51.5224019" lon="7.4164903"/>
      <trkpt lat="51.5223725" lon="7.4170408"/>
      <trkpt lat="51.5223533" lon="7.4174300"/>
      <trkpt lat="51.5223181" lon="7.4185623"/>
      <trkpt lat="51.5223070" lon="7.4198184"/>
      <trkpt lat="51.5223161" lon="7.4207124"/>
      <trkpt lat="51.5223492" lon="7.4216454"/>
      <trkpt lat="51.5223996" lon="7.4226443"/>
      <trkpt lat="51.5224475" lon="7.4232365"/>
      <trkpt lat="51.5224943" lon="7.4237468"/>
      <trkpt lat="51.5225620" lon="7.4244027"/>
      <trkpt lat="51.5227071" lon="7.4256084"/>
      <trkpt lat="51.5228052" lon="7.4262669"/>
      <trkpt lat="51.5229541" lon="7.4272343"/>
      <trkpt lat="51.5230851" lon="7.4279651"/>
      <trkpt lat="51.5233458" lon="7.4294515"/>
      <trkpt lat="51.5234788" lon="7.4302323"/>
      <trkpt lat="51.5236068" lon="7.4310115"/>
      <trkpt lat="51.5236649" lon="7.4314146"/>
      <trkpt lat="51.5237211" lon="7.4318370"/>
      <trkpt lat="51.5237769" lon="7.4323081"/>
      <trkpt lat="51.5238259" lon="7.4327815"/>
      <trkpt lat="51.5238671" lon="7.4332560"/>
      <trkpt lat="51.5239014" lon="7.4337361"/>
      <trkpt lat="51.5239297" lon="7.4342408"/>
      <trkpt lat="51.5239496" lon="7.4347449"/>
      <trkpt lat="51.5239646" lon="7.4355257"/>
      <trkpt lat="51.5239652" lon="7.4363227"/>
      <trkpt lat="51.5239609" lon="7.4371242"/>
      <trkpt lat="51.5239572" lon="7.4374738"/>
      <trkpt lat="51.5239518" lon="7.4379003"/>
      <trkpt lat="51.5239398" lon="7.4386884"/>
      <trkpt lat="51.5239280" lon="7.4397382"/>
      <trkpt lat="51.5239213" lon="7.4404400"/>
      <trkpt lat="51.5238991" lon="7.4415208"/>
      <trkpt lat="51.5238984" lon="7.4422772"/>
      <trkpt lat="51.5239015" lon="7.4428451"/>
      <trkpt lat="51.5239189" lon="7.4434604"/>
      <trkpt lat="51.5239619" lon="7.4442205"/>
      <trkpt lat="51.5239685" lon="7.4443225"/>
      <trkpt lat="51.5239716" lon="7.4443711"/>
      <trkpt lat="51.5239839" lon="7.4445828"/>
      <trkpt lat="51.5239972" lon="7.4448014"/>
      <trkpt lat="51.5239999" lon="7.4449876"/>
      <trkpt lat="51.5239764" lon="7.4457533"/>
      <trkpt lat="51.5239640" lon="7.4460680"/>
      <trkpt lat="51.5239010" lon="7.4480697"/>
      <trkpt lat="51.5238936" lon="7.4482935"/>
      <trkpt lat="51.5238914" lon="7.4483698"/>
      <trkpt lat="51.5238630" lon="7.4493355"/>
      <trkpt lat="51.5238361" lon="7.4502556"/>
      <trkpt lat="51.5238348" lon="7.4503008"/>
      <trkpt lat="51.5238315" lon="7.4504118"/>
      <trkpt lat="51.5238231" lon="7.4509313"/>
      <trkpt lat="51.5238191" lon="7.4511367"/>
      <trkpt lat="51.5238181" lon="7.4512128"/>
      <trkpt lat="51.5238121" lon="7.4515416"/>
      <trkpt lat="51.5238106" lon="7.4518716"/>
      <trkpt lat="51.5238115" lon="7.4520346"/>
      <trkpt lat="51.5238143" lon="7.4523828"/>
      <trkpt lat="51.5238150" lon="7.4524461"/>
      <trkpt lat="51.5238166" lon="7.4525619"/>
      <trkpt lat="51.5238186" lon="7.4527041"/>
      <trkpt lat="51.5237114" lon="7.4527228"/>
      <trkpt lat="51.5236883" lon="7.4527268"/>
      <trkpt lat="51.5236488" lon="7.4527333"/>
      <trkpt lat="51.5235290" lon="7.4527546"/>
      <trkpt lat="51.5232753" lon="7.4527988"/>
      <trkpt lat="51.5229451" lon="7.4528564"/>
      <trkpt lat="51.5228772" lon="7.4528682"/>
      <trkpt lat="51.5228054" lon="7.4528808"/>
      <trkpt lat="51.5227061" lon="7.4528981"/>
      <trkpt lat="51.5223771" lon="7.4529554"/>
      <trkpt lat="51.5223042" lon="7.4529682"/>
      <trkpt lat="51.5217044" lon="7.4530727"/>
      <trkpt lat="51.5215902" lon="7.4530926"/>
      <trkpt lat="51.5214637" lon="7.4531145"/>
      <trkpt lat="51.5213561" lon="7.4531333"/>
      <trkpt lat="51.5209058" lon="7.4532120"/>
      <trkpt lat="51.5207805" lon="7.4532338"/>
      <trkpt lat="51.5205887" lon="7.4532672"/>
      <trkpt lat="51.5203972" lon="7.4532985"/>
      <trkpt lat="51.5202391" lon="7.4533282"/>
      <trkpt lat="51.5201949" lon="7.4533364"/>
      <trkpt lat="51.5201219" lon="7.4533500"/>
      <trkpt lat="51.5199815" lon="7.4533766"/>
      <trkpt lat="51.5199437" lon="7.4533838"/>
      <trkpt lat="51.5197992" lon="7.4534119"/>
      <trkpt lat="51.5197376" lon="7.4534233"/>
      <trkpt lat="51.5195496" lon="7.4534565"/>
      <trkpt lat="51.5195120" lon="7.4534646"/>
      <trkpt lat="51.5194625" lon="7.4534770"/>
      <trkpt lat="51.5193765" lon="7.4534974"/>
      <trkpt lat="51.5192897" lon="7.4535164"/>
      <trkpt lat="51.5193010" lon="7.4536631"/>
      <trkpt lat="51.5193081" lon="7.4537306"/>
      <trkpt lat="51.5193517" lon="7.4540260"/>
      <trkpt lat="51.5193699" lon="7.4541344"/>
      <trkpt lat="51.5194251" lon="7.4544274"/>
      <trkpt lat="51.5196145" lon="7.4552247"/>
      <trkpt lat="51.5196551" lon="7.4554420"/>
      <trkpt lat="51.5198105" lon="7.4562442"/>
      <trkpt lat="51.5198475" lon="7.4564487"/>
      <trkpt lat="51.5198736" lon="7.4566460"/>
      <trkpt lat="51.5198681" lon="7.4568073"/>
      <trkpt lat="51.5198679" lon="7.4569299"/>
      <trkpt lat="51.5198705" lon="7.4570782"/>
      <trkpt lat="51.5198781" lon="7.4572232"/>
      <trkpt lat="51.5198946" lon="7.4574774"/>
      <trkpt lat="51.5198970" lon="7.4575303"/>
      <trkpt lat="51.5199055" lon="7.4577248"/>
      <trkpt lat="51.5199102" lon="7.4578569"/>
      <trkpt lat="51.5199188" lon="7.4580359"/>
      <trkpt lat="51.5199300" lon="7.4582138"/>
      <trkpt lat="51.5199528" lon="7.4582965"/>
      <trkpt lat="51.5199886" lon="7.4583637"/>
      <trkpt lat="51.5200236" lon="7.4589505"/>
      <trkpt lat="51.5200301" lon="7.4590562"/>
      <trkpt lat="51.5200354" lon="7.4591413"/>
      <trkpt lat="51.5200471" lon="7.4593302"/>
      <trkpt lat="51.5200573" lon="7.4594931"/>
      <trkpt lat="51.5200758" lon="7.4597737"/>
      <trkpt lat="51.5200473" lon="7.4598493"/>
      <trkpt lat="51.5200428" lon="7.4599017"/>
      <trkpt lat="51.5200413" lon="7.4599555"/>
      <trkpt lat="51.5200435" lon="7.4600122"/>
      <trkpt lat="51.5200538" lon="7.4601613"/>
      <trkpt lat="51.5200585" lon="7.4602700"/>
      <trkpt lat="51.5200585" lon="7.4604214"/>
      <trkpt lat="51.5200510" lon="7.4605728"/>
      <trkpt lat="51.5200421" lon="7.4606653"/>
      <trkpt lat="51.5200359" lon="7.4607366"/>
      <trkpt lat="51.5200342" lon="7.4607927"/>
      <trkpt lat="51.5200406" lon="7.4609125"/>
      <trkpt lat="51.5199910" lon="7.4611426"/>
      <trkpt lat="51.5198333" lon="7.4618347"/>
      <trkpt lat="51.5197893" lon="7.4620279"/>
      <trkpt lat="51.5197565" lon="7.4621717"/>
      <trkpt lat="51.5197336" lon="7.4622725"/>
      <trkpt lat="51.5196843" lon="7.4624321"/>
      <trkpt lat="51.5196506" lon="7.4625536"/>
      <trkpt lat="51.5196214" lon="7.4626633"/>
      <trkpt lat="51.5196031" lon="7.4627456"/>
      <trkpt lat="51.5195888" lon="7.4628541"/>
      <trkpt lat="51.5195818" lon="7.4629647"/>
      <trkpt lat="51.5195790" lon="7.4630585"/>
      <trkpt lat="51.5195807" lon="7.4631802"/>
      <trkpt lat="51.5195833" lon="7.4632388"/>
      <trkpt lat="51.5195913" lon="7.4633947"/>
      <trkpt lat="51.5196062" lon="7.4636056"/>
      <trkpt lat="51.5196192" lon="7.4637530"/>
      <trkpt lat="51.5196516" lon="7.4639707"/>
      <trkpt lat="51.5196793" lon="7.4641050"/>
      <trkpt lat="51.5197243" lon="7.4642797"/>
      <trkpt lat="51.5197806" lon="7.4644485"/>
      <trkpt lat="51.5198046" lon="7.4645205"/>
      <trkpt lat="51.5199313" lon="7.4647999"/>
      <trkpt lat="51.5199673" lon="7.4648805"/>
      <trkpt lat="51.5200056" lon="7.4649678"/>
      <trkpt lat="51.5201317" lon="7.4652817"/>
      <trkpt lat="51.5202426" lon="7.4656161"/>
      <trkpt lat="51.5202850" lon="7.4657578"/>
      <trkpt lat="51.5203189" lon="7.4658708"/>
      <trkpt lat="51.5203371" lon="7.4659468"/>
      <trkpt lat="51.5204528" lon="7.4664151"/>
      <trkpt lat="51.5206480" lon="7.4672050"/>
      <trkpt lat="51.5206622" lon="7.4672652"/>
      <trkpt lat="51.5207275" lon="7.4675115"/>
      <trkpt lat="51.5207640" lon="7.4676973"/>
      <trkpt lat="51.5208656" lon="7.4682872"/>
      <trkpt lat="51.5209216" lon="7.4686669"/>
      <trkpt lat="51.5209384" lon="7.4688350"/>
      <trkpt lat="51.5209454" lon="7.4689201"/>
      <trkpt lat="51.5209566" lon="7.4691155"/>
      <trkpt lat="51.5209605" lon="7.4695008"/>
      <trkpt lat="51.5209632" lon="7.4697645"/>
      <trkpt lat="51.5209566" lon="7.4699398"/>
      <trkpt lat="51.5208600" lon="7.4699255"/>
      <trkpt lat="51.5202908" lon="7.4698417"/>
      <trkpt lat="51.5199905" lon="7.4697761"/>
      <trkpt lat="51.5196914" lon="7.4697010"/>
      <trkpt lat="51.5195271" lon="7.4696640"/>
      <trkpt lat="51.5192545" lon="7.4696053"/>
      <trkpt lat="51.5192166" lon="7.4695980"/>
      <trkpt lat="51.5190018" lon="7.4695544"/>
      <trkpt lat="51.5189021" lon="7.4695333"/>
      <trkpt lat="51.5186025" lon="7.4694756"/>
      <trkpt lat="51.5183275" lon="7.4694100"/>
      <trkpt lat="51.5180805" lon="7.4693428"/>
      <trkpt lat="51.5178009" lon="7.4692621"/>
      <trkpt lat="51.5177266" lon="7.4692287"/>
      <trkpt lat="51.5172971" lon="7.4690357"/>
      <trkpt lat="51.5172647" lon="7.4690212"/>
      <trkpt lat="51.5172135" lon="7.4689979"/>
      <trkpt lat="51.5171328" lon="7.4689565"/>
      <trkpt lat="51.5169973" lon="7.4688932"/>
      <trkpt lat="51.5169702" lon="7.4690561"/>
      <trkpt lat="51.5169464" lon="7.4691980"/>
      <trkpt lat="51.5169400" lon="7.4692375"/>
      <trkpt lat="51.5168993" lon="7.4694975"/>
      <trkpt lat="51.5168404" lon="7.4698448"/>
      <trkpt lat="51.5167619" lon="7.4702198"/>
      <trkpt lat="51.5166967" lon="7.4704721"/>
      <trkpt lat="51.5166555" lon="7.4706315"/>
      <trkpt lat="51.5165844" lon="7.4708906"/>
      <trkpt lat="51.5164730" lon="7.4712960"/>
      <trkpt lat="51.5163924" lon="7.4715830"/>
      <trkpt lat="51.5163562" lon="7.4716967"/>
      <trkpt lat="51.5163254" lon="7.4717836"/>
      <trkpt lat="51.5162860" lon="7.4718762"/>
      <trkpt lat="51.5162177" lon="7.4720225"/>
      <trkpt lat="51.5161435" lon="7.4721530"/>
      <trkpt lat="51.5160642" lon="7.4722764"/>
      <trkpt lat="51.5160113" lon="7.4723425"/>
      <trkpt lat="51.5159652" lon="7.4723952"/>
      <trkpt lat="51.5159010" lon="7.4724509"/>
      <trkpt lat="51.5158441" lon="7.4724985"/>
      <trkpt lat="51.5157462" lon="7.4725683"/>
      <trkpt lat="51.5156192" lon="7.4726468"/>
      <trkpt lat="51.5154784" lon="7.4727198"/>
      <trkpt lat="51.5154173" lon="7.4727413"/>
      <trkpt lat="51.5153266" lon="7.4727713"/>
      <trkpt lat="51.5152464" lon="7.4727881"/>
      <trkpt lat="51.5152100" lon="7.4727938"/>
      <trkpt lat="51.5151818" lon="7.4727959"/>
      <trkpt lat="51.5150287" lon="7.4727909"/>
      <trkpt lat="51.5150314" lon="7.4726183"/>
      <trkpt lat="51.5150318" lon="7.4725754"/>
      <trkpt lat="51.5150326" lon="7.4725353"/>
      <trkpt lat="51.5150331" lon="7.4725125"/>
      <trkpt lat="51.5150340" lon="7.4724680"/>
      <trkpt lat="51.5150348" lon="7.4724469"/>
      <trkpt lat="51.5150571" lon="7.4718842"/>
      <trkpt lat="51.5150797" lon="7.4713147"/>
      <trkpt lat="51.5150826" lon="7.4712365"/>
      <trkpt lat="51.5150884" lon="7.4711574"/>
      <trkpt lat="51.5151075" lon="7.4706351"/>
      <trkpt lat="51.5151236" lon="7.4702000"/>
      <trkpt lat="51.5151258" lon="7.4701402"/>
      <trkpt lat="51.5151288" lon="7.4700569"/>
      <trkpt lat="51.5151333" lon="7.4699347"/>
      <trkpt lat="51.5151404" lon="7.4697722"/>
      <trkpt lat="51.5151531" lon="7.4695090"/>
      <trkpt lat="51.5151626" lon="7.4692486"/>
      <trkpt lat="51.5152670" lon="7.4691614"/>
      <trkpt lat="51.5152680" lon="7.4690879"/>
      <trkpt lat="51.5152707" lon="7.4688977"/>
      <trkpt lat="51.5152751" lon="7.4688594"/>
      <trkpt lat="51.5152787" lon="7.4687664"/>
      <trkpt lat="51.5153325" lon="7.4687044"/>
      <trkpt lat="51.5153626" lon="7.4686869"/>
      <trkpt lat="51.5153709" lon="7.4686841"/>
      <trkpt lat="51.5154195" lon="7.4686873"/>
    </trkseg>
  </trk>
</gpx>